{"type": "FeatureCollection", "features": [{"type": "Feature", "properties": {"type": "way", "id": 258995436, "addr:housenumber": "219", "addr:postcode": "81530-310", "addr:street": "Rua Heitor de Andrade", "building": "yes", "name": "Par\u00f3quia S\u00e3o Carlos Borromeu", "survey:date": "2014-10-05"}, "geometry": {"type": "Polygon", "coordinates": [[[-49.2280973, -25.4567255], [-49.2281684, -25.4568737], [-49.2281063, -25.456898], [-49.2279179, -25.4569718], [-49.2278467, -25.4568236], [-49.2280352, -25.4567498], [-49.2280973, -25.4567255]]]}}, {"type": "Feature", "properties": {"type": "way", "id": 259751773, "addr:housenumber": "609", "addr:street": "Avenida Coronel Francisco h dos Santos", "amenity": "pharmacy", "building": "yes", "name": "Farm\u00e1cia Panvel"}, "geometry": {"type": "Polygon", "coordinates": [[[-49.2300158, -25.4537368], [-49.2300646, -25.45384], [-49.2298875, -25.4539059], [-49.2298406, -25.4538033], [-49.2300158, -25.4537368]]]}}, {"type": "Feature", "properties": {"type": "way", "id": 260141317, "addr:housename": "Caixa Econ\u00f4mica Federal", "addr:housenumber": "791", "addr:postcode": "81530-000", "addr:street": "Avenida Coronel Francisco h dos Santos", "amenity": "bank", "building": "yes", "height": "10", "name": "Caixa Econ\u00f4mica Federal - Ag Jardim das Am\u00e9ricas", "survey:date": "2014-02-17"}, "geometry": {"type": "Polygon", "coordinates": [[[-49.2305361, -25.4552398], [-49.2305933, -25.4553581], [-49.2306748, -25.455326], [-49.2307039, -25.4553863], [-49.2304502, -25.4554862], [-49.2303639, -25.4553077], [-49.2305361, -25.4552398]]]}}, {"type": "Feature", "properties": {"type": "way", "id": 260144029, "addr:housenumber": "154", "building": "yes"}, "geometry": {"type": "Polygon", "coordinates": [[[-49.231215, -25.4546132], [-49.2311239, -25.4546432], [-49.2312263, -25.4548974], [-49.2313174, -25.4548674], [-49.231215, -25.4546132]]]}}, {"type": "Feature", "properties": {"type": "way", "id": 260144034, "building": "yes"}, "geometry": {"type": "Polygon", "coordinates": [[[-49.2311808, -25.4548407], [-49.2311199, -25.454863], [-49.2311443, -25.4549174], [-49.2312052, -25.4548951], [-49.2311808, -25.4548407]]]}}, {"type": "Feature", "properties": {"type": "way", "id": 260144037, "addr:housenumber": "740", "addr:street": "Rua Coronel Francisco Her\u00e1clito dos Santos", "building": "yes", "survey:date": "2014-02-17"}, "geometry": {"type": "Polygon", "coordinates": [[[-49.2311027, -25.4546518], [-49.2310367, -25.4546749], [-49.2311092, -25.4548441], [-49.2311752, -25.454821], [-49.2311027, -25.4546518]]]}}, {"type": "Feature", "properties": {"type": "way", "id": 260144637, "building": "yes"}, "geometry": {"type": "Polygon", "coordinates": [[[-49.2305387, -25.4548792], [-49.2304211, -25.4549234], [-49.230459, -25.4550055], [-49.2305766, -25.4549612], [-49.2305387, -25.4548792]]]}}, {"type": "Feature", "properties": {"type": "way", "id": 261284464, "building": "yes"}, "geometry": {"type": "Polygon", "coordinates": [[[-49.2309674, -25.4557137], [-49.2308417, -25.4557629], [-49.2308842, -25.4558512], [-49.2310098, -25.455802], [-49.2309674, -25.4557137]]]}}, {"type": "Feature", "properties": {"type": "way", "id": 261284468, "building": "yes"}, "geometry": {"type": "Polygon", "coordinates": [[[-49.2305214, -25.4562001], [-49.2305874, -25.4563423], [-49.2304955, -25.4563771], [-49.2304295, -25.4562348], [-49.2305214, -25.4562001]]]}}, {"type": "Feature", "properties": {"type": "way", "id": 261284470, "building": "yes"}, "geometry": {"type": "Polygon", "coordinates": [[[-49.2311025, -25.4559555], [-49.231129, -25.4560122], [-49.2309511, -25.45608], [-49.2309246, -25.4560234], [-49.2311025, -25.4559555]]]}}, {"type": "Feature", "properties": {"type": "way", "id": 261284471, "building": "yes"}, "geometry": {"type": "Polygon", "coordinates": [[[-49.230724, -25.4558083], [-49.2307759, -25.4559182], [-49.2307245, -25.455938], [-49.2306727, -25.4558281], [-49.230724, -25.4558083]]]}}, {"type": "Feature", "properties": {"type": "way", "id": 261285250, "building": "yes"}, "geometry": {"type": "Polygon", "coordinates": [[[-49.2306813, -25.4560971], [-49.2307531, -25.4562602], [-49.2306713, -25.4562895], [-49.2305995, -25.4561265], [-49.2306813, -25.4560971]]]}}, {"type": "Feature", "properties": {"type": "way", "id": 261285251, "building": "yes"}, "geometry": {"type": "Polygon", "coordinates": [[[-49.2305866, -25.4561395], [-49.2305225, -25.456162], [-49.2305915, -25.4563219], [-49.2306555, -25.4562994], [-49.2305866, -25.4561395]]]}}, {"type": "Feature", "properties": {"type": "way", "id": 261285252, "building": "yes"}, "geometry": {"type": "Polygon", "coordinates": [[[-49.2307837, -25.456061], [-49.2308489, -25.4562076], [-49.2307699, -25.4562362], [-49.2307047, -25.4560896], [-49.2307837, -25.456061]]]}}, {"type": "Feature", "properties": {"type": "way", "id": 261285253, "addr:housenumber": "765", "addr:street": "Avenida Coronel Francisco h dos Santos", "building": "yes", "building:levels": "3", "roof:colour": "white", "survey:date": "2014-02-17"}, "geometry": {"type": "Polygon", "coordinates": [[[-49.2306493, -25.4550726], [-49.2306915, -25.4551569], [-49.2305139, -25.4552295], [-49.2304716, -25.4551452], [-49.2306493, -25.4550726]]]}}, {"type": "Feature", "properties": {"type": "way", "id": 261285254, "building": "yes"}, "geometry": {"type": "Polygon", "coordinates": [[[-49.2311927, -25.4561669], [-49.2312211, -25.4562258], [-49.2311018, -25.4562727], [-49.2310734, -25.4562138], [-49.2311927, -25.4561669]]]}}, {"type": "Feature", "properties": {"type": "way", "id": 261285255, "building": "yes"}, "geometry": {"type": "Polygon", "coordinates": [[[-49.2307403, -25.4564757], [-49.230773, -25.4565549], [-49.2305972, -25.456614], [-49.2305645, -25.4565349], [-49.2307403, -25.4564757]]]}}, {"type": "Feature", "properties": {"type": "way", "id": 261285256, "building": "yes"}, "geometry": {"type": "Polygon", "coordinates": [[[-49.2311584, -25.4560373], [-49.2312131, -25.4561463], [-49.2310584, -25.4562095], [-49.2310037, -25.4561004], [-49.2311584, -25.4560373]]]}}, {"type": "Feature", "properties": {"type": "way", "id": 261285257, "building": "yes"}, "geometry": {"type": "Polygon", "coordinates": [[[-49.2309063, -25.456013], [-49.2308032, -25.45605], [-49.2308749, -25.4562132], [-49.230978, -25.4561762], [-49.2309063, -25.456013]]]}}, {"type": "Feature", "properties": {"type": "way", "id": 261285649, "addr:housenumber": "507", "addr:street": "Rua Rodolpho Senff", "building": "yes"}, "geometry": {"type": "Polygon", "coordinates": [[[-49.230278, -25.4565767], [-49.2303081, -25.4566433], [-49.2301605, -25.4566976], [-49.2301304, -25.456631], [-49.230278, -25.4565767]]]}}, {"type": "Feature", "properties": {"type": "way", "id": 261285651, "building": "yes"}, "geometry": {"type": "Polygon", "coordinates": [[[-49.2307873, -25.4563203], [-49.2308791, -25.4565262], [-49.2307977, -25.4565558], [-49.2307059, -25.4563499], [-49.2307873, -25.4563203]]]}}, {"type": "Feature", "properties": {"type": "way", "id": 261285653, "building": "yes"}, "geometry": {"type": "Polygon", "coordinates": [[[-49.2306854, -25.4563591], [-49.2307247, -25.4564408], [-49.2305496, -25.4565094], [-49.2305103, -25.4564278], [-49.2306854, -25.4563591]]]}}, {"type": "Feature", "properties": {"type": "way", "id": 261285655, "building": "yes"}, "geometry": {"type": "Polygon", "coordinates": [[[-49.231006, -25.4562409], [-49.2311089, -25.4564555], [-49.2310154, -25.4564921], [-49.2309124, -25.4562775], [-49.231006, -25.4562409]]]}}, {"type": "Feature", "properties": {"type": "way", "id": 261285660, "building": "yes"}, "geometry": {"type": "Polygon", "coordinates": [[[-49.2308943, -25.4562824], [-49.2309936, -25.456492], [-49.2309127, -25.4565233], [-49.2308133, -25.4563136], [-49.2308943, -25.4562824]]]}}, {"type": "Feature", "properties": {"type": "way", "id": 261432685, "addr:housenumber": "84", "addr:street": "Rua Doutor Juarez de Oliveira", "building": "house"}, "geometry": {"type": "Polygon", "coordinates": [[[-49.2266816, -25.4534625], [-49.2266126, -25.4534378], [-49.2265475, -25.4535862], [-49.2266245, -25.4536138], [-49.2266431, -25.4535713], [-49.2266352, -25.4535684], [-49.2266816, -25.4534625]]]}}, {"type": "Feature", "properties": {"type": "way", "id": 261432687, "addr:housenumber": "112", "addr:street": "Rua Doutor Juarez de Oliveira", "building": "house"}, "geometry": {"type": "Polygon", "coordinates": [[[-49.2269247, -25.4535458], [-49.226832, -25.4535116], [-49.2267621, -25.4536663], [-49.2268548, -25.4537005], [-49.2269247, -25.4535458]]]}}, {"type": "Feature", "properties": {"type": "way", "id": 261432707, "addr:housenumber": "98", "addr:street": "Rua Doutor Juarez de Oliveira", "building": "house"}, "geometry": {"type": "Polygon", "coordinates": [[[-49.2267933, -25.4535008], [-49.2267007, -25.453468], [-49.2266383, -25.4536113], [-49.2267468, -25.4536498], [-49.2267747, -25.4535854], [-49.2267589, -25.4535798], [-49.2267933, -25.4535008]]]}}, {"type": "Feature", "properties": {"type": "way", "id": 261862347, "addr:housenumber": "36", "addr:street": "Rua Pedro Demeterco", "building": "house", "survey:date": "2014-12-30"}, "geometry": {"type": "Polygon", "coordinates": [[[-49.2269111, -25.4552658], [-49.2269427, -25.4553324], [-49.2267895, -25.4553917], [-49.2267578, -25.4553251], [-49.2269111, -25.4552658]]]}}, {"type": "Feature", "properties": {"type": "way", "id": 261862348, "building": "house"}, "geometry": {"type": "Polygon", "coordinates": [[[-49.2273076, -25.4558207], [-49.2273476, -25.4559065], [-49.227237, -25.4559512], [-49.2272239, -25.455925], [-49.227171, -25.4559464], [-49.227142, -25.4558826], [-49.2273076, -25.4558207]]]}}, {"type": "Feature", "properties": {"type": "way", "id": 261882213, "addr:housenumber": "751", "addr:street": "Rua Coronel Francisco Her\u00e1clito dos Santos", "amenity": "clinic", "building": "residential", "name": "LC Sa\u00fade Fisioterapia", "survey:date": "2014-02-17"}, "geometry": {"type": "Polygon", "coordinates": [[[-49.2305154, -25.4549986], [-49.2303926, -25.4550453], [-49.2304326, -25.4551312], [-49.2305554, -25.4550845], [-49.2305154, -25.4549986]]]}}, {"type": "Feature", "properties": {"type": "way", "id": 261882284, "building": "residential"}, "geometry": {"type": "Polygon", "coordinates": [[[-49.2304183, -25.4549582], [-49.2304444, -25.4550134], [-49.2302891, -25.4550732], [-49.2302452, -25.4549803], [-49.2303146, -25.4549536], [-49.2303324, -25.4549912], [-49.2304183, -25.4549582]]]}}, {"type": "Feature", "properties": {"type": "way", "id": 261882289, "building": "residential"}, "geometry": {"type": "Polygon", "coordinates": [[[-49.2308839, -25.4558491], [-49.2307724, -25.4558936], [-49.2307273, -25.4558015], [-49.2308388, -25.455757], [-49.2308839, -25.4558491]]]}}, {"type": "Feature", "properties": {"type": "way", "id": 261920460, "building": "residential"}, "geometry": {"type": "Polygon", "coordinates": [[[-49.2296161, -25.4538713], [-49.229622, -25.4538829], [-49.2296453, -25.4539347], [-49.2296615, -25.4539682], [-49.2294867, -25.4540365], [-49.2293782, -25.454075], [-49.2293414, -25.4540906], [-49.2292959, -25.4539937], [-49.2296161, -25.4538713]]]}}, {"type": "Feature", "properties": {"type": "way", "id": 276641452, "addr:housenumber": "633", "addr:street": "Rua Rodolpho Senff", "building": "yes"}, "geometry": {"type": "Polygon", "coordinates": [[[-49.2308122, -25.4577012], [-49.2307682, -25.4576131], [-49.2306095, -25.4576777], [-49.2306535, -25.4577658], [-49.2308122, -25.4577012]]]}}, {"type": "Feature", "properties": {"type": "way", "id": 276641486, "addr:housenumber": "560", "addr:street": "Rua Carlos Pradi", "building": "yes"}, "geometry": {"type": "Polygon", "coordinates": [[[-49.2307388, -25.4575355], [-49.2304792, -25.4576349], [-49.230509, -25.4576983], [-49.2307686, -25.4575989], [-49.2307388, -25.4575355]]]}}, {"type": "Feature", "properties": {"type": "way", "id": 276641495, "building": "yes"}, "geometry": {"type": "Polygon", "coordinates": [[[-49.2304792, -25.4576638], [-49.2303596, -25.4577111], [-49.2303739, -25.4577405], [-49.2303987, -25.4577917], [-49.2305183, -25.4577444], [-49.2304792, -25.4576638]]]}}, {"type": "Feature", "properties": {"type": "way", "id": 276641506, "addr:housenumber": "647", "addr:street": "Rua Rodolpho Senff", "building": "yes"}, "geometry": {"type": "Polygon", "coordinates": [[[-49.2308379, -25.4577086], [-49.2306443, -25.4577803], [-49.2306853, -25.4578707], [-49.2308789, -25.457799], [-49.2308379, -25.4577086]]]}}, {"type": "Feature", "properties": {"type": "way", "id": 355756544, "building": "yes"}, "geometry": {"type": "Polygon", "coordinates": [[[-49.2296801, -25.4541901], [-49.2297322, -25.4541695], [-49.2297617, -25.4542306], [-49.2297741, -25.4542561], [-49.2297221, -25.4542767], [-49.2296801, -25.4541901]]]}}, {"type": "Feature", "properties": {"type": "way", "id": 355756545, "building": "yes"}, "geometry": {"type": "Polygon", "coordinates": [[[-49.229513, -25.454097], [-49.2295386, -25.4541558], [-49.22943, -25.4541943], [-49.2294044, -25.4541354], [-49.229513, -25.454097]]]}}, {"type": "Feature", "properties": {"type": "way", "id": 355756546, "addr:housenumber": "367", "addr:street": "Rua Senador Batista de Oliveira", "building": "yes", "survey:date": "2014-01-30"}, "geometry": {"type": "Polygon", "coordinates": [[[-49.2294608, -25.454971], [-49.2295066, -25.4550692], [-49.2295768, -25.4550425], [-49.2295309, -25.4549443], [-49.2294608, -25.454971]]]}}, {"type": "Feature", "properties": {"type": "way", "id": 355756547, "building": "yes"}, "geometry": {"type": "Polygon", "coordinates": [[[-49.2296214, -25.4539989], [-49.2296704, -25.4539796], [-49.2297028, -25.4540464], [-49.229711, -25.4540634], [-49.229662, -25.4540827], [-49.2296214, -25.4539989]]]}}, {"type": "Feature", "properties": {"type": "way", "id": 355756548, "building": "yes"}, "geometry": {"type": "Polygon", "coordinates": [[[-49.2295038, -25.4543246], [-49.2294713, -25.4542527], [-49.2295671, -25.4542174], [-49.2295996, -25.4542892], [-49.2295038, -25.4543246]]]}}, {"type": "Feature", "properties": {"type": "way", "id": 355756549, "building": "yes"}, "geometry": {"type": "Polygon", "coordinates": [[[-49.2298993, -25.4543528], [-49.2298558, -25.4542634], [-49.2296799, -25.4543333], [-49.2297235, -25.4544227], [-49.2298993, -25.4543528]]]}}, {"type": "Feature", "properties": {"type": "way", "id": 355756550, "addr:housenumber": "383", "addr:street": "Rua Senador Batista de Oliveira", "building": "yes", "survey:date": "2014-02-17"}, "geometry": {"type": "Polygon", "coordinates": [[[-49.2293866, -25.4549993], [-49.2294324, -25.4550975], [-49.2293543, -25.4551272], [-49.2293084, -25.455029], [-49.2293741, -25.455004], [-49.2293866, -25.4549993]]]}}, {"type": "Feature", "properties": {"type": "way", "id": 355756551, "building": "yes"}, "geometry": {"type": "Polygon", "coordinates": [[[-49.2294867, -25.4540365], [-49.229513, -25.454097], [-49.2294044, -25.4541354], [-49.2293782, -25.454075], [-49.2294867, -25.4540365]]]}}, {"type": "Feature", "properties": {"type": "way", "id": 355756553, "building": "yes"}, "geometry": {"type": "Polygon", "coordinates": [[[-49.2295278, -25.4543775], [-49.2295038, -25.4543246], [-49.2295996, -25.4542892], [-49.2296236, -25.4543421], [-49.2295278, -25.4543775]]]}}, {"type": "Feature", "properties": {"type": "way", "id": 355756554, "addr:housenumber": "373", "addr:street": "Rua Senador Batista de Oliveira", "building": "yes", "survey:date": "2014-01-30"}, "geometry": {"type": "Polygon", "coordinates": [[[-49.2294608, -25.454971], [-49.2295066, -25.4550692], [-49.2294324, -25.4550975], [-49.2293866, -25.4549993], [-49.2294608, -25.454971]]]}}, {"type": "Feature", "properties": {"type": "way", "id": 355756555, "building": "yes"}, "geometry": {"type": "Polygon", "coordinates": [[[-49.2296284, -25.4545863], [-49.2296041, -25.4545336], [-49.2296991, -25.4544978], [-49.2297234, -25.4545505], [-49.2296284, -25.4545863]]]}}, {"type": "Feature", "properties": {"type": "way", "id": 355756556, "building": "yes"}, "geometry": {"type": "Polygon", "coordinates": [[[-49.2296775, -25.4544613], [-49.2295817, -25.4544967], [-49.2295561, -25.45444], [-49.2296519, -25.4544046], [-49.2296775, -25.4544613]]]}}, {"type": "Feature", "properties": {"type": "way", "id": 355756557, "building": "yes"}, "geometry": {"type": "Polygon", "coordinates": [[[-49.2295514, -25.4541288], [-49.2295093, -25.4540456], [-49.2295692, -25.4540209], [-49.2296113, -25.4541041], [-49.2295514, -25.4541288]]]}}, {"type": "Feature", "properties": {"type": "way", "id": 355756558, "building": "yes"}, "geometry": {"type": "Polygon", "coordinates": [[[-49.2296631, -25.4543016], [-49.229621, -25.4542184], [-49.2296801, -25.4541901], [-49.2297221, -25.4542767], [-49.2296631, -25.4543016]]]}}, {"type": "Feature", "properties": {"type": "way", "id": 355756560, "addr:housenumber": "391", "addr:street": "Rua Senador Batista de Oliveira", "building": "yes", "survey:date": "2014-02-17"}, "geometry": {"type": "Polygon", "coordinates": [[[-49.2293084, -25.455029], [-49.2292239, -25.4550612], [-49.2292698, -25.4551594], [-49.2293543, -25.4551272], [-49.2293084, -25.455029]]]}}, {"type": "Feature", "properties": {"type": "way", "id": 355756561, "building": "yes"}, "geometry": {"type": "Polygon", "coordinates": [[[-49.2295692, -25.4540209], [-49.2296214, -25.4539989], [-49.229662, -25.4540827], [-49.2296113, -25.4541041], [-49.2295692, -25.4540209]]]}}, {"type": "Feature", "properties": {"type": "way", "id": 355756562, "building": "yes"}, "geometry": {"type": "Polygon", "coordinates": [[[-49.2299788, -25.4545358], [-49.2299352, -25.4544464], [-49.2297593, -25.4545163], [-49.2298029, -25.4546057], [-49.2299788, -25.4545358]]]}}, {"type": "Feature", "properties": {"type": "way", "id": 355756563, "building": "yes"}, "geometry": {"type": "Polygon", "coordinates": [[[-49.2296572, -25.4546486], [-49.2296284, -25.4545863], [-49.2297234, -25.4545505], [-49.2297522, -25.4546128], [-49.2296572, -25.4546486]]]}}, {"type": "Feature", "properties": {"type": "way", "id": 355756564, "building": "yes"}, "geometry": {"type": "Polygon", "coordinates": [[[-49.2295561, -25.45444], [-49.2295278, -25.4543775], [-49.2296236, -25.4543421], [-49.2296519, -25.4544046], [-49.2295561, -25.45444]]]}}, {"type": "Feature", "properties": {"type": "way", "id": 355756565, "building": "yes"}, "geometry": {"type": "Polygon", "coordinates": [[[-49.2297748, -25.4546618], [-49.2297028, -25.4546887], [-49.2296799, -25.4546976], [-49.2296572, -25.4546486], [-49.2297522, -25.4546128], [-49.2297748, -25.4546618]]]}}, {"type": "Feature", "properties": {"type": "way", "id": 355756566, "addr:housenumber": "300", "addr:street": "Rua Rodolpho Senff", "building": "yes", "survey:date": "2014-02-18"}, "geometry": {"type": "Polygon", "coordinates": [[[-49.2297296, -25.4548148], [-49.2296979, -25.4547456], [-49.2297243, -25.4547358], [-49.2297028, -25.4546887], [-49.2297748, -25.4546618], [-49.2298799, -25.4546226], [-49.2299255, -25.4547221], [-49.229855, -25.4547484], [-49.2298626, -25.4547651], [-49.2297296, -25.4548148]]]}}, {"type": "Feature", "properties": {"type": "way", "id": 356042706, "building": "yes"}, "geometry": {"type": "Polygon", "coordinates": [[[-49.2277238, -25.454768], [-49.2277753, -25.4547478], [-49.2277208, -25.4546345], [-49.2276693, -25.4546547], [-49.2277238, -25.454768]]]}}, {"type": "Feature", "properties": {"type": "way", "id": 356042707, "building": "yes"}, "geometry": {"type": "Polygon", "coordinates": [[[-49.2280432, -25.4549625], [-49.2279764, -25.4549887], [-49.2278859, -25.4548006], [-49.2279528, -25.4547744], [-49.2280432, -25.4549625]]]}}, {"type": "Feature", "properties": {"type": "way", "id": 356042708, "building": "yes"}, "geometry": {"type": "Polygon", "coordinates": [[[-49.227674, -25.4547875], [-49.2277238, -25.454768], [-49.2276693, -25.4546547], [-49.2276195, -25.4546742], [-49.227674, -25.4547875]]]}}, {"type": "Feature", "properties": {"type": "way", "id": 356042709, "building": "yes"}, "geometry": {"type": "Polygon", "coordinates": [[[-49.2279939, -25.4547583], [-49.2280844, -25.4549464], [-49.2281262, -25.45493], [-49.2280358, -25.4547419], [-49.2279939, -25.4547583]]]}}, {"type": "Feature", "properties": {"type": "way", "id": 356042710, "building": "yes"}, "geometry": {"type": "Polygon", "coordinates": [[[-49.227947, -25.4545572], [-49.2279931, -25.4545391], [-49.2280819, -25.4547238], [-49.2280358, -25.4547419], [-49.227947, -25.4545572]]]}}, {"type": "Feature", "properties": {"type": "way", "id": 356042711, "building": "yes"}, "geometry": {"type": "Polygon", "coordinates": [[[-49.2281543, -25.4546014], [-49.2281035, -25.4544959], [-49.2280405, -25.4545205], [-49.2280913, -25.4546261], [-49.2281543, -25.4546014]]]}}, {"type": "Feature", "properties": {"type": "way", "id": 356042712, "building": "yes"}, "geometry": {"type": "Polygon", "coordinates": [[[-49.2279939, -25.4547583], [-49.2279528, -25.4547744], [-49.2280432, -25.4549625], [-49.2280844, -25.4549464], [-49.2279939, -25.4547583]]]}}, {"type": "Feature", "properties": {"type": "way", "id": 356042713, "building": "yes"}, "geometry": {"type": "Polygon", "coordinates": [[[-49.2277991, -25.4549325], [-49.2277418, -25.454955], [-49.2277927, -25.4550607], [-49.22785, -25.4550383], [-49.2277991, -25.4549325]]]}}, {"type": "Feature", "properties": {"type": "way", "id": 356042715, "building": "yes"}, "geometry": {"type": "Polygon", "coordinates": [[[-49.2282914, -25.4547379], [-49.2283547, -25.4547131], [-49.2284062, -25.4548202], [-49.2283429, -25.454845], [-49.2282914, -25.4547379]]]}}, {"type": "Feature", "properties": {"type": "way", "id": 356042716, "building": "yes"}, "geometry": {"type": "Polygon", "coordinates": [[[-49.2280819, -25.4547238], [-49.2280358, -25.4547419], [-49.2281262, -25.45493], [-49.2281724, -25.4549119], [-49.2280819, -25.4547238]]]}}, {"type": "Feature", "properties": {"type": "way", "id": 356042717, "building": "yes"}, "geometry": {"type": "Polygon", "coordinates": [[[-49.227858, -25.4549094], [-49.2277991, -25.4549325], [-49.22785, -25.4550383], [-49.2279089, -25.4550152], [-49.227858, -25.4549094]]]}}, {"type": "Feature", "properties": {"type": "way", "id": 356042719, "building": "yes"}, "geometry": {"type": "Polygon", "coordinates": [[[-49.2279051, -25.4545736], [-49.227947, -25.4545572], [-49.2280358, -25.4547419], [-49.2279939, -25.4547583], [-49.2279051, -25.4545736]]]}}, {"type": "Feature", "properties": {"type": "way", "id": 356042720, "building": "yes"}, "geometry": {"type": "Polygon", "coordinates": [[[-49.2281676, -25.4544707], [-49.228227, -25.4544475], [-49.2282777, -25.454553], [-49.2282184, -25.4545762], [-49.2281676, -25.4544707]]]}}, {"type": "Feature", "properties": {"type": "way", "id": 356042721, "building": "yes"}, "geometry": {"type": "Polygon", "coordinates": [[[-49.228236, -25.4547596], [-49.2282875, -25.4548668], [-49.2282198, -25.4548933], [-49.2281683, -25.4547862], [-49.228236, -25.4547596]]]}}, {"type": "Feature", "properties": {"type": "way", "id": 356042722, "building": "yes"}, "geometry": {"type": "Polygon", "coordinates": [[[-49.2281035, -25.4544959], [-49.2281676, -25.4544707], [-49.2282184, -25.4545762], [-49.2281543, -25.4546014], [-49.2281035, -25.4544959]]]}}, {"type": "Feature", "properties": {"type": "way", "id": 356042725, "building": "yes"}, "geometry": {"type": "Polygon", "coordinates": [[[-49.228236, -25.4547596], [-49.2282914, -25.4547379], [-49.2283429, -25.454845], [-49.2282875, -25.4548668], [-49.228236, -25.4547596]]]}}, {"type": "Feature", "properties": {"type": "way", "id": 356042726, "building": "yes"}, "geometry": {"type": "Polygon", "coordinates": [[[-49.227864, -25.4545898], [-49.2279528, -25.4547744], [-49.2279939, -25.4547583], [-49.2279051, -25.4545736], [-49.227864, -25.4545898]]]}}, {"type": "Feature", "properties": {"type": "way", "id": 356042727, "building": "yes"}, "geometry": {"type": "Polygon", "coordinates": [[[-49.2277418, -25.454955], [-49.2277097, -25.4549676], [-49.2276802, -25.4549791], [-49.227731, -25.4550849], [-49.2277927, -25.4550607], [-49.2277418, -25.454955]]]}}, {"type": "Feature", "properties": {"type": "way", "id": 356042729, "building": "yes"}, "geometry": {"type": "Polygon", "coordinates": [[[-49.2276874, -25.4549213], [-49.2276631, -25.4548707], [-49.2278114, -25.4548126], [-49.2278184, -25.4548271], [-49.2278357, -25.4548631], [-49.2276874, -25.4549213]]]}}, {"type": "Feature", "properties": {"type": "way", "id": 356042730, "building": "yes"}, "geometry": {"type": "Polygon", "coordinates": [[[-49.2283029, -25.4546055], [-49.2283301, -25.454662], [-49.2281437, -25.4547351], [-49.2281293, -25.4547052], [-49.2281165, -25.4546785], [-49.2283029, -25.4546055]]]}}, {"type": "Feature", "properties": {"type": "way", "id": 356042731, "building": "yes"}, "geometry": {"type": "Polygon", "coordinates": [[[-49.2276631, -25.4548707], [-49.2276399, -25.4548224], [-49.2276827, -25.4548056], [-49.2277882, -25.4547643], [-49.2278114, -25.4548126], [-49.2276631, -25.4548707]]]}}, {"type": "Feature", "properties": {"type": "way", "id": 356042732, "building": "yes"}, "geometry": {"type": "Polygon", "coordinates": [[[-49.2283301, -25.454662], [-49.2283547, -25.4547131], [-49.2282914, -25.4547379], [-49.228236, -25.4547596], [-49.2281683, -25.4547862], [-49.2281437, -25.4547351], [-49.2283301, -25.454662]]]}}, {"type": "Feature", "properties": {"type": "way", "id": 356042733, "building": "yes"}, "geometry": {"type": "Polygon", "coordinates": [[[-49.2279931, -25.4545391], [-49.2280405, -25.4545205], [-49.2280913, -25.4546261], [-49.2281165, -25.4546785], [-49.2281293, -25.4547052], [-49.2280819, -25.4547238], [-49.2279931, -25.4545391]]]}}, {"type": "Feature", "properties": {"type": "way", "id": 356042734, "building": "yes"}, "geometry": {"type": "Polygon", "coordinates": [[[-49.2283029, -25.4546055], [-49.2281165, -25.4546785], [-49.2280913, -25.4546261], [-49.2281543, -25.4546014], [-49.2282184, -25.4545762], [-49.2282777, -25.454553], [-49.2283029, -25.4546055]]]}}, {"type": "Feature", "properties": {"type": "way", "id": 356042737, "building": "yes"}, "geometry": {"type": "Polygon", "coordinates": [[[-49.2277097, -25.4549676], [-49.2276874, -25.4549213], [-49.2278357, -25.4548631], [-49.227858, -25.4549094], [-49.2277991, -25.4549325], [-49.2277418, -25.454955], [-49.2277097, -25.4549676]]]}}, {"type": "Feature", "properties": {"type": "way", "id": 356042738, "building": "yes"}, "geometry": {"type": "Polygon", "coordinates": [[[-49.2282198, -25.4548933], [-49.2281683, -25.4547862], [-49.2281437, -25.4547351], [-49.2281293, -25.4547052], [-49.2280819, -25.4547238], [-49.2281724, -25.4549119], [-49.2282198, -25.4548933]]]}}, {"type": "Feature", "properties": {"type": "way", "id": 356042739, "building": "yes"}, "geometry": {"type": "Polygon", "coordinates": [[[-49.2276827, -25.4548056], [-49.227674, -25.4547875], [-49.2276195, -25.4546742], [-49.2275449, -25.4547034], [-49.2276081, -25.4548349], [-49.2276399, -25.4548224], [-49.2276827, -25.4548056]]]}}, {"type": "Feature", "properties": {"type": "way", "id": 356042741, "building": "yes"}, "geometry": {"type": "Polygon", "coordinates": [[[-49.2278859, -25.4548006], [-49.2278184, -25.4548271], [-49.2278357, -25.4548631], [-49.227858, -25.4549094], [-49.2279089, -25.4550152], [-49.2279764, -25.4549887], [-49.2278859, -25.4548006]]]}}, {"type": "Feature", "properties": {"type": "way", "id": 356063685, "addr:housenumber": "241", "addr:street": "Rua Rodolpho Senff", "amenity": "kindergarten", "building": "yes", "name": "CEI Madre Assunta", "survey:date": "2014-02-18"}, "geometry": {"type": "Polygon", "coordinates": [[[-49.2292482, -25.4544379], [-49.2290869, -25.4544989], [-49.2290458, -25.4544103], [-49.2292071, -25.4543493], [-49.2292482, -25.4544379]]]}}, {"type": "Feature", "properties": {"type": "way", "id": 356063686, "building": "yes"}, "geometry": {"type": "Polygon", "coordinates": [[[-49.2291223, -25.4551225], [-49.2291724, -25.4552308], [-49.2291035, -25.4552568], [-49.2290533, -25.4551485], [-49.2291223, -25.4551225]]]}}, {"type": "Feature", "properties": {"type": "way", "id": 356063688, "addr:housenumber": "265", "addr:street": "Rua Rodolpho Senff", "building": "yes"}, "geometry": {"type": "Polygon", "coordinates": [[[-49.2293573, -25.4546381], [-49.2293119, -25.4545429], [-49.229176, -25.4545958], [-49.2292214, -25.454691], [-49.2293573, -25.4546381]]]}}, {"type": "Feature", "properties": {"type": "way", "id": 356063689, "addr:housenumber": "220", "addr:street": "Rua Ana Berta Roskamp", "building": "yes", "survey:date": "2014-02-18"}, "geometry": {"type": "Polygon", "coordinates": [[[-49.2289975, -25.454853], [-49.2290342, -25.4549323], [-49.2287332, -25.4550459], [-49.2286965, -25.4549667], [-49.2289975, -25.454853]]]}}, {"type": "Feature", "properties": {"type": "way", "id": 356063691, "addr:housenumber": "403", "addr:street": "Rua Senador Batista de Oliveira", "building": "yes", "survey:date": "2014-01-30"}, "geometry": {"type": "Polygon", "coordinates": [[[-49.2292412, -25.4551315], [-49.2291599, -25.4551603], [-49.2291113, -25.4550483], [-49.2291926, -25.4550195], [-49.2292412, -25.4551315]]]}}, {"type": "Feature", "properties": {"type": "way", "id": 356063693, "addr:housenumber": "256", "addr:street": "Rua Ana Berta Roskamp", "building": "yes", "survey:date": "2014-02-18"}, "geometry": {"type": "Polygon", "coordinates": [[[-49.2289913, -25.4551719], [-49.2290299, -25.4552554], [-49.2288599, -25.4553196], [-49.2288213, -25.4552361], [-49.2289913, -25.4551719]]]}}, {"type": "Feature", "properties": {"type": "way", "id": 356063695, "building": "yes"}, "geometry": {"type": "Polygon", "coordinates": [[[-49.228516, -25.4543832], [-49.2285502, -25.4544555], [-49.2284726, -25.4544854], [-49.2284384, -25.4544131], [-49.228516, -25.4543832]]]}}, {"type": "Feature", "properties": {"type": "way", "id": 356063696, "addr:housenumber": "232", "addr:street": "Rua Ana Berta Roskamp", "building": "yes", "survey:date": "2014-02-18"}, "geometry": {"type": "Polygon", "coordinates": [[[-49.2290342, -25.4549323], [-49.229079, -25.455029], [-49.228778, -25.4551427], [-49.2287332, -25.4550459], [-49.2290342, -25.4549323]]]}}, {"type": "Feature", "properties": {"type": "way", "id": 356063698, "building": "yes"}, "geometry": {"type": "Polygon", "coordinates": [[[-49.228516, -25.4543832], [-49.2285995, -25.4543511], [-49.2286336, -25.4544233], [-49.2285748, -25.454446], [-49.2285502, -25.4544555], [-49.228516, -25.4543832]]]}}, {"type": "Feature", "properties": {"type": "way", "id": 356063700, "addr:housenumber": "166", "addr:street": "Rua Ana Berta Roskamp", "building": "yes", "survey:date": "2014-02-13"}, "geometry": {"type": "Polygon", "coordinates": [[[-49.2285748, -25.454446], [-49.2286298, -25.4545624], [-49.2285275, -25.4546018], [-49.2284726, -25.4544854], [-49.2285502, -25.4544555], [-49.2285748, -25.454446]]]}}, {"type": "Feature", "properties": {"type": "way", "id": 356063701, "building": "yes"}, "geometry": {"type": "Polygon", "coordinates": [[[-49.2287092, -25.4545318], [-49.2286542, -25.4544154], [-49.2287232, -25.4543889], [-49.2287489, -25.4544433], [-49.2287781, -25.4545052], [-49.2287092, -25.4545318]]]}}, {"type": "Feature", "properties": {"type": "way", "id": 356063703, "addr:housenumber": "227", "addr:street": "Rua Rodolpho Senff", "building": "yes", "survey:date": "2014-02-18"}, "geometry": {"type": "Polygon", "coordinates": [[[-49.2292071, -25.4543493], [-49.2291479, -25.4542227], [-49.2289603, -25.4542949], [-49.2290196, -25.4544208], [-49.2290458, -25.4544103], [-49.2292071, -25.4543493]]]}}, {"type": "Feature", "properties": {"type": "way", "id": 356063705, "addr:housenumber": "198", "addr:street": "Rua Ana Berta Roskamp", "building": "yes", "survey:date": "2014-02-13"}, "geometry": {"type": "Polygon", "coordinates": [[[-49.2286064, -25.4547687], [-49.2286508, -25.4548681], [-49.2290009, -25.4547359], [-49.2289733, -25.4546747], [-49.2289542, -25.4546347], [-49.2286064, -25.4547687]]]}}, {"type": "Feature", "properties": {"type": "way", "id": 356063707, "building": "yes"}, "geometry": {"type": "Polygon", "coordinates": [[[-49.2285995, -25.4543511], [-49.228689, -25.4543166], [-49.2287232, -25.4543889], [-49.2286542, -25.4544154], [-49.2286336, -25.4544233], [-49.2285995, -25.4543511]]]}}, {"type": "Feature", "properties": {"type": "way", "id": 356063708, "addr:housenumber": "287", "addr:street": "Rua Rodolpho Senff", "building": "yes", "survey:date": "2014-02-18"}, "geometry": {"type": "Polygon", "coordinates": [[[-49.2294798, -25.454835], [-49.2294325, -25.4547337], [-49.2294071, -25.4547425], [-49.2292758, -25.4547936], [-49.229323, -25.4548947], [-49.2294798, -25.454835]]]}}, {"type": "Feature", "properties": {"type": "way", "id": 356063710, "addr:housenumber": "208", "addr:street": "Rua Ana Berta Roskamp", "building": "yes", "survey:date": "2014-02-18"}, "geometry": {"type": "Polygon", "coordinates": [[[-49.2286508, -25.4548681], [-49.2286965, -25.4549667], [-49.2289975, -25.454853], [-49.2290465, -25.4548345], [-49.2290009, -25.4547359], [-49.2286508, -25.4548681]]]}}, {"type": "Feature", "properties": {"type": "way", "id": 356063711, "building": "yes"}, "geometry": {"type": "Polygon", "coordinates": [[[-49.2290196, -25.4544208], [-49.2289358, -25.4544534], [-49.2289631, -25.4545106], [-49.2289857, -25.4545579], [-49.229016, -25.4545461], [-49.2290695, -25.4545253], [-49.2290196, -25.4544208]]]}}, {"type": "Feature", "properties": {"type": "way", "id": 356063713, "addr:housenumber": "299", "addr:street": "Rua Rodolpho Senff", "building": "yes", "survey:date": "2014-02-18"}, "geometry": {"type": "Polygon", "coordinates": [[[-49.2295309, -25.4549443], [-49.2294798, -25.454835], [-49.229323, -25.4548947], [-49.2293741, -25.455004], [-49.2293866, -25.4549993], [-49.2294608, -25.454971], [-49.2295309, -25.4549443]]]}}, {"type": "Feature", "properties": {"type": "way", "id": 356063715, "addr:housenumber": "244", "addr:street": "Rua Ana Berta Roskamp", "building": "yes"}, "geometry": {"type": "Polygon", "coordinates": [[[-49.229079, -25.455029], [-49.2291223, -25.4551225], [-49.2290533, -25.4551485], [-49.2289913, -25.4551719], [-49.2288213, -25.4552361], [-49.228778, -25.4551427], [-49.229079, -25.455029]]]}}, {"type": "Feature", "properties": {"type": "way", "id": 356063716, "addr:housenumber": "186", "addr:street": "Rua Ana Berta Roskamp", "building": "yes", "survey:date": "2014-02-13"}, "geometry": {"type": "Polygon", "coordinates": [[[-49.2289542, -25.4546347], [-49.2286064, -25.4547687], [-49.2285682, -25.4546879], [-49.2288189, -25.4545914], [-49.2289162, -25.4545539], [-49.2289282, -25.4545803], [-49.2289542, -25.4546347]]]}}, {"type": "Feature", "properties": {"type": "way", "id": 356063717, "addr:housenumber": "176", "addr:street": "Rua Ana Berta Roskamp", "building": "yes", "survey:date": "2014-02-13"}, "geometry": {"type": "Polygon", "coordinates": [[[-49.2287781, -25.4545052], [-49.2288189, -25.4545914], [-49.2285682, -25.4546879], [-49.2285275, -25.4546018], [-49.2286298, -25.4545624], [-49.2287092, -25.4545318], [-49.2287781, -25.4545052]]]}}, {"type": "Feature", "properties": {"type": "way", "id": 356063718, "amenity": "police", "building": "yes", "name": "2\u00ba Batalh\u00e3o da Pol\u00edcia Militar - CONSEG-J\u00c1"}, "geometry": {"type": "Polygon", "coordinates": [[[-49.229016, -25.4545461], [-49.2290611, -25.4546405], [-49.2289733, -25.4546747], [-49.2289542, -25.4546347], [-49.2289282, -25.4545803], [-49.2289857, -25.4545579], [-49.229016, -25.4545461]]]}}, {"type": "Feature", "properties": {"type": "way", "id": 356063719, "addr:housenumber": "275", "addr:street": "Rua Rodolpho Senff", "building": "yes", "survey:date": "2014-02-18"}, "geometry": {"type": "Polygon", "coordinates": [[[-49.2293573, -25.4546381], [-49.2292214, -25.454691], [-49.2291264, -25.454728], [-49.2291517, -25.4547811], [-49.2292203, -25.4547544], [-49.2292448, -25.4548057], [-49.2292758, -25.4547936], [-49.2294071, -25.4547425], [-49.2293573, -25.4546381]]]}}, {"type": "Feature", "properties": {"type": "way", "id": 356063721, "addr:housenumber": "348", "addr:street": "Rua Herculano de Souza", "building": "yes", "survey:date": "2014-02-13"}, "geometry": {"type": "Polygon", "coordinates": [[[-49.2289631, -25.4545106], [-49.2288811, -25.4545422], [-49.2288212, -25.4544154], [-49.2287489, -25.4544433], [-49.2287232, -25.4543889], [-49.228689, -25.4543166], [-49.2288433, -25.4542571], [-49.2288765, -25.4543272], [-49.2289358, -25.4544534], [-49.2289631, -25.4545106]]]}}, {"type": "Feature", "properties": {"type": "way", "id": 356063722, "addr:housenumber": "320", "addr:street": "Rua Herculano de Souza", "building": "yes", "survey:date": "2014-02-13"}, "geometry": {"type": "Polygon", "coordinates": [[[-49.2291479, -25.4542227], [-49.2291096, -25.4541417], [-49.2289721, -25.4541946], [-49.2289549, -25.4541583], [-49.2288718, -25.4541903], [-49.2288941, -25.4542376], [-49.2288433, -25.4542571], [-49.2288765, -25.4543272], [-49.2289603, -25.4542949], [-49.2291479, -25.4542227]]]}}, {"type": "Feature", "properties": {"type": "way", "id": 356072972, "building": "yes"}, "geometry": {"type": "Polygon", "coordinates": [[[-49.2298626, -25.4547651], [-49.2299058, -25.454749], [-49.2299379, -25.4548193], [-49.2299561, -25.454859], [-49.2299034, -25.4548787], [-49.2298865, -25.4548419], [-49.2298338, -25.4548615], [-49.2298418, -25.454879], [-49.2298158, -25.4548887], [-49.2298091, -25.4548743], [-49.2297644, -25.4548909], [-49.2297296, -25.4548148], [-49.2298626, -25.4547651]]]}}, {"type": "Feature", "properties": {"type": "way", "id": 356072975, "building": "yes"}, "geometry": {"type": "Polygon", "coordinates": [[[-49.2302429, -25.4547055], [-49.2301769, -25.4547301], [-49.2301359, -25.4546406], [-49.2302019, -25.4546159], [-49.2302429, -25.4547055]]]}}, {"type": "Feature", "properties": {"type": "way", "id": 356072978, "building": "yes"}, "geometry": {"type": "Polygon", "coordinates": [[[-49.2293468, -25.4537424], [-49.2292182, -25.4537879], [-49.2292509, -25.4538633], [-49.2293795, -25.4538179], [-49.2293468, -25.4537424]]]}}, {"type": "Feature", "properties": {"type": "way", "id": 356072981, "building": "yes"}, "geometry": {"type": "Polygon", "coordinates": [[[-49.2299924, -25.4542884], [-49.2299483, -25.4541927], [-49.2298635, -25.4542244], [-49.2299076, -25.4543202], [-49.2299924, -25.4542884]]]}}, {"type": "Feature", "properties": {"type": "way", "id": 356072982, "building": "yes"}, "geometry": {"type": "Polygon", "coordinates": [[[-49.2303029, -25.4546831], [-49.2302429, -25.4547055], [-49.2302019, -25.4546159], [-49.2302619, -25.4545936], [-49.2303029, -25.4546831]]]}}, {"type": "Feature", "properties": {"type": "way", "id": 356072984, "building": "yes"}, "geometry": {"type": "Polygon", "coordinates": [[[-49.2296729, -25.4537173], [-49.2296168, -25.4535847], [-49.2295558, -25.4536057], [-49.2296119, -25.4537383], [-49.2296729, -25.4537173]]]}}, {"type": "Feature", "properties": {"type": "way", "id": 356072988, "building": "yes"}, "geometry": {"type": "Polygon", "coordinates": [[[-49.2304113, -25.4545378], [-49.2304522, -25.4546274], [-49.2303736, -25.4546567], [-49.2303327, -25.4545672], [-49.2304113, -25.4545378]]]}}, {"type": "Feature", "properties": {"type": "way", "id": 356072992, "building": "yes"}, "geometry": {"type": "Polygon", "coordinates": [[[-49.2297158, -25.4535463], [-49.229752, -25.4536285], [-49.2298247, -25.4536024], [-49.2297884, -25.4535202], [-49.2297158, -25.4535463]]]}}, {"type": "Feature", "properties": {"type": "way", "id": 356072993, "building": "yes"}, "geometry": {"type": "Polygon", "coordinates": [[[-49.2303736, -25.4546567], [-49.2303029, -25.4546831], [-49.2302619, -25.4545936], [-49.2303327, -25.4545672], [-49.2303736, -25.4546567]]]}}, {"type": "Feature", "properties": {"type": "way", "id": 356072997, "building": "yes"}, "geometry": {"type": "Polygon", "coordinates": [[[-49.229436, -25.4537109], [-49.2293468, -25.4537424], [-49.2293795, -25.4538179], [-49.2294676, -25.4537881], [-49.229436, -25.4537109]]]}}, {"type": "Feature", "properties": {"type": "way", "id": 356072999, "building": "yes"}, "geometry": {"type": "Polygon", "coordinates": [[[-49.229436, -25.4537109], [-49.2294676, -25.4537881], [-49.2295389, -25.4537635], [-49.2295067, -25.4536874], [-49.229436, -25.4537109]]]}}, {"type": "Feature", "properties": {"type": "way", "id": 356073002, "building": "yes"}, "geometry": {"type": "Polygon", "coordinates": [[[-49.2300317, -25.4547021], [-49.2299058, -25.454749], [-49.2299379, -25.4548193], [-49.2300638, -25.4547723], [-49.2300317, -25.4547021]]]}}, {"type": "Feature", "properties": {"type": "way", "id": 356073003, "building": "yes"}, "geometry": {"type": "Polygon", "coordinates": [[[-49.2295558, -25.4536057], [-49.2294828, -25.4536309], [-49.2295067, -25.4536874], [-49.2295389, -25.4537635], [-49.2296119, -25.4537383], [-49.2295558, -25.4536057]]]}}, {"type": "Feature", "properties": {"type": "way", "id": 356073004, "building": "yes"}, "geometry": {"type": "Polygon", "coordinates": [[[-49.2299288, -25.4540918], [-49.2299495, -25.4541345], [-49.2298346, -25.4541799], [-49.2298139, -25.4541372], [-49.2298663, -25.4541165], [-49.2299288, -25.4540918]]]}}, {"type": "Feature", "properties": {"type": "way", "id": 356073006, "addr:housenumber": "303", "addr:street": "Rua Senador Batista de Oliveira", "building": "yes", "survey:date": "2014-02-17"}, "geometry": {"type": "Polygon", "coordinates": [[[-49.2301359, -25.4546406], [-49.2300229, -25.4546828], [-49.2300317, -25.4547021], [-49.2300638, -25.4547723], [-49.2301769, -25.4547301], [-49.2301359, -25.4546406]]]}}, {"type": "Feature", "properties": {"type": "way", "id": 356073010, "building": "yes"}, "geometry": {"type": "Polygon", "coordinates": [[[-49.2294162, -25.453475], [-49.229343, -25.4534979], [-49.2293888, -25.453602], [-49.2294603, -25.4535767], [-49.2294517, -25.4535568], [-49.2294162, -25.453475]]]}}, {"type": "Feature", "properties": {"type": "way", "id": 356073011, "addr:housenumber": "184", "addr:street": "Rua Rodolpho Senff", "building": "yes", "survey:date": "2014-02-14"}, "geometry": {"type": "Polygon", "coordinates": [[[-49.2292182, -25.4537879], [-49.2291737, -25.4536851], [-49.2293915, -25.4536081], [-49.229436, -25.4537109], [-49.2293468, -25.4537424], [-49.2292182, -25.4537879]]]}}, {"type": "Feature", "properties": {"type": "way", "id": 356073013, "addr:housenumber": "172", "addr:street": "Rua Rodolpho Senff", "building": "house", "building:levels": "2", "roof:levels": "0", "survey:date": "2014-02-14"}, "geometry": {"type": "Polygon", "coordinates": [[[-49.2291737, -25.4536851], [-49.2291269, -25.4535803], [-49.229343, -25.4534979], [-49.2293888, -25.453602], [-49.2293915, -25.4536081], [-49.2291737, -25.4536851]]]}}, {"type": "Feature", "properties": {"type": "way", "id": 356073015, "building": "yes"}, "geometry": {"type": "Polygon", "coordinates": [[[-49.2299924, -25.4542884], [-49.2299076, -25.4543202], [-49.2299649, -25.4544392], [-49.2300322, -25.4544141], [-49.2300467, -25.4544087], [-49.2299924, -25.4542884]]]}}, {"type": "Feature", "properties": {"type": "way", "id": 356073019, "addr:housenumber": "631", "addr:street": "Avenida Coronel Francisco h dos Santos", "building": "yes"}, "geometry": {"type": "Polygon", "coordinates": [[[-49.2301594, -25.4539986], [-49.2299893, -25.4540596], [-49.2299455, -25.4539602], [-49.2300647, -25.4539158], [-49.230115, -25.4538975], [-49.2301594, -25.4539986]]]}}, {"type": "Feature", "properties": {"type": "way", "id": 356073020, "building": "yes"}, "geometry": {"type": "Polygon", "coordinates": [[[-49.2296168, -25.4535847], [-49.2295844, -25.4535123], [-49.2294517, -25.4535568], [-49.2294603, -25.4535767], [-49.2294828, -25.4536309], [-49.2295558, -25.4536057], [-49.2296168, -25.4535847]]]}}, {"type": "Feature", "properties": {"type": "way", "id": 356073022, "building": "yes"}, "geometry": {"type": "Polygon", "coordinates": [[[-49.2297322, -25.4541695], [-49.2297576, -25.4541595], [-49.2298139, -25.4541372], [-49.2298346, -25.4541799], [-49.2298435, -25.4541983], [-49.2297617, -25.4542306], [-49.2297322, -25.4541695]]]}}, {"type": "Feature", "properties": {"type": "way", "id": 356073023, "addr:housenumber": "645", "addr:street": "Avenida Coronel Francisco h dos Santos", "building": "yes"}, "geometry": {"type": "Polygon", "coordinates": [[[-49.2301594, -25.4539986], [-49.2302004, -25.4540916], [-49.2299937, -25.4541657], [-49.2299782, -25.4541305], [-49.2300147, -25.4541174], [-49.2299893, -25.4540596], [-49.2301594, -25.4539986]]]}}, {"type": "Feature", "properties": {"type": "way", "id": 356073024, "addr:housenumber": "158", "addr:street": "Rua Rodolpho Senff", "building": "yes", "survey:date": "2014-02-14"}, "geometry": {"type": "Polygon", "coordinates": [[[-49.2293531, -25.4533876], [-49.2290846, -25.4534899], [-49.2291269, -25.4535803], [-49.229343, -25.4534979], [-49.229337, -25.4534852], [-49.2293894, -25.4534652], [-49.2293531, -25.4533876]]]}}, {"type": "Feature", "properties": {"type": "way", "id": 356073028, "building": "yes"}, "geometry": {"type": "Polygon", "coordinates": [[[-49.2298774, -25.4539856], [-49.2299288, -25.4540918], [-49.2298663, -25.4541165], [-49.2298394, -25.4540609], [-49.2298149, -25.4540103], [-49.2298524, -25.4539955], [-49.2298774, -25.4539856]]]}}, {"type": "Feature", "properties": {"type": "way", "id": 356073031, "building": "yes"}, "geometry": {"type": "Polygon", "coordinates": [[[-49.2293888, -25.453602], [-49.2293915, -25.4536081], [-49.229436, -25.4537109], [-49.2295067, -25.4536874], [-49.2294828, -25.4536309], [-49.2294603, -25.4535767], [-49.2293888, -25.453602]]]}}, {"type": "Feature", "properties": {"type": "way", "id": 356073032, "addr:housenumber": "246", "addr:street": "Rua Herculano de Souza", "building": "yes", "survey:date": "2014-02-13"}, "geometry": {"type": "Polygon", "coordinates": [[[-49.2297292, -25.4538437], [-49.2297556, -25.4539027], [-49.229789, -25.4539773], [-49.2297064, -25.4540075], [-49.2296698, -25.4539258], [-49.2296453, -25.4539347], [-49.229622, -25.4538829], [-49.2297292, -25.4538437]]]}}, {"type": "Feature", "properties": {"type": "way", "id": 356073033, "building": "yes", "building:colour": "#3F7476"}, "geometry": {"type": "Polygon", "coordinates": [[[-49.2299102, -25.4533998], [-49.2298443, -25.4534256], [-49.2297599, -25.4534554], [-49.2297884, -25.4535202], [-49.2298247, -25.4536024], [-49.2298355, -25.4536209], [-49.2299462, -25.453569], [-49.2299102, -25.4533998]]]}}, {"type": "Feature", "properties": {"type": "way", "id": 356073036, "addr:housenumber": "681", "addr:street": "Avenida Coronel Francisco h dos Santos", "building": "yes", "roof:colour": "#A1A7A7"}, "geometry": {"type": "Polygon", "coordinates": [[[-49.2304113, -25.4545378], [-49.2303327, -25.4545672], [-49.2302619, -25.4545936], [-49.2302019, -25.4546159], [-49.2301359, -25.4546406], [-49.2300322, -25.4544141], [-49.2300467, -25.4544087], [-49.2303076, -25.4543113], [-49.2304113, -25.4545378]]]}}, {"type": "Feature", "properties": {"type": "way", "id": 356073038, "building": "yes"}, "geometry": {"type": "Polygon", "coordinates": [[[-49.229758, -25.4540246], [-49.2297028, -25.4540464], [-49.229711, -25.4540634], [-49.2297576, -25.4541595], [-49.2298139, -25.4541372], [-49.2298663, -25.4541165], [-49.2298394, -25.4540609], [-49.2297858, -25.4540821], [-49.229758, -25.4540246]]]}}, {"type": "Feature", "properties": {"type": "way", "id": 356076751, "building": "yes"}, "geometry": {"type": "Polygon", "coordinates": [[[-49.2286174, -25.4539182], [-49.2285413, -25.4539458], [-49.2285853, -25.4540451], [-49.2286615, -25.4540176], [-49.2286174, -25.4539182]]]}}, {"type": "Feature", "properties": {"type": "way", "id": 356076752, "building": "yes"}, "geometry": {"type": "Polygon", "coordinates": [[[-49.2283343, -25.4540467], [-49.2283915, -25.4540019], [-49.2284525, -25.4541414], [-49.2283907, -25.4541662], [-49.2283343, -25.4540467]]]}}, {"type": "Feature", "properties": {"type": "way", "id": 356076754, "building": "yes"}, "geometry": {"type": "Polygon", "coordinates": [[[-49.2282166, -25.4538996], [-49.228128, -25.4539773], [-49.2280807, -25.4539173], [-49.228152, -25.4538558], [-49.2282166, -25.4538996]]]}}, {"type": "Feature", "properties": {"type": "way", "id": 356076755, "building": "yes"}, "geometry": {"type": "Polygon", "coordinates": [[[-49.2283915, -25.4540019], [-49.2284298, -25.4539638], [-49.2285069, -25.4541187], [-49.2284525, -25.4541414], [-49.2283915, -25.4540019]]]}}, {"type": "Feature", "properties": {"type": "way", "id": 356076757, "building": "yes"}, "geometry": {"type": "Polygon", "coordinates": [[[-49.2283563, -25.4537593], [-49.2282975, -25.4538217], [-49.2282395, -25.4537749], [-49.228299, -25.4537115], [-49.2283563, -25.4537593]]]}}, {"type": "Feature", "properties": {"type": "way", "id": 356076759, "building": "yes"}, "geometry": {"type": "Polygon", "coordinates": [[[-49.2281743, -25.4540203], [-49.2282169, -25.45406], [-49.2283268, -25.4539637], [-49.2282841, -25.453924], [-49.2281743, -25.4540203]]]}}, {"type": "Feature", "properties": {"type": "way", "id": 356076760, "building": "yes"}, "geometry": {"type": "Polygon", "coordinates": [[[-49.2283343, -25.4540467], [-49.228256, -25.4540854], [-49.228317, -25.4542002], [-49.2283907, -25.4541662], [-49.2283343, -25.4540467]]]}}, {"type": "Feature", "properties": {"type": "way", "id": 356076762, "building": "yes"}, "geometry": {"type": "Polygon", "coordinates": [[[-49.2284298, -25.4539638], [-49.2284765, -25.453936], [-49.2285534, -25.4540986], [-49.2285069, -25.4541187], [-49.2284298, -25.4539638]]]}}, {"type": "Feature", "properties": {"type": "way", "id": 356076763, "building": "yes"}, "geometry": {"type": "Polygon", "coordinates": [[[-49.2283885, -25.4537894], [-49.228446, -25.4537721], [-49.2284814, -25.453868], [-49.2284239, -25.4538853], [-49.2283885, -25.4537894]]]}}, {"type": "Feature", "properties": {"type": "way", "id": 356076766, "building": "yes"}, "geometry": {"type": "Polygon", "coordinates": [[[-49.2283563, -25.4537593], [-49.228299, -25.4537115], [-49.2283489, -25.453657], [-49.2284095, -25.4537047], [-49.2283563, -25.4537593]]]}}, {"type": "Feature", "properties": {"type": "way", "id": 356076771, "building": "yes"}, "geometry": {"type": "Polygon", "coordinates": [[[-49.2283885, -25.4537894], [-49.2283291, -25.4538073], [-49.2283645, -25.4539032], [-49.2284239, -25.4538853], [-49.2283885, -25.4537894]]]}}, {"type": "Feature", "properties": {"type": "way", "id": 356076773, "building": "yes"}, "geometry": {"type": "Polygon", "coordinates": [[[-49.2282975, -25.4538217], [-49.2283488, -25.4538702], [-49.228302, -25.4539086], [-49.2282525, -25.4538658], [-49.2282975, -25.4538217]]]}}, {"type": "Feature", "properties": {"type": "way", "id": 356076777, "building": "yes"}, "geometry": {"type": "Polygon", "coordinates": [[[-49.2282841, -25.453924], [-49.2281743, -25.4540203], [-49.228128, -25.4539773], [-49.2282166, -25.4538996], [-49.2282378, -25.453881], [-49.2282841, -25.453924]]]}}, {"type": "Feature", "properties": {"type": "way", "id": 356076778, "building": "yes"}, "geometry": {"type": "Polygon", "coordinates": [[[-49.2286757, -25.4538971], [-49.2286825, -25.4539125], [-49.2287202, -25.4539964], [-49.2286615, -25.4540176], [-49.2286174, -25.4539182], [-49.2286757, -25.4538971]]]}}, {"type": "Feature", "properties": {"type": "way", "id": 356076782, "addr:housenumber": "112", "addr:street": "Rua Ana Berta Roskamp", "building": "yes", "survey:date": "2014-02-17"}, "geometry": {"type": "Polygon", "coordinates": [[[-49.2280853, -25.4538943], [-49.2280404, -25.4538565], [-49.2280538, -25.4538435], [-49.228041, -25.4538327], [-49.2280275, -25.4538457], [-49.2279979, -25.4538208], [-49.2280315, -25.4537883], [-49.2280455, -25.4537748], [-49.2280617, -25.4537883], [-49.2281005, -25.4537507], [-49.2281717, -25.4538105], [-49.2280853, -25.4538943]]]}}, {"type": "Feature", "properties": {"type": "way", "id": 356076787, "building": "yes"}, "geometry": {"type": "Polygon", "coordinates": [[[-49.2282975, -25.4538217], [-49.2282525, -25.4538658], [-49.2282378, -25.453881], [-49.2282166, -25.4538996], [-49.228152, -25.4538558], [-49.2282395, -25.4537749], [-49.2282975, -25.4538217]]]}}, {"type": "Feature", "properties": {"type": "way", "id": 356076790, "building": "yes"}, "geometry": {"type": "Polygon", "coordinates": [[[-49.2284765, -25.453936], [-49.2285261, -25.4539136], [-49.2285413, -25.4539458], [-49.2285853, -25.4540451], [-49.2286033, -25.4540771], [-49.2285534, -25.4540986], [-49.2284765, -25.453936]]]}}, {"type": "Feature", "properties": {"type": "way", "id": 356076798, "addr:housenumber": "100", "addr:street": "Rua Ana Berta Roskamp", "building": "yes"}, "geometry": {"type": "Polygon", "coordinates": [[[-49.2281266, -25.4536962], [-49.2280524, -25.4536265], [-49.2280229, -25.4536521], [-49.227955, -25.4535882], [-49.2278674, -25.4536642], [-49.2279424, -25.4537346], [-49.227968, -25.4537123], [-49.2280352, -25.4537755], [-49.2280896, -25.4537283], [-49.2281266, -25.4536962]]]}}, {"type": "Feature", "properties": {"type": "way", "id": 356963688, "building": "yes"}, "geometry": {"type": "Polygon", "coordinates": [[[-49.2303739, -25.4577405], [-49.2302242, -25.4577998], [-49.2301951, -25.4577397], [-49.2303448, -25.4576805], [-49.2303596, -25.4577111], [-49.2303739, -25.4577405]]]}}, {"type": "Feature", "properties": {"type": "way", "id": 361073760, "building": "yes"}, "geometry": {"type": "Polygon", "coordinates": [[[-49.2271206, -25.4544822], [-49.2270526, -25.4545362], [-49.22702, -25.4545178], [-49.2270757, -25.4544441], [-49.2271206, -25.4544822]]]}}, {"type": "Feature", "properties": {"type": "way", "id": 361073761, "building": "yes"}, "geometry": {"type": "Polygon", "coordinates": [[[-49.2272738, -25.4539593], [-49.2271484, -25.4539112], [-49.2271106, -25.4539915], [-49.2271924, -25.4540229], [-49.2271755, -25.4540588], [-49.2273089, -25.45411], [-49.2273271, -25.4540714], [-49.2272583, -25.454045], [-49.2272697, -25.4540207], [-49.2272487, -25.4540126], [-49.2272738, -25.4539593]]]}}, {"type": "Feature", "properties": {"type": "way", "id": 361073764, "building": "yes"}, "geometry": {"type": "Polygon", "coordinates": [[[-49.2272617, -25.4548431], [-49.2273383, -25.4548131], [-49.2273926, -25.4549263], [-49.227316, -25.4549563], [-49.2272617, -25.4548431]]]}}, {"type": "Feature", "properties": {"type": "way", "id": 361073765, "building": "yes"}, "geometry": {"type": "Polygon", "coordinates": [[[-49.2270303, -25.454736], [-49.2271246, -25.4547028], [-49.2270665, -25.4545682], [-49.2269722, -25.4546014], [-49.2270303, -25.454736]]]}}, {"type": "Feature", "properties": {"type": "way", "id": 361073766, "building": "yes"}, "geometry": {"type": "Polygon", "coordinates": [[[-49.2270185, -25.4554972], [-49.2268742, -25.455548], [-49.2268978, -25.4556026], [-49.2270421, -25.4555518], [-49.2270185, -25.4554972]]]}}, {"type": "Feature", "properties": {"type": "way", "id": 361073767, "building": "yes"}, "geometry": {"type": "Polygon", "coordinates": [[[-49.2271886, -25.4548717], [-49.2272617, -25.4548431], [-49.227316, -25.4549563], [-49.2272429, -25.4549849], [-49.2271886, -25.4548717]]]}}, {"type": "Feature", "properties": {"type": "way", "id": 361073768, "building": "yes"}, "geometry": {"type": "Polygon", "coordinates": [[[-49.2269957, -25.454423], [-49.2269034, -25.4543861], [-49.2268669, -25.4544606], [-49.2269592, -25.4544975], [-49.2269957, -25.454423]]]}}, {"type": "Feature", "properties": {"type": "way", "id": 361073769, "addr:housenumber": "37", "addr:street": "Rua Heitor de Andrade", "building": "yes", "survey:date": "2014-02-14"}, "geometry": {"type": "Polygon", "coordinates": [[[-49.2274349, -25.4551255], [-49.2273982, -25.4550515], [-49.2272704, -25.455103], [-49.227307, -25.455177], [-49.2274349, -25.4551255]]]}}, {"type": "Feature", "properties": {"type": "way", "id": 361073771, "building": "yes"}, "geometry": {"type": "Polygon", "coordinates": [[[-49.2279831, -25.4541741], [-49.2279058, -25.4541099], [-49.2278686, -25.4541464], [-49.2278948, -25.4541681], [-49.2278678, -25.4541946], [-49.2278466, -25.4541771], [-49.2278136, -25.4542095], [-49.2278858, -25.4542696], [-49.2279831, -25.4541741]]]}}, {"type": "Feature", "properties": {"type": "way", "id": 361073773, "building": "yes"}, "geometry": {"type": "Polygon", "coordinates": [[[-49.2271669, -25.4542398], [-49.2270342, -25.4541833], [-49.2269861, -25.4542755], [-49.2271188, -25.4543319], [-49.2271669, -25.4542398]]]}}, {"type": "Feature", "properties": {"type": "way", "id": 361073774, "building": "yes"}, "geometry": {"type": "Polygon", "coordinates": [[[-49.2274407, -25.4536325], [-49.2273449, -25.4535954], [-49.2273264, -25.4536344], [-49.2274222, -25.4536715], [-49.2274407, -25.4536325]]]}}, {"type": "Feature", "properties": {"type": "way", "id": 361073775, "building": "yes"}, "geometry": {"type": "Polygon", "coordinates": [[[-49.2271556, -25.4557585], [-49.2269885, -25.4558244], [-49.2270336, -25.4559178], [-49.2272008, -25.4558518], [-49.2271556, -25.4557585]]]}}, {"type": "Feature", "properties": {"type": "way", "id": 361073776, "building": "yes"}, "geometry": {"type": "Polygon", "coordinates": [[[-49.2273666, -25.4538126], [-49.2272494, -25.4537751], [-49.2271964, -25.4539101], [-49.2273135, -25.4539476], [-49.2273666, -25.4538126]]]}}, {"type": "Feature", "properties": {"type": "way", "id": 361073777, "building": "yes"}, "geometry": {"type": "Polygon", "coordinates": [[[-49.2279133, -25.4540866], [-49.2278412, -25.454018], [-49.2277673, -25.4540813], [-49.2278395, -25.4541499], [-49.2279133, -25.4540866]]]}}, {"type": "Feature", "properties": {"type": "way", "id": 361073780, "addr:housenumber": "82", "addr:street": "Rua Pedro Demeterco", "building": "yes", "survey:date": "2014-12-30"}, "geometry": {"type": "Polygon", "coordinates": [[[-49.2271031, -25.455675], [-49.227054, -25.4556926], [-49.2270478, -25.4556784], [-49.2269584, -25.4557103], [-49.2270003, -25.4558058], [-49.2270501, -25.455788], [-49.2270454, -25.4557773], [-49.227134, -25.4557457], [-49.2271031, -25.455675]]]}}, {"type": "Feature", "properties": {"type": "way", "id": 361073781, "building": "yes"}, "geometry": {"type": "Polygon", "coordinates": [[[-49.227096, -25.4550423], [-49.2271703, -25.4550132], [-49.227116, -25.4549001], [-49.2270417, -25.4549291], [-49.227096, -25.4550423]]]}}, {"type": "Feature", "properties": {"type": "way", "id": 361073782, "addr:housenumber": "25", "addr:street": "Rua Heitor de Andrade", "building": "yes", "survey:date": "2014-02-14"}, "geometry": {"type": "Polygon", "coordinates": [[[-49.2273635, -25.4549702], [-49.2273263, -25.4549842], [-49.2273188, -25.454968], [-49.2272417, -25.454997], [-49.2272505, -25.4550161], [-49.2272304, -25.4550237], [-49.2272641, -25.4550966], [-49.2273985, -25.4550461], [-49.2273635, -25.4549702]]]}}, {"type": "Feature", "properties": {"type": "way", "id": 361073783, "addr:housenumber": "485", "addr:street": "Rua Herculano de Souza", "building": "yes", "survey:date": "2014-02-14"}, "geometry": {"type": "Polygon", "coordinates": [[[-49.2274703, -25.4545676], [-49.2273761, -25.4543547], [-49.2272746, -25.4543913], [-49.2273688, -25.4546042], [-49.2274703, -25.4545676]]]}}, {"type": "Feature", "properties": {"type": "way", "id": 361073784, "building": "yes"}, "geometry": {"type": "Polygon", "coordinates": [[[-49.2269909, -25.4546991], [-49.2269202, -25.4547256], [-49.2269413, -25.4547713], [-49.2270119, -25.4547449], [-49.2269909, -25.4546991]]]}}, {"type": "Feature", "properties": {"type": "way", "id": 361073786, "building": "yes"}, "geometry": {"type": "Polygon", "coordinates": [[[-49.2275947, -25.4538247], [-49.2275542, -25.45379], [-49.2274789, -25.4538615], [-49.2275194, -25.4538963], [-49.2275947, -25.4538247]]]}}, {"type": "Feature", "properties": {"type": "way", "id": 361073787, "building": "yes"}, "geometry": {"type": "Polygon", "coordinates": [[[-49.2280817, -25.4542243], [-49.2280517, -25.4542508], [-49.228028, -25.4542289], [-49.227991, -25.4542616], [-49.2279616, -25.4542345], [-49.2280286, -25.4541754], [-49.2280817, -25.4542243]]]}}, {"type": "Feature", "properties": {"type": "way", "id": 361073788, "addr:housenumber": "76", "addr:street": "Rua Pedro Demeterco", "building": "yes", "survey:date": "2014-12-30"}, "geometry": {"type": "Polygon", "coordinates": [[[-49.2270409, -25.4555618], [-49.2269041, -25.4556111], [-49.2269453, -25.4557044], [-49.2269967, -25.4556859], [-49.2269886, -25.4556676], [-49.227074, -25.4556368], [-49.2270409, -25.4555618]]]}}, {"type": "Feature", "properties": {"type": "way", "id": 361073789, "building": "yes"}, "geometry": {"type": "Polygon", "coordinates": [[[-49.2269481, -25.4546084], [-49.2269895, -25.4545172], [-49.2268559, -25.4544677], [-49.2268145, -25.4545589], [-49.2269481, -25.4546084]]]}}, {"type": "Feature", "properties": {"type": "way", "id": 361073790, "building": "yes"}, "geometry": {"type": "Polygon", "coordinates": [[[-49.227133, -25.4546992], [-49.2272273, -25.454666], [-49.2271691, -25.4545314], [-49.2270748, -25.4545646], [-49.227133, -25.4546992]]]}}, {"type": "Feature", "properties": {"type": "way", "id": 361073793, "building": "yes"}, "geometry": {"type": "Polygon", "coordinates": [[[-49.2275081, -25.4537505], [-49.2274643, -25.453713], [-49.2273891, -25.4537845], [-49.2274328, -25.453822], [-49.2275081, -25.4537505]]]}}, {"type": "Feature", "properties": {"type": "way", "id": 361073795, "building": "yes"}, "geometry": {"type": "Polygon", "coordinates": [[[-49.2276381, -25.4538619], [-49.2275628, -25.4539335], [-49.2275194, -25.4538963], [-49.2275947, -25.4538247], [-49.2276381, -25.4538619]]]}}, {"type": "Feature", "properties": {"type": "way", "id": 361073796, "building": "yes"}, "geometry": {"type": "Polygon", "coordinates": [[[-49.2275542, -25.45379], [-49.2275081, -25.4537505], [-49.2274328, -25.453822], [-49.2274789, -25.4538615], [-49.2275542, -25.45379]]]}}, {"type": "Feature", "properties": {"type": "way", "id": 361073797, "building": "yes"}, "geometry": {"type": "Polygon", "coordinates": [[[-49.227116, -25.4549001], [-49.2271886, -25.4548717], [-49.2272429, -25.4549849], [-49.2271703, -25.4550132], [-49.227116, -25.4549001]]]}}, {"type": "Feature", "properties": {"type": "way", "id": 361073799, "building": "yes"}, "geometry": {"type": "Polygon", "coordinates": [[[-49.227392, -25.453735], [-49.2273608, -25.4538009], [-49.2272479, -25.4537572], [-49.2272792, -25.4536913], [-49.227392, -25.453735]]]}}, {"type": "Feature", "properties": {"type": "way", "id": 361073800, "building": "yes"}, "geometry": {"type": "Polygon", "coordinates": [[[-49.2268257, -25.4547152], [-49.226887, -25.4547384], [-49.2268547, -25.4548081], [-49.2267934, -25.454785], [-49.2268257, -25.4547152]]]}}, {"type": "Feature", "properties": {"type": "way", "id": 361073801, "building": "yes"}, "geometry": {"type": "Polygon", "coordinates": [[[-49.2274222, -25.4536715], [-49.227392, -25.453735], [-49.2272792, -25.4536913], [-49.2273094, -25.4536278], [-49.2273264, -25.4536344], [-49.2274222, -25.4536715]]]}}, {"type": "Feature", "properties": {"type": "way", "id": 361073803, "building": "yes"}, "geometry": {"type": "Polygon", "coordinates": [[[-49.2277243, -25.4539438], [-49.2276651, -25.4540027], [-49.2276532, -25.4539929], [-49.2275749, -25.4540707], [-49.2275135, -25.4540202], [-49.2275889, -25.4539454], [-49.2275766, -25.4539353], [-49.2276388, -25.4538735], [-49.2277243, -25.4539438]]]}}, {"type": "Feature", "properties": {"type": "way", "id": 361073804, "building": "yes"}, "geometry": {"type": "Polygon", "coordinates": [[[-49.2271237, -25.4543476], [-49.2270864, -25.4544212], [-49.2269902, -25.4543813], [-49.2269763, -25.4544086], [-49.2269134, -25.4543826], [-49.2269646, -25.4542818], [-49.2271237, -25.4543476]]]}}, {"type": "Feature", "properties": {"type": "way", "id": 361073805, "building": "yes"}, "geometry": {"type": "Polygon", "coordinates": [[[-49.2268368, -25.4546912], [-49.226757, -25.4546611], [-49.2266797, -25.4548281], [-49.2267595, -25.4548582], [-49.2267934, -25.454785], [-49.2268257, -25.4547152], [-49.2268368, -25.4546912]]]}}, {"type": "Feature", "properties": {"type": "way", "id": 361073806, "addr:housenumber": "499", "addr:street": "Rua Herculano de Souza", "building": "yes", "survey:date": "2014-02-14"}, "geometry": {"type": "Polygon", "coordinates": [[[-49.2272963, -25.4544812], [-49.2273545, -25.4546127], [-49.2272675, -25.454644], [-49.2272602, -25.4546276], [-49.2272269, -25.4546396], [-49.2272033, -25.4545862], [-49.2272324, -25.4545757], [-49.2272052, -25.4545141], [-49.2272963, -25.4544812]]]}}, {"type": "Feature", "properties": {"type": "way", "id": 361073808, "building": "yes"}, "geometry": {"type": "Polygon", "coordinates": [[[-49.2269308, -25.4547143], [-49.2268837, -25.454693], [-49.2268933, -25.4546752], [-49.2268467, -25.4546583], [-49.2268385, -25.4546774], [-49.2267683, -25.4546513], [-49.226813, -25.4545689], [-49.2269486, -25.4546192], [-49.2269592, -25.4546696], [-49.2269308, -25.4547143]]]}}, {"type": "Feature", "properties": {"type": "way", "id": 414003143, "building": "yes", "height": "15"}, "geometry": {"type": "Polygon", "coordinates": [[[-49.2289962, -25.4561435], [-49.2290363, -25.4562252], [-49.2287941, -25.4563221], [-49.2288212, -25.4563772], [-49.2287149, -25.4564197], [-49.2286917, -25.4563724], [-49.2284401, -25.4564729], [-49.2283962, -25.4563833], [-49.2289962, -25.4561435]]]}}, {"type": "Feature", "properties": {"type": "way", "id": 414003144, "building": "yes", "height": "5"}, "geometry": {"type": "Polygon", "coordinates": [[[-49.228627, -25.4565959], [-49.2286077, -25.4566047], [-49.2286482, -25.4566846], [-49.2286673, -25.456678], [-49.228627, -25.4565959]]]}}, {"type": "Feature", "properties": {"type": "way", "id": 414213399, "building": "yes", "height": "10"}, "geometry": {"type": "Polygon", "coordinates": [[[-49.2288212, -25.4563772], [-49.2288809, -25.4564991], [-49.2290836, -25.4564181], [-49.2291219, -25.4564963], [-49.2286673, -25.456678], [-49.228627, -25.4565959], [-49.2287727, -25.4565377], [-49.2287149, -25.4564197], [-49.2288212, -25.4563772]]]}}, {"type": "Feature", "properties": {"type": "way", "id": 465747162, "building": "yes"}, "geometry": {"type": "Polygon", "coordinates": [[[-49.2311531, -25.4576781], [-49.2310861, -25.4577054], [-49.2311097, -25.4577526], [-49.2311742, -25.4577263], [-49.2311768, -25.4577252], [-49.2311531, -25.4576781]]]}}, {"type": "Feature", "properties": {"type": "way", "id": 465747165, "building": "yes"}, "geometry": {"type": "Polygon", "coordinates": [[[-49.2311485, -25.4575965], [-49.2311831, -25.4576659], [-49.2311531, -25.4576781], [-49.2310861, -25.4577054], [-49.2310526, -25.4576356], [-49.2311485, -25.4575965]]]}}, {"type": "Feature", "properties": {"type": "way", "id": 465747166, "building": "yes"}, "geometry": {"type": "Polygon", "coordinates": [[[-49.2311214, -25.4575424], [-49.2310256, -25.4575815], [-49.2309966, -25.4575218], [-49.2310928, -25.4574834], [-49.2311214, -25.4575424]]]}}, {"type": "Feature", "properties": {"type": "way", "id": 465747169, "building": "yes"}, "geometry": {"type": "Polygon", "coordinates": [[[-49.2311485, -25.4575965], [-49.2310526, -25.4576356], [-49.2310256, -25.4575815], [-49.2311214, -25.4575424], [-49.2311485, -25.4575965]]]}}, {"type": "Feature", "properties": {"type": "way", "id": 465747171, "addr:housenumber": "516", "addr:street": "Rua Carlos Pradi", "building": "yes"}, "geometry": {"type": "Polygon", "coordinates": [[[-49.2311243, -25.4574709], [-49.2310928, -25.4574834], [-49.2309966, -25.4575218], [-49.2309622, -25.4574514], [-49.23109, -25.4574005], [-49.2311243, -25.4574709]]]}}, {"type": "Feature", "properties": {"type": "way", "id": 465747187, "building": "yes"}, "geometry": {"type": "Polygon", "coordinates": [[[-49.2300662, -25.456632], [-49.2301111, -25.456724], [-49.2300671, -25.4567415], [-49.2300222, -25.4566495], [-49.2300662, -25.456632]]]}}, {"type": "Feature", "properties": {"type": "way", "id": 465747188, "addr:housenumber": "519", "addr:street": "Rua Rodolpho Senff", "building": "yes", "survey:date": "2014-12-30"}, "geometry": {"type": "Polygon", "coordinates": [[[-49.2303796, -25.4567343], [-49.2303394, -25.4566589], [-49.2303058, -25.4566736], [-49.2303111, -25.4566835], [-49.230248, -25.456711], [-49.2302811, -25.4567729], [-49.2303182, -25.4567568], [-49.2303108, -25.456743], [-49.2303368, -25.4567317], [-49.230346, -25.456749], [-49.2303796, -25.4567343]]]}}, {"type": "Feature", "properties": {"type": "way", "id": 465747190, "addr:housenumber": "525", "addr:street": "Rua Rodolpho Senff", "building": "yes"}, "geometry": {"type": "Polygon", "coordinates": [[[-49.2304068, -25.4568373], [-49.2302596, -25.4568966], [-49.2302249, -25.4568264], [-49.2303721, -25.456767], [-49.2304068, -25.4568373]]]}}, {"type": "Feature", "properties": {"type": "way", "id": 465747191, "addr:housenumber": "543", "addr:street": "Rua Rodolpho Senff", "building": "yes"}, "geometry": {"type": "Polygon", "coordinates": [[[-49.230445, -25.4569368], [-49.2303361, -25.4569832], [-49.230293, -25.4569006], [-49.230402, -25.4568543], [-49.230445, -25.4569368]]]}}, {"type": "Feature", "properties": {"type": "way", "id": 465747193, "building": "yes"}, "geometry": {"type": "Polygon", "coordinates": [[[-49.2304674, -25.4569967], [-49.2303362, -25.4570511], [-49.230318, -25.4570152], [-49.2303796, -25.4569897], [-49.230372, -25.4569748], [-49.2304416, -25.456946], [-49.2304674, -25.4569967]]]}}, {"type": "Feature", "properties": {"type": "way", "id": 465747194, "building": "yes"}, "geometry": {"type": "Polygon", "coordinates": [[[-49.230493, -25.457047], [-49.2304155, -25.4570791], [-49.2304093, -25.4570669], [-49.2303556, -25.4570892], [-49.2303362, -25.4570511], [-49.2304674, -25.4569967], [-49.230493, -25.457047]]]}}, {"type": "Feature", "properties": {"type": "way", "id": 465747196, "addr:housenumber": "567", "addr:street": "Rua Rodolpho Senff", "building": "yes"}, "geometry": {"type": "Polygon", "coordinates": [[[-49.2305473, -25.4571409], [-49.2304744, -25.457171], [-49.2304701, -25.4571626], [-49.230446, -25.4571726], [-49.2304195, -25.4571204], [-49.2305165, -25.4570802], [-49.2305473, -25.4571409]]]}}, {"type": "Feature", "properties": {"type": "way", "id": 465747198, "building": "yes"}, "geometry": {"type": "Polygon", "coordinates": [[[-49.2305908, -25.4571826], [-49.2304527, -25.4572398], [-49.2304276, -25.4571904], [-49.2304744, -25.457171], [-49.2305473, -25.4571409], [-49.2305657, -25.4571332], [-49.2305908, -25.4571826]]]}}, {"type": "Feature", "properties": {"type": "way", "id": 465747200, "building": "yes"}, "geometry": {"type": "Polygon", "coordinates": [[[-49.2306147, -25.4572296], [-49.2304765, -25.4572868], [-49.2304527, -25.4572398], [-49.2305908, -25.4571826], [-49.2306147, -25.4572296]]]}}, {"type": "Feature", "properties": {"type": "way", "id": 465747201, "addr:housenumber": "470", "addr:street": "Rua Coronel Joaquim Lacerda", "building": "yes"}, "geometry": {"type": "Polygon", "coordinates": [[[-49.2298506, -25.4565103], [-49.2298866, -25.4565868], [-49.2299499, -25.4565625], [-49.2299125, -25.4564832], [-49.2298506, -25.4565103]]]}}, {"type": "Feature", "properties": {"type": "way", "id": 465747203, "addr:housenumber": "478", "addr:street": "Rua Coronel Joaquim Lacerda", "building": "yes"}, "geometry": {"type": "Polygon", "coordinates": [[[-49.2297935, -25.4565323], [-49.2298359, -25.4566221], [-49.2298567, -25.4566661], [-49.2299137, -25.4566442], [-49.2298866, -25.4565868], [-49.2298506, -25.4565103], [-49.2297935, -25.4565323]]]}}, {"type": "Feature", "properties": {"type": "way", "id": 465747204, "addr:housenumber": "428", "addr:street": "Rua Ana Berta Roskamp", "building": "yes"}, "geometry": {"type": "Polygon", "coordinates": [[[-49.2296466, -25.4567332], [-49.229589, -25.4566109], [-49.2297935, -25.4565323], [-49.2298359, -25.4566221], [-49.2297728, -25.4566463], [-49.2297881, -25.4566788], [-49.2296466, -25.4567332]]]}}, {"type": "Feature", "properties": {"type": "way", "id": 465747206, "addr:housenumber": "442", "addr:street": "Rua Ana Berta Roskamp", "building": "yes"}, "geometry": {"type": "Polygon", "coordinates": [[[-49.2296401, -25.4568936], [-49.2295834, -25.4567735], [-49.2296338, -25.4567541], [-49.2296904, -25.4568742], [-49.2296401, -25.4568936]]]}}, {"type": "Feature", "properties": {"type": "way", "id": 465747207, "building": "yes"}, "geometry": {"type": "Polygon", "coordinates": [[[-49.2299937, -25.4569778], [-49.2298492, -25.4570362], [-49.229833, -25.4570036], [-49.2299775, -25.4569452], [-49.2299937, -25.4569778]]]}}, {"type": "Feature", "properties": {"type": "way", "id": 465747209, "addr:housenumber": "462", "addr:street": "Rua Ana Berta Roskamp", "building": "yes"}, "geometry": {"type": "Polygon", "coordinates": [[[-49.2297851, -25.4570041], [-49.2296939, -25.4570392], [-49.2296681, -25.4569846], [-49.2297593, -25.4569495], [-49.2297851, -25.4570041]]]}}, {"type": "Feature", "properties": {"type": "way", "id": 465747210, "addr:housenumber": "470", "addr:street": "Rua Ana Berta Roskamp", "building": "yes"}, "geometry": {"type": "Polygon", "coordinates": [[[-49.2298391, -25.4570731], [-49.2297347, -25.4571141], [-49.2296751, -25.4571375], [-49.2296605, -25.4571072], [-49.2297143, -25.4570861], [-49.2297003, -25.4570569], [-49.2298105, -25.4570136], [-49.2298391, -25.4570731]]]}}, {"type": "Feature", "properties": {"type": "way", "id": 465747211, "addr:housenumber": "484", "addr:street": "Rua Ana Berta Roskamp", "building": "yes"}, "geometry": {"type": "Polygon", "coordinates": [[[-49.2298894, -25.4571192], [-49.2297613, -25.4571694], [-49.2297347, -25.4571141], [-49.2298391, -25.4570731], [-49.2298657, -25.4570627], [-49.2298924, -25.457118], [-49.2298894, -25.4571192]]]}}, {"type": "Feature", "properties": {"type": "way", "id": 465747212, "building": "yes"}, "geometry": {"type": "Polygon", "coordinates": [[[-49.2299182, -25.4572651], [-49.2298914, -25.4572076], [-49.2298699, -25.4572157], [-49.2298442, -25.4571607], [-49.2297641, -25.4571912], [-49.2298166, -25.4573037], [-49.2299182, -25.4572651]]]}}, {"type": "Feature", "properties": {"type": "way", "id": 465747213, "addr:housenumber": "508", "addr:street": "Rua Ana Berta Roskamp", "building": "yes"}, "geometry": {"type": "Polygon", "coordinates": [[[-49.2299819, -25.4573286], [-49.2298424, -25.4573837], [-49.2298161, -25.4573294], [-49.2299556, -25.4572743], [-49.2299819, -25.4573286]]]}}, {"type": "Feature", "properties": {"type": "way", "id": 465747214, "addr:housenumber": "516", "addr:street": "Rua Ana Berta Roskamp", "building": "yes"}, "geometry": {"type": "Polygon", "coordinates": [[[-49.2299819, -25.4574007], [-49.229817, -25.4574673], [-49.2297903, -25.4574135], [-49.2299553, -25.4573469], [-49.2299819, -25.4574007]]]}}, {"type": "Feature", "properties": {"type": "way", "id": 465747215, "building": "yes"}, "geometry": {"type": "Polygon", "coordinates": [[[-49.2299316, -25.4575745], [-49.229878, -25.4574643], [-49.2299681, -25.4574285], [-49.2300218, -25.4575387], [-49.2299316, -25.4575745]]]}}, {"type": "Feature", "properties": {"type": "way", "id": 465747216, "building": "yes"}, "geometry": {"type": "Polygon", "coordinates": [[[-49.2302153, -25.457472], [-49.2301842, -25.457408], [-49.2300546, -25.4574594], [-49.2300856, -25.4575233], [-49.2302153, -25.457472]]]}}, {"type": "Feature", "properties": {"type": "way", "id": 465747217, "building": "yes"}, "geometry": {"type": "Polygon", "coordinates": [[[-49.230379, -25.4574072], [-49.2302153, -25.457472], [-49.2301842, -25.457408], [-49.2301675, -25.4573737], [-49.2303313, -25.4573089], [-49.2303566, -25.4573612], [-49.230379, -25.4574072]]]}}, {"type": "Feature", "properties": {"type": "way", "id": 465747218, "building": "yes"}, "geometry": {"type": "Polygon", "coordinates": [[[-49.230511, -25.4573642], [-49.2304848, -25.4573104], [-49.2303566, -25.4573612], [-49.230379, -25.4574072], [-49.2303828, -25.4574151], [-49.230511, -25.4573642]]]}}, {"type": "Feature", "properties": {"type": "way", "id": 465747219, "addr:housenumber": "591", "addr:street": "Rua Rodolpho Senff", "building": "yes"}, "geometry": {"type": "Polygon", "coordinates": [[[-49.2306605, -25.4573049], [-49.230511, -25.4573642], [-49.2304848, -25.4573104], [-49.2306343, -25.457251], [-49.2306605, -25.4573049]]]}}, {"type": "Feature", "properties": {"type": "way", "id": 465747220, "addr:housenumber": "495", "addr:street": "Rua Rodolpho Senff", "building": "yes", "survey:date": "2014-12-30"}, "geometry": {"type": "Polygon", "coordinates": [[[-49.2302247, -25.4564445], [-49.2302669, -25.4565329], [-49.2301317, -25.4565856], [-49.2301001, -25.4565193], [-49.2301749, -25.4564902], [-49.2301643, -25.4564681], [-49.2302247, -25.4564445]]]}}, {"type": "Feature", "properties": {"type": "way", "id": 465747221, "addr:housenumber": "30", "addr:street": "Rua Jos\u00e9 K\u00fcster", "building": "yes", "survey:date": "2014-12-30"}, "geometry": {"type": "Polygon", "coordinates": [[[-49.2310964, -25.4567537], [-49.2310545, -25.4566719], [-49.2311172, -25.4566457], [-49.2311591, -25.4567274], [-49.2310964, -25.4567537]]]}}, {"type": "Feature", "properties": {"type": "way", "id": 465747222, "addr:housenumber": "562", "addr:street": "Rua Rodolpho Senff", "building": "yes"}, "geometry": {"type": "Polygon", "coordinates": [[[-49.2308409, -25.4569471], [-49.2307383, -25.4569895], [-49.2307004, -25.4569147], [-49.230803, -25.4568723], [-49.2308409, -25.4569471]]]}}, {"type": "Feature", "properties": {"type": "way", "id": 465747223, "addr:housenumber": "576", "addr:street": "Rua Rodolpho Senff", "building": "yes"}, "geometry": {"type": "Polygon", "coordinates": [[[-49.2309249, -25.4570597], [-49.2308598, -25.4570858], [-49.2308699, -25.4571063], [-49.2308016, -25.4571336], [-49.2307473, -25.4570231], [-49.2308807, -25.4569697], [-49.2309249, -25.4570597]]]}}, {"type": "Feature", "properties": {"type": "way", "id": 465747224, "addr:housenumber": "588", "addr:street": "Rua Rodolpho Senff", "building": "yes"}, "geometry": {"type": "Polygon", "coordinates": [[[-49.2309745, -25.457073], [-49.2308035, -25.4571378], [-49.2308356, -25.4572068], [-49.2309399, -25.4571673], [-49.2309306, -25.4571474], [-49.2309973, -25.4571221], [-49.2309745, -25.457073]]]}}, {"type": "Feature", "properties": {"type": "way", "id": 465747225, "addr:housenumber": "501", "addr:street": "Rua Carlos Pradi", "building": "yes"}, "geometry": {"type": "Polygon", "coordinates": [[[-49.2311187, -25.4570985], [-49.2310925, -25.4570452], [-49.2310708, -25.4570539], [-49.2310444, -25.4570001], [-49.2310631, -25.4569926], [-49.2310424, -25.4569506], [-49.2309613, -25.4569831], [-49.2310345, -25.4571322], [-49.2311187, -25.4570985]]]}}, {"type": "Feature", "properties": {"type": "way", "id": 465747226, "addr:housenumber": "489", "addr:street": "Rua Carlos Pradi", "building": "yes"}, "geometry": {"type": "Polygon", "coordinates": [[[-49.2311998, -25.4570712], [-49.2311602, -25.4569871], [-49.2310922, -25.4570132], [-49.2311317, -25.4570973], [-49.2311998, -25.4570712]]]}}, {"type": "Feature", "properties": {"type": "way", "id": 465747227, "building": "yes"}, "geometry": {"type": "Polygon", "coordinates": [[[-49.2311623, -25.4569544], [-49.231124, -25.4568696], [-49.2310396, -25.4569007], [-49.2310578, -25.456941], [-49.2311129, -25.4569208], [-49.2311329, -25.4569652], [-49.2311623, -25.4569544]]]}}, {"type": "Feature", "properties": {"type": "way", "id": 465747235, "addr:housenumber": "40", "addr:street": "Rua Jos\u00e9 K\u00fcster", "building": "yes", "survey:date": "2014-12-30"}, "geometry": {"type": "Polygon", "coordinates": [[[-49.2309953, -25.456823], [-49.2309396, -25.456708], [-49.2310136, -25.4566788], [-49.23102, -25.4566919], [-49.2310394, -25.4566843], [-49.231057, -25.4567206], [-49.2310376, -25.4567283], [-49.2310693, -25.4567938], [-49.2309953, -25.456823]]]}}, {"type": "Feature", "properties": {"type": "way", "id": 465747236, "addr:housenumber": "50", "addr:street": "Rua Jos\u00e9 K\u00fcster", "building": "yes", "survey:date": "2014-12-30"}, "geometry": {"type": "Polygon", "coordinates": [[[-49.2309665, -25.4568466], [-49.2309088, -25.4567304], [-49.230866, -25.4567477], [-49.2309236, -25.4568639], [-49.2309665, -25.4568466]]]}}, {"type": "Feature", "properties": {"type": "way", "id": 465747237, "building": "yes"}, "geometry": {"type": "Polygon", "coordinates": [[[-49.2307822, -25.4567699], [-49.2308558, -25.4567443], [-49.2308904, -25.4568251], [-49.2308636, -25.4568344], [-49.2308564, -25.4568176], [-49.2308113, -25.4568309], [-49.2307822, -25.4567699]]]}}, {"type": "Feature", "properties": {"type": "way", "id": 465747238, "addr:housenumber": "548", "addr:street": "Rua Rodolpho Senff", "building": "yes"}, "geometry": {"type": "Polygon", "coordinates": [[[-49.2307115, -25.4568861], [-49.2306758, -25.4568113], [-49.2307822, -25.4567699], [-49.2308113, -25.4568309], [-49.230758, -25.4568516], [-49.2307646, -25.4568654], [-49.2307115, -25.4568861]]]}}, {"type": "Feature", "properties": {"type": "way", "id": 465754795, "building": "yes"}, "geometry": {"type": "Polygon", "coordinates": [[[-49.2293333, -25.4559342], [-49.2292488, -25.4559673], [-49.2292784, -25.4560286], [-49.2293628, -25.4559954], [-49.2293333, -25.4559342]]]}}, {"type": "Feature", "properties": {"type": "way", "id": 465754796, "building": "yes"}, "geometry": {"type": "Polygon", "coordinates": [[[-49.2292442, -25.4558609], [-49.2291362, -25.4559033], [-49.2291736, -25.4559809], [-49.2292453, -25.4559528], [-49.2292379, -25.4559373], [-49.2292741, -25.4559231], [-49.2292442, -25.4558609]]]}}, {"type": "Feature", "properties": {"type": "way", "id": 465754797, "building": "yes"}, "geometry": {"type": "Polygon", "coordinates": [[[-49.2295848, -25.4561836], [-49.2295258, -25.4560674], [-49.2294364, -25.4561044], [-49.2294954, -25.4562206], [-49.2295848, -25.4561836]]]}}, {"type": "Feature", "properties": {"type": "way", "id": 465754798, "addr:housenumber": "368", "addr:street": "Rua Ana Berta Roskamp", "building": "yes", "survey:date": "2014-02-27"}, "geometry": {"type": "Polygon", "coordinates": [[[-49.2293266, -25.4562732], [-49.2293994, -25.4562444], [-49.2293859, -25.4562167], [-49.2293975, -25.4562121], [-49.229358, -25.4561308], [-49.2292737, -25.4561642], [-49.2293266, -25.4562732]]]}}, {"type": "Feature", "properties": {"type": "way", "id": 465754799, "addr:housenumber": "382", "addr:street": "Rua Ana Berta Roskamp", "building": "yes", "survey:date": "2014-02-27"}, "geometry": {"type": "Polygon", "coordinates": [[[-49.2294956, -25.4563198], [-49.2294658, -25.4562614], [-49.2294032, -25.4562874], [-49.2293936, -25.4562685], [-49.2293382, -25.4562915], [-49.2293776, -25.4563689], [-49.2294956, -25.4563198]]]}}, {"type": "Feature", "properties": {"type": "way", "id": 465754800, "addr:housenumber": "390", "addr:street": "Rua Ana Berta Roskamp", "building": "yes"}, "geometry": {"type": "Polygon", "coordinates": [[[-49.2295727, -25.4563792], [-49.2295434, -25.4563217], [-49.2293851, -25.4563877], [-49.2294145, -25.4564452], [-49.2295727, -25.4563792]]]}}, {"type": "Feature", "properties": {"type": "way", "id": 465754801, "building": "yes"}, "geometry": {"type": "Polygon", "coordinates": [[[-49.2296659, -25.4563362], [-49.2296351, -25.4562726], [-49.2295571, -25.4563034], [-49.229588, -25.456367], [-49.2296659, -25.4563362]]]}}, {"type": "Feature", "properties": {"type": "way", "id": 465754802, "addr:housenumber": "475", "addr:street": "Rua Coronel Joaquim Lacerda", "building": "yes"}, "geometry": {"type": "Polygon", "coordinates": [[[-49.2297947, -25.4562823], [-49.229743, -25.4561733], [-49.2296547, -25.4562075], [-49.2297063, -25.4563164], [-49.2297947, -25.4562823]]]}}, {"type": "Feature", "properties": {"type": "way", "id": 465754803, "addr:housenumber": "467", "addr:street": "Rua Coronel Joaquim Lacerda", "building": "yes"}, "geometry": {"type": "Polygon", "coordinates": [[[-49.2298962, -25.4562566], [-49.2298513, -25.4561598], [-49.2297924, -25.456182], [-49.2298373, -25.4562789], [-49.2298962, -25.4562566]]]}}, {"type": "Feature", "properties": {"type": "way", "id": 465754804, "addr:housenumber": "465", "addr:street": "Rua Coronel Joaquim Lacerda", "building": "yes"}, "geometry": {"type": "Polygon", "coordinates": [[[-49.2299592, -25.4562239], [-49.2299143, -25.4561271], [-49.2298555, -25.4561493], [-49.2299004, -25.4562462], [-49.2299592, -25.4562239]]]}}, {"type": "Feature", "properties": {"type": "way", "id": 465754805, "addr:housenumber": "461", "addr:street": "Rua Coronel Joaquim Lacerda", "building": "yes", "survey:date": "2014-02-27"}, "geometry": {"type": "Polygon", "coordinates": [[[-49.2300287, -25.4561975], [-49.2299838, -25.4561007], [-49.2299249, -25.4561229], [-49.2299699, -25.4562198], [-49.2300287, -25.4561975]]]}}, {"type": "Feature", "properties": {"type": "way", "id": 465754806, "building": "yes"}, "geometry": {"type": "Polygon", "coordinates": [[[-49.2300864, -25.4561757], [-49.2300401, -25.4560783], [-49.2299944, -25.4560959], [-49.2300406, -25.4561934], [-49.2300864, -25.4561757]]]}}, {"type": "Feature", "properties": {"type": "way", "id": 465754807, "addr:housenumber": "421", "addr:street": "Rua Rodolpho Senff", "building": "yes", "survey:date": "2014-12-30"}, "geometry": {"type": "Polygon", "coordinates": [[[-49.2300522, -25.4560498], [-49.2299751, -25.4559015], [-49.2298521, -25.4559536], [-49.2299292, -25.4561019], [-49.2300522, -25.4560498]]]}}, {"type": "Feature", "properties": {"type": "way", "id": 465754808, "addr:housenumber": "409", "addr:street": "Rua Rodolpho Senff", "building": "yes", "survey:date": "2014-12-30"}, "geometry": {"type": "Polygon", "coordinates": [[[-49.2298758, -25.4557725], [-49.2296478, -25.4558663], [-49.2296926, -25.455955], [-49.2299206, -25.4558611], [-49.2298758, -25.4557725]]]}}, {"type": "Feature", "properties": {"type": "way", "id": 465754809, "building": "yes"}, "geometry": {"type": "Polygon", "coordinates": [[[-49.2293877, -25.4556787], [-49.229346, -25.4555919], [-49.2292501, -25.4556295], [-49.2292918, -25.4557162], [-49.2293877, -25.4556787]]]}}, {"type": "Feature", "properties": {"type": "way", "id": 465754810, "building": "yes"}, "geometry": {"type": "Polygon", "coordinates": [[[-49.2296635, -25.4553964], [-49.2296391, -25.4553417], [-49.2295129, -25.4553878], [-49.2295376, -25.4554429], [-49.229585, -25.4554256], [-49.2295723, -25.4553971], [-49.2296137, -25.455382], [-49.2296263, -25.45541], [-49.2296635, -25.4553964]]]}}, {"type": "Feature", "properties": {"type": "way", "id": 465754811, "building": "yes"}, "geometry": {"type": "Polygon", "coordinates": [[[-49.2296317, -25.4553278], [-49.2295244, -25.4553684], [-49.2294937, -25.4553022], [-49.229601, -25.4552616], [-49.2296317, -25.4553278]]]}}, {"type": "Feature", "properties": {"type": "way", "id": 465754812, "building": "yes"}, "geometry": {"type": "Polygon", "coordinates": [[[-49.2295255, -25.4554495], [-49.2294681, -25.4554752], [-49.2294396, -25.4554233], [-49.2294969, -25.4553976], [-49.2295255, -25.4554495]]]}}, {"type": "Feature", "properties": {"type": "way", "id": 465754813, "building": "yes"}, "geometry": {"type": "Polygon", "coordinates": [[[-49.2295523, -25.4555004], [-49.2294936, -25.4555261], [-49.2294722, -25.4554863], [-49.2295309, -25.4554605], [-49.2295523, -25.4555004]]]}}, {"type": "Feature", "properties": {"type": "way", "id": 465754814, "building": "yes"}, "geometry": {"type": "Polygon", "coordinates": [[[-49.2296897, -25.4554549], [-49.2295636, -25.455501], [-49.2295376, -25.4554429], [-49.229585, -25.4554256], [-49.2295966, -25.4554515], [-49.2296381, -25.4554363], [-49.2296263, -25.45541], [-49.2296635, -25.4553964], [-49.2296897, -25.4554549]]]}}, {"type": "Feature", "properties": {"type": "way", "id": 465754815, "building": "yes"}, "geometry": {"type": "Polygon", "coordinates": [[[-49.2297501, -25.4555032], [-49.2295898, -25.4555627], [-49.2295636, -25.455501], [-49.2296897, -25.4554549], [-49.229702, -25.4554819], [-49.2297348, -25.4554697], [-49.2297501, -25.4555032]]]}}, {"type": "Feature", "properties": {"type": "way", "id": 465754816, "building": "yes"}, "geometry": {"type": "Polygon", "coordinates": [[[-49.2297501, -25.4555032], [-49.2295898, -25.4555627], [-49.2296119, -25.4556112], [-49.2297476, -25.4555609], [-49.2297356, -25.4555347], [-49.2297603, -25.4555256], [-49.2297501, -25.4555032]]]}}, {"type": "Feature", "properties": {"type": "way", "id": 465754817, "building": "yes"}, "geometry": {"type": "Polygon", "coordinates": [[[-49.2298134, -25.4555929], [-49.2296957, -25.4556416], [-49.2296789, -25.4556085], [-49.2297273, -25.4555884], [-49.2297221, -25.4555781], [-49.2297867, -25.4555513], [-49.2297913, -25.4555494], [-49.2298134, -25.4555929]]]}}, {"type": "Feature", "properties": {"type": "way", "id": 465754818, "building": "yes"}, "geometry": {"type": "Polygon", "coordinates": [[[-49.2298475, -25.4556642], [-49.2297282, -25.4557082], [-49.2297061, -25.4556594], [-49.2298254, -25.4556154], [-49.2298475, -25.4556642]]]}}, {"type": "Feature", "properties": {"type": "way", "id": 465754819, "building": "yes"}, "geometry": {"type": "Polygon", "coordinates": [[[-49.2297507, -25.4557579], [-49.2297282, -25.4557082], [-49.2298475, -25.4556642], [-49.2298699, -25.4557139], [-49.2297507, -25.4557579]]]}}, {"type": "Feature", "properties": {"type": "way", "id": 465754820, "building": "yes"}, "geometry": {"type": "Polygon", "coordinates": [[[-49.2296684, -25.4557627], [-49.2296159, -25.4556601], [-49.2296691, -25.4556379], [-49.2297217, -25.4557404], [-49.2296684, -25.4557627]]]}}, {"type": "Feature", "properties": {"type": "way", "id": 465754821, "building": "yes"}, "geometry": {"type": "Polygon", "coordinates": [[[-49.2295623, -25.4556825], [-49.2296148, -25.4557851], [-49.2296684, -25.4557627], [-49.2296159, -25.4556601], [-49.2295623, -25.4556825]]]}}, {"type": "Feature", "properties": {"type": "way", "id": 465754822, "building": "yes"}, "geometry": {"type": "Polygon", "coordinates": [[[-49.2295559, -25.4558096], [-49.2296148, -25.4557851], [-49.2295623, -25.4556825], [-49.2295034, -25.455707], [-49.2295559, -25.4558096]]]}}, {"type": "Feature", "properties": {"type": "way", "id": 465754823, "building": "yes"}, "geometry": {"type": "Polygon", "coordinates": [[[-49.2291525, -25.4555331], [-49.2291128, -25.4554554], [-49.2290298, -25.45549], [-49.2290391, -25.4555082], [-49.2290081, -25.4555211], [-49.2289988, -25.455503], [-49.2289584, -25.4555198], [-49.2289776, -25.4555574], [-49.2289637, -25.4555632], [-49.2289842, -25.4556033], [-49.2290565, -25.4555732], [-49.2290503, -25.4555611], [-49.229069, -25.4555533], [-49.2290752, -25.4555654], [-49.2291525, -25.4555331]]]}}, {"type": "Feature", "properties": {"type": "way", "id": 465754824, "building": "yes"}, "geometry": {"type": "Polygon", "coordinates": [[[-49.2292038, -25.4556275], [-49.2291679, -25.4555569], [-49.2290177, -25.4556192], [-49.2290536, -25.4556899], [-49.2292038, -25.4556275]]]}}, {"type": "Feature", "properties": {"type": "way", "id": 465754825, "building": "yes"}, "geometry": {"type": "Polygon", "coordinates": [[[-49.22918, -25.4557647], [-49.229165, -25.4557363], [-49.2290859, -25.4557705], [-49.2291009, -25.4557989], [-49.22918, -25.4557647]]]}}, {"type": "Feature", "properties": {"type": "way", "id": 465754826, "building": "yes"}, "geometry": {"type": "Polygon", "coordinates": [[[-49.2291814, -25.4556545], [-49.2290486, -25.4557084], [-49.2290769, -25.4557651], [-49.2292096, -25.4557113], [-49.2291814, -25.4556545]]]}}, {"type": "Feature", "properties": {"type": "way", "id": 465754827, "building": "yes"}, "geometry": {"type": "Polygon", "coordinates": [[[-49.2292595, -25.4558258], [-49.2292254, -25.4557573], [-49.2290956, -25.4558099], [-49.2291297, -25.4558785], [-49.2292595, -25.4558258]]]}}, {"type": "Feature", "properties": {"type": "way", "id": 465873558, "building": "yes"}, "geometry": {"type": "Polygon", "coordinates": [[[-49.2284337, -25.4554445], [-49.2284639, -25.4555074], [-49.2284932, -25.455496], [-49.228463, -25.455433], [-49.2284337, -25.4554445]]]}}, {"type": "Feature", "properties": {"type": "way", "id": 465873559, "addr:housenumber": "253", "addr:street": "Rua Ana Berta Roskamp", "building": "yes", "survey:date": "2014-02-18"}, "geometry": {"type": "Polygon", "coordinates": [[[-49.2286208, -25.4554226], [-49.2285954, -25.4553721], [-49.2284626, -25.4554266], [-49.228488, -25.4554771], [-49.2286208, -25.4554226]]]}}, {"type": "Feature", "properties": {"type": "way", "id": 465873560, "addr:housenumber": "247", "addr:street": "Rua Ana Berta Roskamp", "building": "yes"}, "geometry": {"type": "Polygon", "coordinates": [[[-49.2286074, -25.4553537], [-49.22858, -25.4552952], [-49.2284056, -25.4553618], [-49.228433, -25.4554203], [-49.2286074, -25.4553537]]]}}, {"type": "Feature", "properties": {"type": "way", "id": 465873561, "addr:housenumber": "215", "addr:street": "Rua Ana Berta Roskamp", "building": "yes", "survey:date": "2014-02-18"}, "geometry": {"type": "Polygon", "coordinates": [[[-49.2284482, -25.4550505], [-49.2284121, -25.4550639], [-49.2283664, -25.4550808], [-49.2283854, -25.4551227], [-49.2284672, -25.4550924], [-49.2284482, -25.4550505]]]}}, {"type": "Feature", "properties": {"type": "way", "id": 465873562, "addr:housenumber": "223", "addr:street": "Rua Ana Berta Roskamp", "building": "yes", "survey:date": "2014-02-18"}, "geometry": {"type": "Polygon", "coordinates": [[[-49.2284773, -25.4551066], [-49.2283157, -25.4551672], [-49.2283411, -25.4552225], [-49.2285027, -25.4551619], [-49.2284773, -25.4551066]]]}}, {"type": "Feature", "properties": {"type": "way", "id": 465873563, "addr:housenumber": "231", "addr:street": "Rua Ana Berta Roskamp", "building": "yes", "survey:date": "2014-02-18"}, "geometry": {"type": "Polygon", "coordinates": [[[-49.2285108, -25.455175], [-49.228378, -25.4552271], [-49.2284052, -25.4552836], [-49.228538, -25.4552315], [-49.2285108, -25.455175]]]}}, {"type": "Feature", "properties": {"type": "way", "id": 465873564, "addr:housenumber": "237", "addr:street": "Rua Ana Berta Roskamp", "building": "yes", "name": "Molduras, Espelhos, Vidros", "shop": "frame", "survey:date": "2014-02-18"}, "geometry": {"type": "Polygon", "coordinates": [[[-49.2285645, -25.4552895], [-49.2285394, -25.4552368], [-49.2284006, -25.4552907], [-49.2284256, -25.4553434], [-49.2285645, -25.4552895]]]}}, {"type": "Feature", "properties": {"type": "way", "id": 465896254, "addr:housenumber": "654", "addr:street": "Avenida Coronel Francisco h dos Santos", "building": "yes"}, "geometry": {"type": "Polygon", "coordinates": [[[-49.2309058, -25.4540436], [-49.2309174, -25.4540684], [-49.2310349, -25.4540234], [-49.2309778, -25.4539022], [-49.2308657, -25.4539452], [-49.2308744, -25.4539636], [-49.2308318, -25.45398], [-49.2308219, -25.4539589], [-49.2307325, -25.4539932], [-49.2307885, -25.4541122], [-49.2308687, -25.4540814], [-49.2308589, -25.4540607], [-49.2309058, -25.4540436]]]}}, {"type": "Feature", "properties": {"type": "way", "id": 465896255, "addr:housenumber": "640", "addr:street": "Avenida Coronel Francisco h dos Santos", "building": "yes"}, "geometry": {"type": "Polygon", "coordinates": [[[-49.2308128, -25.4537869], [-49.2306224, -25.4538553], [-49.2306596, -25.4539396], [-49.2307105, -25.4539213], [-49.230703, -25.4539043], [-49.230779, -25.453877], [-49.2307668, -25.4538493], [-49.2308303, -25.4538265], [-49.2308128, -25.4537869]]]}}, {"type": "Feature", "properties": {"type": "way", "id": 465896257, "addr:housenumber": "674", "addr:street": "Avenida Coronel Francisco h dos Santos", "building": "yes"}, "geometry": {"type": "Polygon", "coordinates": [[[-49.2309516, -25.4540872], [-49.2308846, -25.454109], [-49.2308787, -25.4540942], [-49.2307052, -25.4541506], [-49.2307416, -25.4542419], [-49.2307953, -25.4542244], [-49.2308022, -25.4542418], [-49.2309109, -25.4542064], [-49.230904, -25.4541891], [-49.2309267, -25.4541817], [-49.2309196, -25.4541639], [-49.230975, -25.4541459], [-49.2309516, -25.4540872]]]}}, {"type": "Feature", "properties": {"type": "way", "id": 465896258, "addr:housenumber": "686", "addr:street": "Avenida Coronel Francisco h dos Santos", "building": "yes"}, "geometry": {"type": "Polygon", "coordinates": [[[-49.2309852, -25.4542882], [-49.2309459, -25.454207], [-49.2308077, -25.4542615], [-49.230847, -25.4543427], [-49.2309852, -25.4542882]]]}}, {"type": "Feature", "properties": {"type": "way", "id": 465896259, "addr:housenumber": "203", "addr:street": "Rua Senador Batista de Oliveira", "building": "yes", "survey:date": "2014-02-17"}, "geometry": {"type": "Polygon", "coordinates": [[[-49.2310951, -25.4544081], [-49.2309312, -25.4544726], [-49.2308816, -25.4543698], [-49.2310456, -25.4543053], [-49.2310951, -25.4544081]]]}}, {"type": "Feature", "properties": {"type": "way", "id": 465896260, "addr:housenumber": "189", "addr:street": "Rua Senador Batista de Oliveira", "building": "yes", "survey:date": "2014-02-17"}, "geometry": {"type": "Polygon", "coordinates": [[[-49.2311002, -25.4544063], [-49.2310656, -25.4543106], [-49.2310899, -25.4543035], [-49.2310806, -25.4542775], [-49.231157, -25.454255], [-49.2312009, -25.4543766], [-49.2311002, -25.4544063]]]}}, {"type": "Feature", "properties": {"type": "way", "id": 465896266, "addr:housenumber": "171", "addr:street": "Rua Tenente Ricardo Kirch", "building": "yes"}, "geometry": {"type": "Polygon", "coordinates": [[[-49.2312842, -25.4538302], [-49.2311196, -25.4538907], [-49.2311328, -25.45392], [-49.231149, -25.4539141], [-49.2311525, -25.453922], [-49.2310924, -25.4539441], [-49.2311166, -25.4539979], [-49.2313253, -25.4539212], [-49.2312842, -25.4538302]]]}}, {"type": "Feature", "properties": {"type": "way", "id": 465896267, "addr:housenumber": "155", "addr:street": "Rua Tenente Ricardo Kirch", "building": "yes"}, "geometry": {"type": "Polygon", "coordinates": [[[-49.2312393, -25.4537351], [-49.2310516, -25.4538105], [-49.2310917, -25.4538921], [-49.2311709, -25.4538603], [-49.2311605, -25.453839], [-49.2312024, -25.4538222], [-49.2312129, -25.4538435], [-49.2312795, -25.4538167], [-49.2312393, -25.4537351]]]}}, {"type": "Feature", "properties": {"type": "way", "id": 465896268, "addr:housenumber": "145", "addr:street": "Rua Tenente Ricardo Kirch", "building": "yes"}, "geometry": {"type": "Polygon", "coordinates": [[[-49.2312435, -25.4537192], [-49.2311054, -25.4537749], [-49.2310678, -25.4536989], [-49.2311545, -25.453664], [-49.2311479, -25.4536507], [-49.2312025, -25.4536287], [-49.2312085, -25.4536408], [-49.2312466, -25.453718], [-49.2312435, -25.4537192]]]}}, {"type": "Feature", "properties": {"type": "way", "id": 465896269, "building": "yes"}, "geometry": {"type": "Polygon", "coordinates": [[[-49.2312381, -25.4536109], [-49.2311396, -25.4536484], [-49.2311075, -25.4535797], [-49.2311464, -25.4535649], [-49.2311598, -25.4535935], [-49.2312194, -25.4535708], [-49.2312381, -25.4536109]]]}}, {"type": "Feature", "properties": {"type": "way", "id": 465896272, "addr:housenumber": "120", "addr:street": "Rua Herculano de Souza", "building": "yes"}, "geometry": {"type": "Polygon", "coordinates": [[[-49.2307913, -25.4535148], [-49.2308156, -25.4535703], [-49.2308413, -25.4536291], [-49.2309577, -25.4535876], [-49.2309077, -25.4534733], [-49.2307913, -25.4535148]]]}}, {"type": "Feature", "properties": {"type": "way", "id": 465896273, "addr:housenumber": "132", "addr:street": "Rua Herculano de Souza", "building": "yes"}, "geometry": {"type": "Polygon", "coordinates": [[[-49.2307526, -25.4536862], [-49.230693, -25.4535499], [-49.2307913, -25.4535148], [-49.2308156, -25.4535703], [-49.2307928, -25.4535785], [-49.2308282, -25.4536593], [-49.2307526, -25.4536862]]]}}, {"type": "Feature", "properties": {"type": "way", "id": 465896274, "addr:housenumber": "144", "addr:street": "Rua Herculano de Souza", "building": "yes"}, "geometry": {"type": "Polygon", "coordinates": [[[-49.2307133, -25.4536612], [-49.2306724, -25.4535728], [-49.2306003, -25.4536], [-49.2306412, -25.4536884], [-49.2307133, -25.4536612]]]}}, {"type": "Feature", "properties": {"type": "way", "id": 465896275, "building": "yes"}, "geometry": {"type": "Polygon", "coordinates": [[[-49.230604, -25.4536624], [-49.2305366, -25.4536832], [-49.230598, -25.4538452], [-49.2306654, -25.4538244], [-49.230604, -25.4536624]]]}}, {"type": "Feature", "properties": {"type": "way", "id": 465896276, "building": "yes"}, "geometry": {"type": "Polygon", "coordinates": [[[-49.230604, -25.4536624], [-49.2305692, -25.4535704], [-49.2305018, -25.4535912], [-49.2305366, -25.4536832], [-49.230604, -25.4536624]]]}}, {"type": "Feature", "properties": {"type": "way", "id": 465899344, "building": "yes"}, "geometry": {"type": "Polygon", "coordinates": [[[-49.2309889, -25.45365], [-49.2308817, -25.4536909], [-49.2309012, -25.4537326], [-49.2310085, -25.4536917], [-49.2309889, -25.45365]]]}}, {"type": "Feature", "properties": {"type": "way", "id": 465899345, "building": "yes"}, "geometry": {"type": "Polygon", "coordinates": [[[-49.2311056, -25.4535985], [-49.2310088, -25.4536355], [-49.2310317, -25.4536845], [-49.2311286, -25.4536475], [-49.2311056, -25.4535985]]]}}, {"type": "Feature", "properties": {"type": "way", "id": 465899346, "building": "yes"}, "geometry": {"type": "Polygon", "coordinates": [[[-49.2307227, -25.4537069], [-49.2307085, -25.4536761], [-49.2306429, -25.4537008], [-49.2306572, -25.4537316], [-49.2307227, -25.4537069]]]}}, {"type": "Feature", "properties": {"type": "way", "id": 465899347, "building": "yes"}, "geometry": {"type": "Polygon", "coordinates": [[[-49.2306771, -25.453739], [-49.2306501, -25.4537473], [-49.2306758, -25.4538153], [-49.2307029, -25.4538069], [-49.2306771, -25.453739]]]}}, {"type": "Feature", "properties": {"type": "way", "id": 465899348, "building": "yes"}, "geometry": {"type": "Polygon", "coordinates": [[[-49.2309192, -25.4538038], [-49.2309069, -25.4537759], [-49.2308798, -25.4537857], [-49.2308921, -25.4538135], [-49.2309192, -25.4538038]]]}}, {"type": "Feature", "properties": {"type": "way", "id": 465899349, "building": "yes"}, "geometry": {"type": "Polygon", "coordinates": [[[-49.2309262, -25.4538128], [-49.2308556, -25.4538383], [-49.2308692, -25.4538692], [-49.2309399, -25.4538437], [-49.2309262, -25.4538128]]]}}, {"type": "Feature", "properties": {"type": "way", "id": 465899350, "building": "yes"}, "geometry": {"type": "Polygon", "coordinates": [[[-49.2308763, -25.4537108], [-49.2308189, -25.4537315], [-49.2308319, -25.4537611], [-49.2308894, -25.4537405], [-49.2308763, -25.4537108]]]}}, {"type": "Feature", "properties": {"type": "way", "id": 465899351, "building": "yes"}, "geometry": {"type": "Polygon", "coordinates": [[[-49.2308287, -25.4537656], [-49.2307986, -25.4536966], [-49.2307761, -25.4537046], [-49.2308062, -25.4537736], [-49.2308287, -25.4537656]]]}}, {"type": "Feature", "properties": {"type": "way", "id": 465899352, "building": "yes"}, "geometry": {"type": "Polygon", "coordinates": [[[-49.2307724, -25.4537099], [-49.2307113, -25.4537317], [-49.2307301, -25.4537749], [-49.2307131, -25.4537809], [-49.2307228, -25.453803], [-49.2308009, -25.4537752], [-49.2307724, -25.4537099]]]}}, {"type": "Feature", "properties": {"type": "way", "id": 465921215, "building": "yes"}, "geometry": {"type": "Polygon", "coordinates": [[[-49.2268238, -25.4560556], [-49.2267339, -25.4560883], [-49.2267541, -25.4561336], [-49.226844, -25.4561009], [-49.2268238, -25.4560556]]]}}, {"type": "Feature", "properties": {"type": "way", "id": 465921217, "building": "yes"}, "geometry": {"type": "Polygon", "coordinates": [[[-49.2267554, -25.4559333], [-49.2266655, -25.455966], [-49.2266857, -25.4560113], [-49.2267756, -25.4559786], [-49.2267554, -25.4559333]]]}}, {"type": "Feature", "properties": {"type": "way", "id": 465921218, "building": "yes"}, "geometry": {"type": "Polygon", "coordinates": [[[-49.2267876, -25.4559959], [-49.2266978, -25.4560286], [-49.226718, -25.4560739], [-49.2268078, -25.4560412], [-49.2267876, -25.4559959]]]}}, {"type": "Feature", "properties": {"type": "way", "id": 465921219, "building": "yes"}, "geometry": {"type": "Polygon", "coordinates": [[[-49.2266901, -25.4561681], [-49.226735, -25.4561513], [-49.2266759, -25.4560224], [-49.2266311, -25.4560391], [-49.2266901, -25.4561681]]]}}, {"type": "Feature", "properties": {"type": "way", "id": 465921221, "building": "yes"}, "geometry": {"type": "Polygon", "coordinates": [[[-49.226625, -25.4561965], [-49.2266699, -25.4561798], [-49.2266109, -25.4560508], [-49.226566, -25.4560675], [-49.226625, -25.4561965]]]}}, {"type": "Feature", "properties": {"type": "way", "id": 465921222, "building": "yes"}, "geometry": {"type": "Polygon", "coordinates": [[[-49.2264194, -25.4562298], [-49.2264766, -25.4562101], [-49.2264169, -25.4560684], [-49.2263597, -25.4560881], [-49.2264194, -25.4562298]]]}}, {"type": "Feature", "properties": {"type": "way", "id": 465921223, "building": "yes"}, "geometry": {"type": "Polygon", "coordinates": [[[-49.2263476, -25.4562897], [-49.2264049, -25.45627], [-49.2263452, -25.4561284], [-49.2262879, -25.456148], [-49.2263476, -25.4562897]]]}}, {"type": "Feature", "properties": {"type": "way", "id": 465921234, "building": "yes"}, "geometry": {"type": "Polygon", "coordinates": [[[-49.2265979, -25.4556033], [-49.2265561, -25.4555137], [-49.2263826, -25.4555797], [-49.2264244, -25.4556692], [-49.2265979, -25.4556033]]]}}, {"type": "Feature", "properties": {"type": "way", "id": 465921235, "building": "yes"}, "geometry": {"type": "Polygon", "coordinates": [[[-49.2265938, -25.4556662], [-49.2265784, -25.4556331], [-49.2264356, -25.4556874], [-49.226451, -25.4557205], [-49.2265938, -25.4556662]]]}}, {"type": "Feature", "properties": {"type": "way", "id": 465921237, "building": "yes"}, "geometry": {"type": "Polygon", "coordinates": [[[-49.2266207, -25.4557117], [-49.2266048, -25.4556776], [-49.226453, -25.4557353], [-49.2264689, -25.4557693], [-49.2266207, -25.4557117]]]}}, {"type": "Feature", "properties": {"type": "way", "id": 465921238, "addr:housenumber": "73", "addr:street": "Rua Pedro Demeterco", "building": "yes", "survey:date": "2014-12-30"}, "geometry": {"type": "Polygon", "coordinates": [[[-49.22663, -25.455725], [-49.2264644, -25.4557879], [-49.2265045, -25.4558738], [-49.2266701, -25.4558109], [-49.22663, -25.455725]]]}}, {"type": "Feature", "properties": {"type": "way", "id": 465921239, "building": "yes"}, "geometry": {"type": "Polygon", "coordinates": [[[-49.2265663, -25.4562178], [-49.2266112, -25.4562011], [-49.2265522, -25.4560721], [-49.2265073, -25.4560888], [-49.2265663, -25.4562178]]]}}, {"type": "Feature", "properties": {"type": "way", "id": 465921241, "building": "yes"}, "geometry": {"type": "Polygon", "coordinates": [[[-49.2265006, -25.4566764], [-49.2265319, -25.4566639], [-49.2265026, -25.4566044], [-49.2264713, -25.4566169], [-49.2265006, -25.4566764]]]}}, {"type": "Feature", "properties": {"type": "way", "id": 465921242, "building": "yes"}, "geometry": {"type": "Polygon", "coordinates": [[[-49.2265469, -25.4567739], [-49.2265232, -25.4567258], [-49.2264288, -25.4567636], [-49.2264525, -25.4568117], [-49.2265469, -25.4567739]]]}}, {"type": "Feature", "properties": {"type": "way", "id": 465921244, "building": "yes"}, "geometry": {"type": "Polygon", "coordinates": [[[-49.2267313, -25.4567551], [-49.2266841, -25.4566593], [-49.226575, -25.4567031], [-49.2266222, -25.4567989], [-49.2267313, -25.4567551]]]}}, {"type": "Feature", "properties": {"type": "way", "id": 465921245, "building": "yes"}, "geometry": {"type": "Polygon", "coordinates": [[[-49.2267051, -25.4564912], [-49.2266733, -25.4564264], [-49.2266206, -25.4564476], [-49.2266525, -25.4565123], [-49.2267051, -25.4564912]]]}}, {"type": "Feature", "properties": {"type": "way", "id": 465921247, "building": "yes"}, "geometry": {"type": "Polygon", "coordinates": [[[-49.226738, -25.4564579], [-49.2267155, -25.4564122], [-49.2266924, -25.4564215], [-49.2267148, -25.4564671], [-49.226738, -25.4564579]]]}}, {"type": "Feature", "properties": {"type": "way", "id": 465921248, "addr:housenumber": "712", "addr:street": "Rua Senador Batista de Oliveira", "building": "yes"}, "geometry": {"type": "Polygon", "coordinates": [[[-49.2266186, -25.4565553], [-49.2265765, -25.4564697], [-49.2264899, -25.4565045], [-49.226532, -25.4565901], [-49.2266186, -25.4565553]]]}}, {"type": "Feature", "properties": {"type": "way", "id": 465921249, "building": "yes"}, "geometry": {"type": "Polygon", "coordinates": [[[-49.2265013, -25.4565808], [-49.2264691, -25.4565154], [-49.2264208, -25.4565347], [-49.226453, -25.4566001], [-49.2265013, -25.4565808]]]}}, {"type": "Feature", "properties": {"type": "way", "id": 465921251, "building": "yes"}, "geometry": {"type": "Polygon", "coordinates": [[[-49.2263893, -25.4566292], [-49.2264423, -25.4566079], [-49.2264081, -25.4565384], [-49.226355, -25.4565597], [-49.2263893, -25.4566292]]]}}, {"type": "Feature", "properties": {"type": "way", "id": 465921253, "building": "yes"}, "geometry": {"type": "Polygon", "coordinates": [[[-49.2264308, -25.4567317], [-49.2263998, -25.4566731], [-49.2262495, -25.4567381], [-49.2262806, -25.4567967], [-49.2264308, -25.4567317]]]}}, {"type": "Feature", "properties": {"type": "way", "id": 465921255, "addr:housenumber": "72", "addr:street": "Rua Sinke Ferreira", "building": "yes"}, "geometry": {"type": "Polygon", "coordinates": [[[-49.2264697, -25.456869], [-49.226423, -25.4567739], [-49.2263068, -25.4568205], [-49.2263536, -25.4569156], [-49.2264697, -25.456869]]]}}, {"type": "Feature", "properties": {"type": "way", "id": 465921256, "building": "yes"}, "geometry": {"type": "Polygon", "coordinates": [[[-49.2268909, -25.4573793], [-49.2268754, -25.4573481], [-49.2267688, -25.4573908], [-49.2267842, -25.4574221], [-49.2268909, -25.4573793]]]}}, {"type": "Feature", "properties": {"type": "way", "id": 465921257, "addr:housenumber": "140", "addr:street": "Rua Sinke Ferreira", "building": "yes"}, "geometry": {"type": "Polygon", "coordinates": [[[-49.2267058, -25.4573806], [-49.2266759, -25.4573199], [-49.226573, -25.4573612], [-49.2266029, -25.4574219], [-49.2267058, -25.4573806]]]}}, {"type": "Feature", "properties": {"type": "way", "id": 465921259, "addr:housenumber": "150", "addr:street": "Rua Sinke Ferreira", "building": "yes"}, "geometry": {"type": "Polygon", "coordinates": [[[-49.2267862, -25.457472], [-49.2267517, -25.4574018], [-49.2266099, -25.4574587], [-49.2266445, -25.4575289], [-49.2267862, -25.457472]]]}}, {"type": "Feature", "properties": {"type": "way", "id": 465921260, "building": "yes"}, "geometry": {"type": "Polygon", "coordinates": [[[-49.2267614, -25.4572365], [-49.2268111, -25.4572165], [-49.2267816, -25.4571565], [-49.2267319, -25.4571765], [-49.2267614, -25.4572365]]]}}, {"type": "Feature", "properties": {"type": "way", "id": 465921261, "addr:housenumber": "110", "addr:street": "Rua Sinke Ferreira", "building": "yes"}, "geometry": {"type": "Polygon", "coordinates": [[[-49.2266729, -25.4571438], [-49.226633, -25.4570628], [-49.2264838, -25.4571226], [-49.2265237, -25.4572037], [-49.2266729, -25.4571438]]]}}, {"type": "Feature", "properties": {"type": "way", "id": 465921263, "building": "yes"}, "geometry": {"type": "Polygon", "coordinates": [[[-49.2268305, -25.4570899], [-49.2267831, -25.4569937], [-49.2267333, -25.4570137], [-49.2267807, -25.4571099], [-49.2268305, -25.4570899]]]}}, {"type": "Feature", "properties": {"type": "way", "id": 465921264, "building": "yes"}, "geometry": {"type": "Polygon", "coordinates": [[[-49.2269753, -25.4571166], [-49.2269526, -25.4570704], [-49.2269069, -25.4570887], [-49.2269297, -25.4571349], [-49.2269753, -25.4571166]]]}}, {"type": "Feature", "properties": {"type": "way", "id": 465921266, "building": "yes"}, "geometry": {"type": "Polygon", "coordinates": [[[-49.2270934, -25.4571154], [-49.2270545, -25.4570365], [-49.2269727, -25.4570694], [-49.2270115, -25.4571482], [-49.2270934, -25.4571154]]]}}, {"type": "Feature", "properties": {"type": "way", "id": 465921267, "building": "yes"}, "geometry": {"type": "Polygon", "coordinates": [[[-49.2269204, -25.457145], [-49.2268907, -25.4570848], [-49.2268204, -25.4571129], [-49.2268501, -25.4571732], [-49.2269204, -25.457145]]]}}, {"type": "Feature", "properties": {"type": "way", "id": 465921268, "building": "yes"}, "geometry": {"type": "Polygon", "coordinates": [[[-49.2269968, -25.4572589], [-49.2269653, -25.4571949], [-49.2268587, -25.4572377], [-49.2268902, -25.4573017], [-49.2269968, -25.4572589]]]}}, {"type": "Feature", "properties": {"type": "way", "id": 465921270, "building": "yes"}, "geometry": {"type": "Polygon", "coordinates": [[[-49.2270411, -25.4573703], [-49.2269941, -25.4572749], [-49.2269043, -25.4573109], [-49.2269512, -25.4574063], [-49.2270411, -25.4573703]]]}}, {"type": "Feature", "properties": {"type": "way", "id": 465921271, "building": "yes"}, "geometry": {"type": "Polygon", "coordinates": [[[-49.2270994, -25.4573412], [-49.2270665, -25.4572744], [-49.2270223, -25.4572922], [-49.2270552, -25.457359], [-49.2270994, -25.4573412]]]}}, {"type": "Feature", "properties": {"type": "way", "id": 465921272, "building": "yes"}, "geometry": {"type": "Polygon", "coordinates": [[[-49.2271564, -25.4573236], [-49.2271182, -25.457246], [-49.2270786, -25.4572619], [-49.2271168, -25.4573395], [-49.2271564, -25.4573236]]]}}, {"type": "Feature", "properties": {"type": "way", "id": 465921274, "building": "yes"}, "geometry": {"type": "Polygon", "coordinates": [[[-49.2272114, -25.4572958], [-49.2271761, -25.4572242], [-49.2271336, -25.4572413], [-49.2271688, -25.4573129], [-49.2272114, -25.4572958]]]}}, {"type": "Feature", "properties": {"type": "way", "id": 465921275, "building": "yes"}, "geometry": {"type": "Polygon", "coordinates": [[[-49.227265, -25.4572764], [-49.2272313, -25.4572078], [-49.2271946, -25.4572225], [-49.2272284, -25.4572911], [-49.227265, -25.4572764]]]}}, {"type": "Feature", "properties": {"type": "way", "id": 465921276, "building": "yes"}, "geometry": {"type": "Polygon", "coordinates": [[[-49.227324, -25.4572558], [-49.2272874, -25.4571815], [-49.2272469, -25.4571977], [-49.2272835, -25.4572721], [-49.227324, -25.4572558]]]}}, {"type": "Feature", "properties": {"type": "way", "id": 465921278, "addr:housenumber": "229", "addr:street": "Rua Pedro Demeterco", "building": "yes"}, "geometry": {"type": "Polygon", "coordinates": [[[-49.2272234, -25.4570833], [-49.2271037, -25.4571313], [-49.2271289, -25.4571826], [-49.2272487, -25.4571345], [-49.2272234, -25.4570833]]]}}, {"type": "Feature", "properties": {"type": "way", "id": 465921279, "addr:housenumber": "102", "addr:street": "Rua Sinke Ferreira", "building": "yes"}, "geometry": {"type": "Polygon", "coordinates": [[[-49.2267205, -25.4569955], [-49.2266847, -25.4569227], [-49.2266419, -25.4569399], [-49.2266367, -25.4569296], [-49.226571, -25.4569559], [-49.2266119, -25.4570391], [-49.2267205, -25.4569955]]]}}, {"type": "Feature", "properties": {"type": "way", "id": 465921280, "building": "yes"}, "geometry": {"type": "Polygon", "coordinates": [[[-49.2269096, -25.456829], [-49.2268057, -25.4568702], [-49.2268423, -25.4569455], [-49.2269462, -25.4569044], [-49.2269096, -25.456829]]]}}, {"type": "Feature", "properties": {"type": "way", "id": 465921282, "building": "yes"}, "geometry": {"type": "Polygon", "coordinates": [[[-49.2269432, -25.4569785], [-49.2269247, -25.4569384], [-49.2268181, -25.4569784], [-49.2268365, -25.4570185], [-49.2269432, -25.4569785]]]}}, {"type": "Feature", "properties": {"type": "way", "id": 465921283, "building": "yes"}, "geometry": {"type": "Polygon", "coordinates": [[[-49.2269646, -25.4570348], [-49.2269453, -25.4569958], [-49.2268447, -25.4570364], [-49.226864, -25.4570754], [-49.2269646, -25.4570348]]]}}, {"type": "Feature", "properties": {"type": "way", "id": 465921285, "building": "yes"}, "geometry": {"type": "Polygon", "coordinates": [[[-49.2270867, -25.4569561], [-49.22706, -25.4568936], [-49.2269762, -25.4569226], [-49.2270028, -25.4569852], [-49.2270867, -25.4569561]]]}}, {"type": "Feature", "properties": {"type": "way", "id": 465921286, "addr:housenumber": "205", "addr:street": "Rua Pedro Demeterco", "building": "yes"}, "geometry": {"type": "Polygon", "coordinates": [[[-49.2271457, -25.4568526], [-49.2270685, -25.4568853], [-49.2271046, -25.4569546], [-49.2271817, -25.4569219], [-49.2271457, -25.4568526]]]}}, {"type": "Feature", "properties": {"type": "way", "id": 465921288, "addr:housenumber": "191", "addr:street": "Rua Pedro Demeterco", "building": "yes"}, "geometry": {"type": "Polygon", "coordinates": [[[-49.2270596, -25.4567793], [-49.2269632, -25.4568178], [-49.2270006, -25.4568941], [-49.2270877, -25.4568593], [-49.2270591, -25.456801], [-49.2270684, -25.4567973], [-49.2270596, -25.4567793]]]}}, {"type": "Feature", "properties": {"type": "way", "id": 465921289, "addr:housenumber": "179", "addr:street": "Rua Pedro Demeterco", "building": "yes"}, "geometry": {"type": "Polygon", "coordinates": [[[-49.2270692, -25.4567551], [-49.2269237, -25.4568114], [-49.2268763, -25.4567115], [-49.2270218, -25.4566552], [-49.2270692, -25.4567551]]]}}, {"type": "Feature", "properties": {"type": "way", "id": 465921290, "addr:housenumber": "167", "addr:street": "Rua Pedro Demeterco", "building": "yes"}, "geometry": {"type": "Polygon", "coordinates": [[[-49.2269641, -25.4565416], [-49.2269012, -25.4565666], [-49.2267907, -25.4566072], [-49.2268278, -25.4566895], [-49.2269643, -25.4566393], [-49.2269744, -25.4566619], [-49.2270121, -25.456648], [-49.2269641, -25.4565416]]]}}, {"type": "Feature", "properties": {"type": "way", "id": 465921292, "addr:housenumber": "153", "addr:street": "Rua Pedro Demeterco", "building": "yes"}, "geometry": {"type": "Polygon", "coordinates": [[[-49.2269157, -25.4564421], [-49.226748, -25.4565087], [-49.2267736, -25.4565613], [-49.2267422, -25.4565738], [-49.2267637, -25.4566179], [-49.2267907, -25.4566072], [-49.2268405, -25.4565874], [-49.2268275, -25.4565609], [-49.226887, -25.4565373], [-49.2269012, -25.4565666], [-49.2269641, -25.4565416], [-49.2269157, -25.4564421]]]}}, {"type": "Feature", "properties": {"type": "way", "id": 465921293, "addr:housenumber": "706", "addr:street": "Rua Senador Batista de Oliveira", "building": "yes"}, "geometry": {"type": "Polygon", "coordinates": [[[-49.2268687, -25.4563366], [-49.226728, -25.4563886], [-49.2267615, -25.4564625], [-49.2268199, -25.4564409], [-49.2268149, -25.4564299], [-49.2268487, -25.4564174], [-49.2268573, -25.4564363], [-49.2269058, -25.4564184], [-49.2268687, -25.4563366]]]}}, {"type": "Feature", "properties": {"type": "way", "id": 465921317, "addr:housenumber": "151", "addr:street": "Rua Sinke Ferreira", "building": "yes"}, "geometry": {"type": "Polygon", "coordinates": [[[-49.2264318, -25.4576045], [-49.2263534, -25.4576348], [-49.2263204, -25.4575652], [-49.2263989, -25.4575349], [-49.2264318, -25.4576045]]]}}, {"type": "Feature", "properties": {"type": "way", "id": 465921318, "addr:housenumber": "143", "addr:street": "Rua Sinke Ferreira", "building": "yes"}, "geometry": {"type": "Polygon", "coordinates": [[[-49.2263983, -25.4575228], [-49.2263513, -25.4574247], [-49.2261822, -25.4574907], [-49.2262199, -25.4575693], [-49.2263172, -25.4575314], [-49.2263265, -25.4575508], [-49.2263983, -25.4575228]]]}}, {"type": "Feature", "properties": {"type": "way", "id": 465922504, "addr:housenumber": "31", "addr:street": "Rua Pedro Demeterco", "building": "yes", "survey:date": "2014-12-30"}, "geometry": {"type": "Polygon", "coordinates": [[[-49.2265308, -25.4555061], [-49.2264738, -25.4553868], [-49.2263987, -25.4554764], [-49.2264275, -25.4555503], [-49.2265308, -25.4555061]]]}}, {"type": "Feature", "properties": {"type": "way", "id": 465937071, "building": "yes"}, "geometry": {"type": "Polygon", "coordinates": [[[-49.2277506, -25.4567962], [-49.2277278, -25.4567514], [-49.2276835, -25.4567698], [-49.2277063, -25.4568146], [-49.2277506, -25.4567962]]]}}, {"type": "Feature", "properties": {"type": "way", "id": 465937072, "building": "yes"}, "geometry": {"type": "Polygon", "coordinates": [[[-49.2277747, -25.4568466], [-49.2277519, -25.4568018], [-49.2277075, -25.4568202], [-49.2277303, -25.456865], [-49.2277747, -25.4568466]]]}}, {"type": "Feature", "properties": {"type": "way", "id": 465937073, "building": "yes"}, "geometry": {"type": "Polygon", "coordinates": [[[-49.2277828, -25.4567158], [-49.2277345, -25.4566153], [-49.2276789, -25.4566371], [-49.2277272, -25.4567376], [-49.2277828, -25.4567158]]]}}, {"type": "Feature", "properties": {"type": "way", "id": 465937074, "building": "yes"}, "geometry": {"type": "Polygon", "coordinates": [[[-49.2279209, -25.4566571], [-49.2278284, -25.4564658], [-49.2277026, -25.4565153], [-49.2277952, -25.4567067], [-49.2279209, -25.4566571]]]}}, {"type": "Feature", "properties": {"type": "way", "id": 465937075, "building": "yes"}, "geometry": {"type": "Polygon", "coordinates": [[[-49.227471, -25.4563477], [-49.2275192, -25.4564476], [-49.2275998, -25.4564158], [-49.2275515, -25.4563159], [-49.227471, -25.4563477]]]}}, {"type": "Feature", "properties": {"type": "way", "id": 465937076, "building": "yes"}, "geometry": {"type": "Polygon", "coordinates": [[[-49.2276158, -25.4561521], [-49.2275758, -25.45607], [-49.2275427, -25.4560831], [-49.2275827, -25.4561653], [-49.2276158, -25.4561521]]]}}, {"type": "Feature", "properties": {"type": "way", "id": 465937077, "building": "yes"}, "geometry": {"type": "Polygon", "coordinates": [[[-49.2277318, -25.4563592], [-49.2276854, -25.4562637], [-49.2276446, -25.4562799], [-49.2276911, -25.4563754], [-49.2277318, -25.4563592]]]}}, {"type": "Feature", "properties": {"type": "way", "id": 465937078, "addr:housenumber": "582", "addr:street": "Rua Senador Batista de Oliveira", "building": "yes", "survey:date": "2014-02-17"}, "geometry": {"type": "Polygon", "coordinates": [[[-49.2277908, -25.4559784], [-49.2275932, -25.4560567], [-49.2276352, -25.4561431], [-49.2278328, -25.4560647], [-49.2277908, -25.4559784]]]}}, {"type": "Feature", "properties": {"type": "way", "id": 465937079, "addr:housenumber": "155", "addr:street": "Rua Heitor de Andrade", "building": "yes", "survey:date": "2014-10-05"}, "geometry": {"type": "Polygon", "coordinates": [[[-49.2279082, -25.4561225], [-49.2278748, -25.4560539], [-49.2276668, -25.4561364], [-49.2277001, -25.456205], [-49.2279082, -25.4561225]]]}}, {"type": "Feature", "properties": {"type": "way", "id": 465937080, "addr:housenumber": "161", "addr:street": "Rua Heitor de Andrade", "building": "yes"}, "geometry": {"type": "Polygon", "coordinates": [[[-49.2279544, -25.4562732], [-49.2279048, -25.4561712], [-49.2277284, -25.4562411], [-49.2277781, -25.4563431], [-49.2279544, -25.4562732]]]}}, {"type": "Feature", "properties": {"type": "way", "id": 465937081, "addr:housenumber": "179", "addr:street": "Rua Heitor de Andrade", "building": "yes", "survey:date": "2014-10-05"}, "geometry": {"type": "Polygon", "coordinates": [[[-49.2279819, -25.4563889], [-49.2279353, -25.456293], [-49.2277811, -25.4563541], [-49.2278277, -25.45645], [-49.2279819, -25.4563889]]]}}, {"type": "Feature", "properties": {"type": "way", "id": 465937082, "addr:housenumber": "628", "addr:street": "Rua Senador Batista de Oliveira", "building": "yes"}, "geometry": {"type": "Polygon", "coordinates": [[[-49.2273563, -25.4562502], [-49.2273235, -25.4561722], [-49.2271732, -25.4562236], [-49.227206, -25.4563016], [-49.2273563, -25.4562502]]]}}, {"type": "Feature", "properties": {"type": "way", "id": 465937086, "addr:housenumber": "192", "addr:street": "Rua Pedro Demeterco", "building": "yes"}, "geometry": {"type": "Polygon", "coordinates": [[[-49.2275595, -25.4566668], [-49.2275266, -25.4565934], [-49.2273891, -25.4566437], [-49.227422, -25.456717], [-49.2275595, -25.4566668]]]}}, {"type": "Feature", "properties": {"type": "way", "id": 465937087, "addr:housenumber": "208", "addr:street": "Rua Pedro Demeterco", "building": "yes"}, "geometry": {"type": "Polygon", "coordinates": [[[-49.2274153, -25.4567424], [-49.2274562, -25.4568393], [-49.2275522, -25.4568063], [-49.2275113, -25.4567094], [-49.2274153, -25.4567424]]]}}, {"type": "Feature", "properties": {"type": "way", "id": 465937088, "building": "yes"}, "geometry": {"type": "Polygon", "coordinates": [[[-49.2276151, -25.4567957], [-49.227483, -25.4568448], [-49.2275025, -25.4568877], [-49.2276346, -25.4568387], [-49.2276151, -25.4567957]]]}}, {"type": "Feature", "properties": {"type": "way", "id": 465937089, "building": "yes"}, "geometry": {"type": "Polygon", "coordinates": [[[-49.2276399, -25.4568478], [-49.2275078, -25.4568968], [-49.2275274, -25.4569398], [-49.2276595, -25.4568908], [-49.2276399, -25.4568478]]]}}, {"type": "Feature", "properties": {"type": "way", "id": 465937090, "building": "yes"}, "geometry": {"type": "Polygon", "coordinates": [[[-49.2277506, -25.456978], [-49.2278048, -25.456955], [-49.2277586, -25.456866], [-49.2277043, -25.456889], [-49.2277506, -25.456978]]]}}, {"type": "Feature", "properties": {"type": "way", "id": 465937091, "building": "yes"}, "geometry": {"type": "Polygon", "coordinates": [[[-49.2278619, -25.4570391], [-49.2278276, -25.4569676], [-49.2277485, -25.4569984], [-49.2277828, -25.45707], [-49.2278619, -25.4570391]]]}}, {"type": "Feature", "properties": {"type": "way", "id": 465937092, "building": "yes"}, "geometry": {"type": "Polygon", "coordinates": [[[-49.2277, -25.4571086], [-49.2277743, -25.4570774], [-49.22773, -25.4569914], [-49.2276558, -25.4570226], [-49.2277, -25.4571086]]]}}, {"type": "Feature", "properties": {"type": "way", "id": 465937093, "building": "yes"}, "geometry": {"type": "Polygon", "coordinates": [[[-49.2276225, -25.4571433], [-49.2276967, -25.4571121], [-49.2276525, -25.4570261], [-49.2275782, -25.4570573], [-49.2276225, -25.4571433]]]}}, {"type": "Feature", "properties": {"type": "way", "id": 465940182, "addr:housenumber": "804", "addr:street": "Rua Coronel Joaquim Lacerda", "building": "yes"}, "geometry": {"type": "Polygon", "coordinates": [[[-49.2272265, -25.4577223], [-49.2271595, -25.457583], [-49.2270776, -25.4576151], [-49.2271445, -25.4577544], [-49.2272265, -25.4577223]]]}}, {"type": "Feature", "properties": {"type": "way", "id": 465940183, "building": "yes"}, "geometry": {"type": "Polygon", "coordinates": [[[-49.2268711, -25.4576844], [-49.2267801, -25.4577201], [-49.2268104, -25.4577831], [-49.2269014, -25.4577475], [-49.2268711, -25.4576844]]]}}, {"type": "Feature", "properties": {"type": "way", "id": 465940184, "building": "yes"}, "geometry": {"type": "Polygon", "coordinates": [[[-49.226965, -25.4576469], [-49.2268896, -25.4576764], [-49.2269207, -25.457741], [-49.226996, -25.4577115], [-49.226965, -25.4576469]]]}}, {"type": "Feature", "properties": {"type": "way", "id": 465940185, "building": "yes"}, "geometry": {"type": "Polygon", "coordinates": [[[-49.2270511, -25.4576127], [-49.2269749, -25.4576426], [-49.2270062, -25.4577078], [-49.2270824, -25.4576779], [-49.2270511, -25.4576127]]]}}, {"type": "Feature", "properties": {"type": "way", "id": 465940206, "addr:housenumber": "301", "addr:street": "Rua Pedro Demeterco", "building": "yes"}, "geometry": {"type": "Polygon", "coordinates": [[[-49.2275654, -25.4577323], [-49.2275302, -25.4576589], [-49.2273522, -25.4577286], [-49.2273875, -25.457802], [-49.2275654, -25.4577323]]]}}, {"type": "Feature", "properties": {"type": "way", "id": 465940207, "addr:housenumber": "285", "addr:street": "Rua Pedro Demeterco", "building": "yes"}, "geometry": {"type": "Polygon", "coordinates": [[[-49.2274816, -25.4575473], [-49.2273649, -25.457593], [-49.2274001, -25.4576661], [-49.2274591, -25.4576429], [-49.2274648, -25.4576547], [-49.2275224, -25.4576321], [-49.2274816, -25.4575473]]]}}, {"type": "Feature", "properties": {"type": "way", "id": 465940208, "building": "yes"}, "geometry": {"type": "Polygon", "coordinates": [[[-49.2272247, -25.4576215], [-49.2272739, -25.4575997], [-49.227239, -25.4575355], [-49.2271898, -25.4575573], [-49.2272247, -25.4576215]]]}}, {"type": "Feature", "properties": {"type": "way", "id": 465940209, "building": "yes"}, "geometry": {"type": "Polygon", "coordinates": [[[-49.2272902, -25.4575976], [-49.2273394, -25.4575758], [-49.2273045, -25.4575116], [-49.2272553, -25.4575334], [-49.2272902, -25.4575976]]]}}, {"type": "Feature", "properties": {"type": "way", "id": 465940210, "building": "yes"}, "geometry": {"type": "Polygon", "coordinates": [[[-49.2273911, -25.4574816], [-49.2273184, -25.4575133], [-49.2273505, -25.4575735], [-49.2274233, -25.4575419], [-49.2273911, -25.4574816]]]}}, {"type": "Feature", "properties": {"type": "way", "id": 465940211, "building": "yes"}, "geometry": {"type": "Polygon", "coordinates": [[[-49.2274327, -25.4574202], [-49.2273833, -25.4574402], [-49.2274366, -25.4575473], [-49.227486, -25.4575273], [-49.2274327, -25.4574202]]]}}, {"type": "Feature", "properties": {"type": "way", "id": 465940213, "addr:housenumber": "706", "addr:street": "Rua Coronel Joaquim Lacerda", "building": "yes"}, "geometry": {"type": "Polygon", "coordinates": [[[-49.2280438, -25.4572292], [-49.2279836, -25.4572499], [-49.2280319, -25.4573643], [-49.2280921, -25.4573436], [-49.2280438, -25.4572292]]]}}, {"type": "Feature", "properties": {"type": "way", "id": 465940214, "addr:housenumber": "698", "addr:street": "Rua Coronel Joaquim Lacerda", "building": "yes"}, "geometry": {"type": "Polygon", "coordinates": [[[-49.2281082, -25.4571928], [-49.2280634, -25.4572102], [-49.2281311, -25.4573525], [-49.2281759, -25.4573351], [-49.2281082, -25.4571928]]]}}, {"type": "Feature", "properties": {"type": "way", "id": 465940215, "building": "yes"}, "geometry": {"type": "Polygon", "coordinates": [[[-49.2283087, -25.4575894], [-49.2282853, -25.4575381], [-49.2282088, -25.4575666], [-49.2282322, -25.4576179], [-49.2283087, -25.4575894]]]}}, {"type": "Feature", "properties": {"type": "way", "id": 465940216, "building": "yes"}, "geometry": {"type": "Polygon", "coordinates": [[[-49.2283268, -25.4576572], [-49.2283106, -25.4576206], [-49.2282368, -25.4576472], [-49.228253, -25.4576838], [-49.2283268, -25.4576572]]]}}, {"type": "Feature", "properties": {"type": "way", "id": 465940217, "addr:housenumber": "712", "addr:street": "Rua Coronel Joaquim Lacerda", "building": "yes"}, "geometry": {"type": "Polygon", "coordinates": [[[-49.227838, -25.457372], [-49.2278048, -25.4573035], [-49.2276942, -25.4573471], [-49.2277273, -25.4574156], [-49.227838, -25.457372]]]}}, {"type": "Feature", "properties": {"type": "way", "id": 465940218, "addr:housenumber": "292", "addr:street": "Rua Pedro Demeterco", "building": "yes"}, "geometry": {"type": "Polygon", "coordinates": [[[-49.2278688, -25.4573817], [-49.2277662, -25.4574168], [-49.2277788, -25.4574467], [-49.2277989, -25.4574398], [-49.2278124, -25.457472], [-49.2277923, -25.4574789], [-49.2278019, -25.4575019], [-49.2279045, -25.4574668], [-49.2278688, -25.4573817]]]}}, {"type": "Feature", "properties": {"type": "way", "id": 465940220, "building": "yes"}, "geometry": {"type": "Polygon", "coordinates": [[[-49.2280076, -25.4573726], [-49.2279211, -25.4574053], [-49.2279406, -25.4574473], [-49.2280271, -25.4574146], [-49.2280076, -25.4573726]]]}}, {"type": "Feature", "properties": {"type": "way", "id": 465940221, "building": "yes"}, "geometry": {"type": "Polygon", "coordinates": [[[-49.2281546, -25.4575417], [-49.2281349, -25.4575039], [-49.2280551, -25.4575378], [-49.2280748, -25.4575756], [-49.2281546, -25.4575417]]]}}, {"type": "Feature", "properties": {"type": "way", "id": 465940222, "building": "yes"}, "geometry": {"type": "Polygon", "coordinates": [[[-49.2281813, -25.4575906], [-49.2281616, -25.4575529], [-49.2280818, -25.4575868], [-49.2281015, -25.4576245], [-49.2281813, -25.4575906]]]}}, {"type": "Feature", "properties": {"type": "way", "id": 465940223, "building": "yes"}, "geometry": {"type": "Polygon", "coordinates": [[[-49.2279791, -25.4574968], [-49.2280382, -25.4574741], [-49.2280187, -25.4574326], [-49.2279596, -25.4574553], [-49.2279791, -25.4574968]]]}}, {"type": "Feature", "properties": {"type": "way", "id": 465940224, "building": "yes"}, "geometry": {"type": "Polygon", "coordinates": [[[-49.2280029, -25.457544], [-49.228062, -25.4575213], [-49.2280425, -25.4574798], [-49.2279834, -25.4575025], [-49.2280029, -25.457544]]]}}, {"type": "Feature", "properties": {"type": "way", "id": 465940225, "addr:housenumber": "300", "addr:street": "Rua Pedro Demeterco", "building": "yes"}, "geometry": {"type": "Polygon", "coordinates": [[[-49.2278742, -25.4574949], [-49.2277878, -25.4575281], [-49.2278118, -25.4575791], [-49.2278982, -25.4575459], [-49.2278742, -25.4574949]]]}}, {"type": "Feature", "properties": {"type": "way", "id": 465940226, "addr:housenumber": "312", "addr:street": "Rua Pedro Demeterco", "building": "yes"}, "geometry": {"type": "Polygon", "coordinates": [[[-49.2280157, -25.457573], [-49.2278488, -25.4576372], [-49.2278802, -25.4577038], [-49.2280471, -25.4576397], [-49.2280157, -25.457573]]]}}, {"type": "Feature", "properties": {"type": "way", "id": 465940227, "addr:housenumber": "322", "addr:street": "Rua Pedro Demeterco", "building": "yes"}, "geometry": {"type": "Polygon", "coordinates": [[[-49.2280331, -25.4576796], [-49.2278771, -25.4577395], [-49.2279131, -25.4578158], [-49.228069, -25.4577559], [-49.2280331, -25.4576796]]]}}, {"type": "Feature", "properties": {"type": "way", "id": 465940240, "addr:housenumber": "329", "addr:street": "Rua Heitor de Andrade", "building": "yes"}, "geometry": {"type": "Polygon", "coordinates": [[[-49.2286238, -25.457771], [-49.2286041, -25.4577291], [-49.2285011, -25.4577686], [-49.2285209, -25.4578106], [-49.2286238, -25.457771]]]}}, {"type": "Feature", "properties": {"type": "way", "id": 465940241, "addr:housenumber": "325", "addr:street": "Rua Heitor de Andrade", "building": "yes"}, "geometry": {"type": "Polygon", "coordinates": [[[-49.2286084, -25.4577153], [-49.228584, -25.4576635], [-49.228479, -25.4577038], [-49.2285034, -25.4577557], [-49.2286084, -25.4577153]]]}}, {"type": "Feature", "properties": {"type": "way", "id": 465940242, "addr:housenumber": "319", "addr:street": "Rua Heitor de Andrade", "building": "yes"}, "geometry": {"type": "Polygon", "coordinates": [[[-49.2286252, -25.4576275], [-49.2285994, -25.4575728], [-49.2284066, -25.4576469], [-49.2284324, -25.4577016], [-49.2286252, -25.4576275]]]}}, {"type": "Feature", "properties": {"type": "way", "id": 465940243, "addr:housenumber": "315", "addr:street": "Rua Heitor de Andrade", "building": "yes"}, "geometry": {"type": "Polygon", "coordinates": [[[-49.2285823, -25.4575621], [-49.22856, -25.4575148], [-49.2284193, -25.4575688], [-49.2284417, -25.4576162], [-49.2285823, -25.4575621]]]}}, {"type": "Feature", "properties": {"type": "way", "id": 465940244, "addr:housenumber": "303", "addr:street": "Rua Heitor de Andrade", "building": "yes"}, "geometry": {"type": "Polygon", "coordinates": [[[-49.228477, -25.4574423], [-49.2284569, -25.4573997], [-49.2283382, -25.4574453], [-49.2283583, -25.4574879], [-49.228477, -25.4574423]]]}}, {"type": "Feature", "properties": {"type": "way", "id": 465940245, "addr:housenumber": "309", "addr:street": "Rua Heitor de Andrade", "building": "yes"}, "geometry": {"type": "Polygon", "coordinates": [[[-49.2285139, -25.4575004], [-49.2284951, -25.4574606], [-49.2283838, -25.4575034], [-49.2284025, -25.4575432], [-49.2285139, -25.4575004]]]}}, {"type": "Feature", "properties": {"type": "way", "id": 465940246, "addr:housenumber": "299", "addr:street": "Rua Heitor de Andrade", "building": "yes"}, "geometry": {"type": "Polygon", "coordinates": [[[-49.2284931, -25.4573599], [-49.2284636, -25.4572974], [-49.2283134, -25.4573551], [-49.2283429, -25.4574176], [-49.2284931, -25.4573599]]]}}, {"type": "Feature", "properties": {"type": "way", "id": 465940247, "addr:housenumber": "293", "addr:street": "Rua Heitor de Andrade", "building": "yes"}, "geometry": {"type": "Polygon", "coordinates": [[[-49.2284388, -25.4573], [-49.2284292, -25.4572796], [-49.2284072, -25.457288], [-49.228391, -25.4572535], [-49.2283184, -25.4572814], [-49.2283442, -25.4573363], [-49.2284388, -25.4573]]]}}, {"type": "Feature", "properties": {"type": "way", "id": 465940248, "addr:housenumber": "287", "addr:street": "Rua Heitor de Andrade", "building": "yes"}, "geometry": {"type": "Polygon", "coordinates": [[[-49.2283757, -25.457217], [-49.2283513, -25.4571715], [-49.2282822, -25.4572018], [-49.2283067, -25.4572473], [-49.2283757, -25.457217]]]}}, {"type": "Feature", "properties": {"type": "way", "id": 465940249, "addr:housenumber": "680", "addr:street": "Rua Coronel Joaquim Lacerda", "building": "yes"}, "geometry": {"type": "Polygon", "coordinates": [[[-49.2283999, -25.457145], [-49.2283613, -25.4570678], [-49.2281266, -25.4571634], [-49.2281652, -25.4572407], [-49.2283999, -25.457145]]]}}, {"type": "Feature", "properties": {"type": "way", "id": 465940250, "building": "yes"}, "geometry": {"type": "Polygon", "coordinates": [[[-49.2284844, -25.4559069], [-49.2284716, -25.4558794], [-49.2284005, -25.4559063], [-49.2284134, -25.4559338], [-49.2284844, -25.4559069]]]}}, {"type": "Feature", "properties": {"type": "way", "id": 465940251, "building": "yes"}, "geometry": {"type": "Polygon", "coordinates": [[[-49.228414, -25.4559353], [-49.2284005, -25.4559063], [-49.2283369, -25.4559305], [-49.2283504, -25.4559595], [-49.228414, -25.4559353]]]}}, {"type": "Feature", "properties": {"type": "way", "id": 465940252, "building": "yes"}, "geometry": {"type": "Polygon", "coordinates": [[[-49.2286119, -25.4559856], [-49.2285981, -25.455956], [-49.2285408, -25.4559777], [-49.2285546, -25.4560073], [-49.2286119, -25.4559856]]]}}, {"type": "Feature", "properties": {"type": "way", "id": 465940253, "building": "yes"}, "geometry": {"type": "Polygon", "coordinates": [[[-49.2286058, -25.4559541], [-49.2286479, -25.4559381], [-49.2286179, -25.4558736], [-49.2285758, -25.4558895], [-49.2286058, -25.4559541]]]}}, {"type": "Feature", "properties": {"type": "way", "id": 465940254, "addr:housenumber": "61", "addr:street": "Rua Maria Theodora de Paula Costa", "building": "yes"}, "geometry": {"type": "Polygon", "coordinates": [[[-49.2284891, -25.4561182], [-49.2284583, -25.4560519], [-49.2283953, -25.4560758], [-49.2284261, -25.4561421], [-49.2284891, -25.4561182]]]}}, {"type": "Feature", "properties": {"type": "way", "id": 465940255, "addr:housenumber": "53", "addr:street": "Rua Maria Theodora de Paula Costa", "building": "yes"}, "geometry": {"type": "Polygon", "coordinates": [[[-49.2285723, -25.4561236], [-49.2285266, -25.4560254], [-49.2284737, -25.4560455], [-49.2285194, -25.4561437], [-49.2285723, -25.4561236]]]}}, {"type": "Feature", "properties": {"type": "way", "id": 465940256, "addr:housenumber": "45", "addr:street": "Rua Maria Theodora de Paula Costa", "building": "yes"}, "geometry": {"type": "Polygon", "coordinates": [[[-49.228642, -25.4560643], [-49.2286112, -25.4559981], [-49.2285549, -25.4560195], [-49.2285857, -25.4560857], [-49.228642, -25.4560643]]]}}, {"type": "Feature", "properties": {"type": "way", "id": 465940257, "addr:housenumber": "37", "addr:street": "Rua Maria Theodora de Paula Costa", "building": "yes"}, "geometry": {"type": "Polygon", "coordinates": [[[-49.228703, -25.4560352], [-49.2286701, -25.4559645], [-49.2286273, -25.4559807], [-49.2286602, -25.4560515], [-49.228703, -25.4560352]]]}}, {"type": "Feature", "properties": {"type": "way", "id": 465940258, "building": "yes"}, "geometry": {"type": "Polygon", "coordinates": [[[-49.2287419, -25.4560564], [-49.2287768, -25.4560432], [-49.2287537, -25.4559937], [-49.2287849, -25.4559819], [-49.2287621, -25.4559329], [-49.2286961, -25.4559579], [-49.2287419, -25.4560564]]]}}, {"type": "Feature", "properties": {"type": "way", "id": 465940259, "addr:housenumber": "321", "addr:street": "Rua Ana Berta Roskamp", "building": "yes", "survey:date": "2014-02-27"}, "geometry": {"type": "Polygon", "coordinates": [[[-49.2288962, -25.455971], [-49.2288727, -25.4559207], [-49.2287849, -25.4559541], [-49.2288083, -25.4560044], [-49.2288962, -25.455971]]]}}, {"type": "Feature", "properties": {"type": "way", "id": 465940260, "addr:housenumber": "313", "addr:street": "Rua Ana Berta Roskamp", "building": "yes"}, "geometry": {"type": "Polygon", "coordinates": [[[-49.2288626, -25.4559117], [-49.2288383, -25.4558595], [-49.2287533, -25.4558917], [-49.2287777, -25.455944], [-49.2288626, -25.4559117]]]}}, {"type": "Feature", "properties": {"type": "way", "id": 465940261, "addr:housenumber": "305", "addr:street": "Rua Ana Berta Roskamp", "building": "yes", "survey:date": "2014-02-27"}, "geometry": {"type": "Polygon", "coordinates": [[[-49.2288291, -25.4558391], [-49.2288075, -25.4557926], [-49.2286963, -25.4558348], [-49.2287179, -25.4558812], [-49.2288291, -25.4558391]]]}}, {"type": "Feature", "properties": {"type": "way", "id": 465940262, "addr:housenumber": "299", "addr:street": "Rua Ana Berta Roskamp", "building": "yes", "survey:date": "2014-02-27"}, "geometry": {"type": "Polygon", "coordinates": [[[-49.2287647, -25.455787], [-49.2287479, -25.4557509], [-49.2286782, -25.4557773], [-49.2286951, -25.4558134], [-49.2287647, -25.455787]]]}}, {"type": "Feature", "properties": {"type": "way", "id": 465940263, "addr:housenumber": "291", "addr:street": "Rua Ana Berta Roskamp", "building": "yes", "survey:date": "2014-02-27"}, "geometry": {"type": "Polygon", "coordinates": [[[-49.2287694, -25.4557125], [-49.2287479, -25.4556662], [-49.2285924, -25.4557252], [-49.228614, -25.4557715], [-49.2287694, -25.4557125]]]}}, {"type": "Feature", "properties": {"type": "way", "id": 465940264, "addr:housenumber": "283", "addr:street": "Rua Ana Berta Roskamp", "building": "yes", "survey:date": "2014-02-17"}, "geometry": {"type": "Polygon", "coordinates": [[[-49.2287359, -25.4556526], [-49.2287125, -25.4556023], [-49.2286373, -25.4556308], [-49.2286608, -25.4556811], [-49.2287359, -25.4556526]]]}}, {"type": "Feature", "properties": {"type": "way", "id": 465940265, "addr:housenumber": "500", "addr:street": "Rua Senador Batista de Oliveira", "building": "yes", "survey:date": "2014-02-17"}, "geometry": {"type": "Polygon", "coordinates": [[[-49.2284777, -25.4557095], [-49.2284242, -25.4557298], [-49.2284751, -25.4558391], [-49.2285286, -25.4558187], [-49.2284777, -25.4557095]]]}}, {"type": "Feature", "properties": {"type": "way", "id": 465940266, "addr:housenumber": "494", "addr:street": "Rua Senador Batista de Oliveira", "building": "yes", "survey:date": "2014-02-17"}, "geometry": {"type": "Polygon", "coordinates": [[[-49.2285435, -25.4556756], [-49.2284907, -25.4556956], [-49.2285481, -25.4558191], [-49.2286009, -25.455799], [-49.2285435, -25.4556756]]]}}, {"type": "Feature", "properties": {"type": "way", "id": 465940267, "addr:housenumber": "510", "addr:street": "Rua Senador Batista de Oliveira", "building": "yes", "survey:date": "2014-02-17"}, "geometry": {"type": "Polygon", "coordinates": [[[-49.2283872, -25.4557343], [-49.2283374, -25.4557532], [-49.2283892, -25.4558645], [-49.228439, -25.4558456], [-49.2283872, -25.4557343]]]}}, {"type": "Feature", "properties": {"type": "way", "id": 465940268, "addr:housenumber": "516", "addr:street": "Rua Senador Batista de Oliveira", "building": "yes"}, "geometry": {"type": "Polygon", "coordinates": [[[-49.2283282, -25.4557567], [-49.228263, -25.4557815], [-49.2283155, -25.4558942], [-49.2283807, -25.4558694], [-49.2283282, -25.4557567]]]}}, {"type": "Feature", "properties": {"type": "way", "id": 465940269, "building": "yes"}, "geometry": {"type": "Polygon", "coordinates": [[[-49.2282538, -25.4557924], [-49.2281751, -25.4558223], [-49.228216, -25.4559101], [-49.2282412, -25.4559005], [-49.2282482, -25.4559154], [-49.2283016, -25.4558952], [-49.2282538, -25.4557924]]]}}, {"type": "Feature", "properties": {"type": "way", "id": 465940270, "building": "yes"}, "geometry": {"type": "Polygon", "coordinates": [[[-49.2281606, -25.4558306], [-49.2280848, -25.4558593], [-49.2281317, -25.4559601], [-49.2282075, -25.4559314], [-49.2281606, -25.4558306]]]}}, {"type": "Feature", "properties": {"type": "way", "id": 465940271, "addr:housenumber": "154", "addr:street": "Rua Heitor de Andrade", "building": "yes", "survey:date": "2014-10-05"}, "geometry": {"type": "Polygon", "coordinates": [[[-49.2282437, -25.4559462], [-49.2281414, -25.4559851], [-49.2281653, -25.4560364], [-49.2282676, -25.4559976], [-49.2282437, -25.4559462]]]}}, {"type": "Feature", "properties": {"type": "way", "id": 465940272, "addr:housenumber": "160", "addr:street": "Rua Heitor de Andrade", "building": "yes", "survey:date": "2014-10-05"}, "geometry": {"type": "Polygon", "coordinates": [[[-49.2282746, -25.4560019], [-49.2281689, -25.456042], [-49.2281914, -25.4560903], [-49.2282971, -25.4560502], [-49.2282746, -25.4560019]]]}}, {"type": "Feature", "properties": {"type": "way", "id": 465940273, "addr:housenumber": "170", "addr:street": "Rua Heitor de Andrade", "building": "yes", "survey:date": "2014-10-05"}, "geometry": {"type": "Polygon", "coordinates": [[[-49.2283684, -25.4560498], [-49.2281487, -25.4561331], [-49.2281733, -25.456186], [-49.2282793, -25.4561458], [-49.2282726, -25.4561313], [-49.2282892, -25.4561249], [-49.228296, -25.4561394], [-49.2283178, -25.4561312], [-49.2283112, -25.4561171], [-49.2283284, -25.4561105], [-49.228335, -25.4561246], [-49.228393, -25.4561026], [-49.2283684, -25.4560498]]]}}, {"type": "Feature", "properties": {"type": "way", "id": 465940274, "addr:housenumber": "178", "addr:street": "Rua Heitor de Andrade", "building": "yes", "survey:date": "2014-10-05"}, "geometry": {"type": "Polygon", "coordinates": [[[-49.2283986, -25.4561696], [-49.2283764, -25.4561219], [-49.2283321, -25.4561388], [-49.2283435, -25.4561633], [-49.2283276, -25.4561693], [-49.2283162, -25.4561448], [-49.2282376, -25.4561746], [-49.2282598, -25.4562223], [-49.2283986, -25.4561696]]]}}, {"type": "Feature", "properties": {"type": "way", "id": 465941004, "building": "yes"}, "geometry": {"type": "Polygon", "coordinates": [[[-49.2291733, -25.4571745], [-49.2291391, -25.4571043], [-49.229077, -25.4571289], [-49.2290917, -25.457159], [-49.2291087, -25.4571522], [-49.2291283, -25.4571924], [-49.2291733, -25.4571745]]]}}, {"type": "Feature", "properties": {"type": "way", "id": 465941005, "addr:housenumber": "560", "addr:street": "Rua Coronel Joaquim Lacerda", "building": "yes"}, "geometry": {"type": "Polygon", "coordinates": [[[-49.2291223, -25.4568912], [-49.2290864, -25.4568118], [-49.2290334, -25.4568314], [-49.2290693, -25.4569107], [-49.2291223, -25.4568912]]]}}, {"type": "Feature", "properties": {"type": "way", "id": 465941006, "addr:housenumber": "568", "addr:street": "Rua Coronel Joaquim Lacerda", "building": "yes", "survey:date": "2014-10-05"}, "geometry": {"type": "Polygon", "coordinates": [[[-49.2290311, -25.4570116], [-49.2290735, -25.4569943], [-49.2290326, -25.4569126], [-49.2290456, -25.4569073], [-49.2290147, -25.4568456], [-49.2289594, -25.4568681], [-49.2290311, -25.4570116]]]}}, {"type": "Feature", "properties": {"type": "way", "id": 465941007, "building": "yes"}, "geometry": {"type": "Polygon", "coordinates": [[[-49.2289793, -25.4570047], [-49.2289186, -25.4568824], [-49.2288918, -25.4568932], [-49.2289525, -25.4570155], [-49.2289793, -25.4570047]]]}}, {"type": "Feature", "properties": {"type": "way", "id": 465941008, "building": "yes"}, "geometry": {"type": "Polygon", "coordinates": [[[-49.229009, -25.4569892], [-49.2289483, -25.4568669], [-49.2289215, -25.4568778], [-49.2289822, -25.4570001], [-49.229009, -25.4569892]]]}}, {"type": "Feature", "properties": {"type": "way", "id": 465941009, "addr:housenumber": "578", "addr:street": "Rua Coronel Joaquim Lacerda", "building": "yes", "survey:date": "2014-10-05"}, "geometry": {"type": "Polygon", "coordinates": [[[-49.2289221, -25.4569629], [-49.2288836, -25.4568896], [-49.228817, -25.4569182], [-49.2288556, -25.4569914], [-49.2289221, -25.4569629]]]}}, {"type": "Feature", "properties": {"type": "way", "id": 465941010, "building": "yes"}, "geometry": {"type": "Polygon", "coordinates": [[[-49.2288346, -25.4569711], [-49.2288127, -25.4569276], [-49.2287325, -25.4569606], [-49.2287545, -25.4570041], [-49.2288346, -25.4569711]]]}}, {"type": "Feature", "properties": {"type": "way", "id": 465941011, "building": "yes"}, "geometry": {"type": "Polygon", "coordinates": [[[-49.2287448, -25.4570059], [-49.2287178, -25.4569572], [-49.2286313, -25.4569963], [-49.2286583, -25.4570449], [-49.2287448, -25.4570059]]]}}, {"type": "Feature", "properties": {"type": "way", "id": 465941012, "building": "yes"}, "geometry": {"type": "Polygon", "coordinates": [[[-49.228786, -25.4570274], [-49.2287743, -25.4570056], [-49.22867, -25.4570513], [-49.2286817, -25.4570731], [-49.228786, -25.4570274]]]}}, {"type": "Feature", "properties": {"type": "way", "id": 465941013, "building": "yes"}, "geometry": {"type": "Polygon", "coordinates": [[[-49.2288034, -25.4570646], [-49.2287867, -25.4570332], [-49.2286824, -25.4570786], [-49.2286992, -25.45711], [-49.2288034, -25.4570646]]]}}, {"type": "Feature", "properties": {"type": "way", "id": 465941014, "addr:housenumber": "294", "addr:street": "Rua Heitor de Andrade", "building": "yes"}, "geometry": {"type": "Polygon", "coordinates": [[[-49.2288326, -25.4571321], [-49.2288048, -25.4570775], [-49.2287035, -25.4571195], [-49.2287314, -25.4571742], [-49.2288326, -25.4571321]]]}}, {"type": "Feature", "properties": {"type": "way", "id": 465941015, "addr:housenumber": "302", "addr:street": "Rua Heitor de Andrade", "building": "yes"}, "geometry": {"type": "Polygon", "coordinates": [[[-49.228836, -25.4572105], [-49.2288095, -25.4571582], [-49.2286721, -25.4572148], [-49.2286985, -25.4572671], [-49.228836, -25.4572105]]]}}, {"type": "Feature", "properties": {"type": "way", "id": 465941016, "addr:housenumber": "312", "addr:street": "Rua Heitor de Andrade", "building": "yes"}, "geometry": {"type": "Polygon", "coordinates": [[[-49.2289114, -25.4572608], [-49.228886, -25.4572112], [-49.22876, -25.4572639], [-49.2287853, -25.4573135], [-49.2289114, -25.4572608]]]}}, {"type": "Feature", "properties": {"type": "way", "id": 465941017, "addr:housenumber": "318", "addr:street": "Rua Heitor de Andrade", "building": "yes"}, "geometry": {"type": "Polygon", "coordinates": [[[-49.2289352, -25.4573204], [-49.2289122, -25.4572762], [-49.2288022, -25.4573228], [-49.2288252, -25.457367], [-49.2289352, -25.4573204]]]}}, {"type": "Feature", "properties": {"type": "way", "id": 465941018, "addr:housenumber": "326", "addr:street": "Rua Heitor de Andrade", "building": "yes"}, "geometry": {"type": "Polygon", "coordinates": [[[-49.2289342, -25.4574106], [-49.2289072, -25.4573637], [-49.2288194, -25.4574048], [-49.2288464, -25.4574518], [-49.2289342, -25.4574106]]]}}, {"type": "Feature", "properties": {"type": "way", "id": 465941019, "building": "yes"}, "geometry": {"type": "Polygon", "coordinates": [[[-49.2290546, -25.457456], [-49.2290198, -25.4573951], [-49.2289488, -25.457428], [-49.2289835, -25.457489], [-49.2290546, -25.457456]]]}}, {"type": "Feature", "properties": {"type": "way", "id": 465941020, "addr:housenumber": "53", "addr:street": "Rua Luiz Carlos Kr\u00fcger Pereira", "building": "yes"}, "geometry": {"type": "Polygon", "coordinates": [[[-49.2291444, -25.4574569], [-49.2290713, -25.4573191], [-49.2290307, -25.4573367], [-49.2291039, -25.4574745], [-49.2291444, -25.4574569]]]}}, {"type": "Feature", "properties": {"type": "way", "id": 465941021, "addr:housenumber": "45", "addr:street": "Rua Luiz Carlos Kr\u00fcger Pereira", "building": "yes"}, "geometry": {"type": "Polygon", "coordinates": [[[-49.229125, -25.4572862], [-49.2290842, -25.4573046], [-49.2291389, -25.4574033], [-49.2291796, -25.4573849], [-49.229125, -25.4572862]]]}}, {"type": "Feature", "properties": {"type": "way", "id": 465941022, "addr:housenumber": "37", "addr:street": "Rua Luiz Carlos Kr\u00fcger Pereira", "building": "yes"}, "geometry": {"type": "Polygon", "coordinates": [[[-49.2292118, -25.4573773], [-49.2292635, -25.4573559], [-49.2292253, -25.4572806], [-49.2291736, -25.4573019], [-49.2292118, -25.4573773]]]}}, {"type": "Feature", "properties": {"type": "way", "id": 465941023, "addr:housenumber": "31", "addr:street": "Rua Luiz Carlos Kr\u00fcger Pereira", "building": "yes"}, "geometry": {"type": "Polygon", "coordinates": [[[-49.2292973, -25.4572596], [-49.2292411, -25.4572821], [-49.2292944, -25.4573907], [-49.2293506, -25.4573682], [-49.2292973, -25.4572596]]]}}, {"type": "Feature", "properties": {"type": "way", "id": 465941024, "building": "yes"}, "geometry": {"type": "Polygon", "coordinates": [[[-49.2294023, -25.4572375], [-49.2293392, -25.4572586], [-49.2293758, -25.4573476], [-49.2294388, -25.4573265], [-49.2294023, -25.4572375]]]}}, {"type": "Feature", "properties": {"type": "way", "id": 465941025, "building": "yes"}, "geometry": {"type": "Polygon", "coordinates": [[[-49.2294908, -25.4572039], [-49.2294153, -25.4572305], [-49.2294366, -25.4572796], [-49.229512, -25.457253], [-49.2294908, -25.4572039]]]}}, {"type": "Feature", "properties": {"type": "way", "id": 465941026, "addr:housenumber": "475", "addr:street": "Rua Ana Berta Roskamp", "building": "yes"}, "geometry": {"type": "Polygon", "coordinates": [[[-49.2294683, -25.4571409], [-49.2293251, -25.4571954], [-49.2293481, -25.4572446], [-49.2294913, -25.4571901], [-49.2294683, -25.4571409]]]}}, {"type": "Feature", "properties": {"type": "way", "id": 465941027, "addr:housenumber": "467", "addr:street": "Rua Ana Berta Roskamp", "building": "yes"}, "geometry": {"type": "Polygon", "coordinates": [[[-49.2294448, -25.4570537], [-49.2292826, -25.4571264], [-49.2293122, -25.4571804], [-49.2294745, -25.4571077], [-49.2294448, -25.4570537]]]}}, {"type": "Feature", "properties": {"type": "way", "id": 465941028, "addr:housenumber": "453", "addr:street": "Rua Ana Berta Roskamp", "building": "yes"}, "geometry": {"type": "Polygon", "coordinates": [[[-49.2294012, -25.4569971], [-49.2292956, -25.4570401], [-49.2293206, -25.45709], [-49.2294262, -25.457047], [-49.2294012, -25.4569971]]]}}, {"type": "Feature", "properties": {"type": "way", "id": 465941029, "addr:housenumber": "445", "addr:street": "Rua Ana Berta Roskamp", "building": "yes"}, "geometry": {"type": "Polygon", "coordinates": [[[-49.229366, -25.4569266], [-49.2292598, -25.4569732], [-49.2292887, -25.457027], [-49.229395, -25.4569804], [-49.229366, -25.4569266]]]}}, {"type": "Feature", "properties": {"type": "way", "id": 465941030, "addr:housenumber": "433", "addr:street": "Rua Ana Berta Roskamp", "building": "yes"}, "geometry": {"type": "Polygon", "coordinates": [[[-49.2293362, -25.4568627], [-49.2292386, -25.4569024], [-49.2292631, -25.4569515], [-49.2293607, -25.4569118], [-49.2293362, -25.4568627]]]}}, {"type": "Feature", "properties": {"type": "way", "id": 465941031, "addr:housenumber": "427", "addr:street": "Rua Ana Berta Roskamp", "building": "yes"}, "geometry": {"type": "Polygon", "coordinates": [[[-49.229305, -25.4567949], [-49.2291974, -25.4568376], [-49.2292211, -25.4568863], [-49.2293287, -25.4568436], [-49.229305, -25.4567949]]]}}, {"type": "Feature", "properties": {"type": "way", "id": 465941032, "building": "yes"}, "geometry": {"type": "Polygon", "coordinates": [[[-49.229168, -25.4567463], [-49.2291272, -25.4567642], [-49.2291644, -25.4568332], [-49.2292053, -25.4568153], [-49.229168, -25.4567463]]]}}, {"type": "Feature", "properties": {"type": "way", "id": 465941033, "building": "yes"}, "geometry": {"type": "Polygon", "coordinates": [[[-49.2292143, -25.4567287], [-49.2291734, -25.4567467], [-49.2292107, -25.4568157], [-49.2292515, -25.4567977], [-49.2292143, -25.4567287]]]}}, {"type": "Feature", "properties": {"type": "way", "id": 465941034, "building": "yes"}, "geometry": {"type": "Polygon", "coordinates": [[[-49.2292592, -25.4567096], [-49.2292184, -25.4567276], [-49.2292556, -25.4567966], [-49.2292964, -25.4567786], [-49.2292592, -25.4567096]]]}}, {"type": "Feature", "properties": {"type": "way", "id": 465941035, "building": "yes"}, "geometry": {"type": "Polygon", "coordinates": [[[-49.2293027, -25.4566901], [-49.2292618, -25.4567081], [-49.229299, -25.4567771], [-49.2293399, -25.4567592], [-49.2293027, -25.4566901]]]}}, {"type": "Feature", "properties": {"type": "way", "id": 465944024, "building": "yes"}, "geometry": {"type": "Polygon", "coordinates": [[[-49.2272209, -25.4554702], [-49.227178, -25.4553848], [-49.2271345, -25.4554026], [-49.2271775, -25.455488], [-49.2272209, -25.4554702]]]}}, {"type": "Feature", "properties": {"type": "way", "id": 465944025, "building": "yes"}, "geometry": {"type": "Polygon", "coordinates": [[[-49.2272471, -25.4554623], [-49.2272907, -25.4554468], [-49.2272524, -25.455359], [-49.2272088, -25.4553745], [-49.2272471, -25.4554623]]]}}, {"type": "Feature", "properties": {"type": "way", "id": 465944027, "building": "yes"}, "geometry": {"type": "Polygon", "coordinates": [[[-49.2272953, -25.4555573], [-49.2273485, -25.4555369], [-49.2273096, -25.4554545], [-49.2272564, -25.455475], [-49.2272953, -25.4555573]]]}}, {"type": "Feature", "properties": {"type": "way", "id": 465944029, "building": "yes"}, "geometry": {"type": "Polygon", "coordinates": [[[-49.2272598, -25.4557226], [-49.2272101, -25.4557418], [-49.2272511, -25.4558286], [-49.2273008, -25.4558094], [-49.2272598, -25.4557226]]]}}, {"type": "Feature", "properties": {"type": "way", "id": 465944031, "addr:housenumber": "605", "addr:street": "Rua Senador Batista de Oliveira", "building": "yes"}, "geometry": {"type": "Polygon", "coordinates": [[[-49.2274596, -25.4558552], [-49.227419, -25.4557693], [-49.2273248, -25.4558056], [-49.2273654, -25.4558915], [-49.2274596, -25.4558552]]]}}, {"type": "Feature", "properties": {"type": "way", "id": 465944033, "building": "yes"}, "geometry": {"type": "Polygon", "coordinates": [[[-49.2273792, -25.4557584], [-49.2274264, -25.4557402], [-49.2273872, -25.4556572], [-49.22734, -25.4556754], [-49.2273792, -25.4557584]]]}}, {"type": "Feature", "properties": {"type": "way", "id": 465944035, "building": "yes"}, "geometry": {"type": "Polygon", "coordinates": [[[-49.2272088, -25.455613], [-49.2271522, -25.4556349], [-49.2271968, -25.4557293], [-49.2272534, -25.4557075], [-49.2272088, -25.455613]]]}}, {"type": "Feature", "properties": {"type": "way", "id": 465944037, "building": "yes"}, "geometry": {"type": "Polygon", "coordinates": [[[-49.2273463, -25.4556324], [-49.2273197, -25.4555761], [-49.2272316, -25.45561], [-49.2272582, -25.4556663], [-49.2273463, -25.4556324]]]}}, {"type": "Feature", "properties": {"type": "way", "id": 465944039, "building": "yes"}, "geometry": {"type": "Polygon", "coordinates": [[[-49.2273409, -25.4555573], [-49.2273818, -25.4556439], [-49.2274631, -25.4556126], [-49.2274374, -25.4555581], [-49.2273966, -25.4555738], [-49.2273815, -25.4555417], [-49.2273409, -25.4555573]]]}}, {"type": "Feature", "properties": {"type": "way", "id": 465944041, "building": "yes"}, "geometry": {"type": "Polygon", "coordinates": [[[-49.2274864, -25.4556143], [-49.227395, -25.45565], [-49.227469, -25.4558044], [-49.2275062, -25.4557898], [-49.2274839, -25.4557432], [-49.2275381, -25.4557219], [-49.2274864, -25.4556143]]]}}, {"type": "Feature", "properties": {"type": "way", "id": 465944042, "building": "yes"}, "geometry": {"type": "Polygon", "coordinates": [[[-49.2276527, -25.4555525], [-49.2275858, -25.4555787], [-49.2275999, -25.4556082], [-49.2275564, -25.4556252], [-49.2275866, -25.455688], [-49.2275385, -25.4557068], [-49.2275751, -25.4557832], [-49.2277337, -25.4557212], [-49.2276527, -25.4555525]]]}}, {"type": "Feature", "properties": {"type": "way", "id": 465944045, "addr:housenumber": "81", "addr:street": "Rua Heitor de Andrade", "building": "yes", "survey:date": "2014-02-13"}, "geometry": {"type": "Polygon", "coordinates": [[[-49.2275119, -25.4554829], [-49.2275549, -25.4555725], [-49.2276434, -25.455538], [-49.2276003, -25.4554483], [-49.2275119, -25.4554829]]]}}, {"type": "Feature", "properties": {"type": "way", "id": 465944048, "addr:housenumber": "69", "addr:street": "Rua Heitor de Andrade", "building": "yes", "survey:date": "2014-02-13"}, "geometry": {"type": "Polygon", "coordinates": [[[-49.2275428, -25.4553581], [-49.2274945, -25.455377], [-49.2274982, -25.4553848], [-49.2273458, -25.4554444], [-49.2273789, -25.4555133], [-49.2275214, -25.4554575], [-49.2275257, -25.4554665], [-49.2275838, -25.4554438], [-49.2275428, -25.4553581]]]}}, {"type": "Feature", "properties": {"type": "way", "id": 465944050, "addr:housenumber": "57", "addr:street": "Rua Heitor de Andrade", "building": "yes", "survey:date": "2014-02-13"}, "geometry": {"type": "Polygon", "coordinates": [[[-49.2275012, -25.4552595], [-49.2273439, -25.455321], [-49.2273778, -25.4553916], [-49.2274793, -25.455352], [-49.2274853, -25.4553645], [-49.2275411, -25.4553427], [-49.2275012, -25.4552595]]]}}, {"type": "Feature", "properties": {"type": "way", "id": 465944052, "addr:housenumber": "49", "addr:street": "Rua Heitor de Andrade", "building": "yes", "survey:date": "2014-02-14"}, "geometry": {"type": "Polygon", "coordinates": [[[-49.2274482, -25.4551529], [-49.2273936, -25.4551743], [-49.2274009, -25.4551895], [-49.2272651, -25.4552426], [-49.2272997, -25.4553148], [-49.2274377, -25.4552609], [-49.2274427, -25.4552711], [-49.2274951, -25.4552506], [-49.2274482, -25.4551529]]]}}, {"type": "Feature", "properties": {"type": "way", "id": 465944054, "building": "yes"}, "geometry": {"type": "Polygon", "coordinates": [[[-49.2270285, -25.4550842], [-49.2269876, -25.4550091], [-49.2269453, -25.4550279], [-49.2269862, -25.4551029], [-49.2270285, -25.4550842]]]}}, {"type": "Feature", "properties": {"type": "way", "id": 465944056, "building": "yes"}, "geometry": {"type": "Polygon", "coordinates": [[[-49.2270177, -25.4552125], [-49.2269731, -25.4551089], [-49.2268886, -25.4551386], [-49.2269332, -25.4552422], [-49.2270177, -25.4552125]]]}}, {"type": "Feature", "properties": {"type": "way", "id": 465944059, "building": "yes"}, "geometry": {"type": "Polygon", "coordinates": [[[-49.227056, -25.4552949], [-49.2270235, -25.4552216], [-49.226943, -25.4552507], [-49.2269755, -25.4553239], [-49.227056, -25.4552949]]]}}, {"type": "Feature", "properties": {"type": "way", "id": 465944061, "building": "yes"}, "geometry": {"type": "Polygon", "coordinates": [[[-49.2270539, -25.4552573], [-49.2271565, -25.4552215], [-49.2270988, -25.4550871], [-49.2269963, -25.4551229], [-49.2270539, -25.4552573]]]}}, {"type": "Feature", "properties": {"type": "way", "id": 465944063, "addr:housenumber": "582", "addr:street": "Rua Herculano de Souza", "building": "yes"}, "geometry": {"type": "Polygon", "coordinates": [[[-49.2267726, -25.4550793], [-49.2266607, -25.4551223], [-49.2266984, -25.4552025], [-49.226762, -25.4551781], [-49.2267572, -25.4551679], [-49.2268056, -25.4551493], [-49.2267726, -25.4550793]]]}}, {"type": "Feature", "properties": {"type": "way", "id": 465944066, "addr:housenumber": "20", "addr:street": "Rua Pedro Demeterco", "building": "yes", "survey:date": "2014-12-30"}, "geometry": {"type": "Polygon", "coordinates": [[[-49.2269047, -25.4552501], [-49.2268518, -25.4551484], [-49.2267572, -25.4551885], [-49.2268024, -25.4552754], [-49.226842, -25.4552586], [-49.2268497, -25.4552734], [-49.2269047, -25.4552501]]]}}, {"type": "Feature", "properties": {"type": "way", "id": 465944068, "addr:housenumber": "46", "addr:street": "Rua Pedro Demeterco", "building": "yes", "survey:date": "2014-12-30"}, "geometry": {"type": "Polygon", "coordinates": [[[-49.2269805, -25.4553433], [-49.2268048, -25.4554093], [-49.2268457, -25.455498], [-49.2270214, -25.455432], [-49.2269805, -25.4553433]]]}}, {"type": "Feature", "properties": {"type": "way", "id": 465944070, "building": "yes"}, "geometry": {"type": "Polygon", "coordinates": [[[-49.2269906, -25.4554584], [-49.2268583, -25.455505], [-49.2268732, -25.4555395], [-49.2269541, -25.455511], [-49.2269509, -25.4555036], [-49.2270023, -25.4554855], [-49.2269906, -25.4554584]]]}}, {"type": "Feature", "properties": {"type": "way", "id": 465945535, "building": "yes"}, "geometry": {"type": "Polygon", "coordinates": [[[-49.2302905, -25.4555163], [-49.2302726, -25.455479], [-49.2301747, -25.4555172], [-49.2301926, -25.4555545], [-49.2302905, -25.4555163]]]}}, {"type": "Feature", "properties": {"type": "way", "id": 465945536, "building": "yes"}, "geometry": {"type": "Polygon", "coordinates": [[[-49.2304246, -25.4556628], [-49.2303821, -25.4556789], [-49.2304196, -25.45576], [-49.2304621, -25.455744], [-49.2304246, -25.4556628]]]}}, {"type": "Feature", "properties": {"type": "way", "id": 465945537, "building": "yes"}, "geometry": {"type": "Polygon", "coordinates": [[[-49.2305473, -25.4555914], [-49.2305024, -25.4554994], [-49.2304617, -25.4555155], [-49.2305066, -25.4556076], [-49.2305473, -25.4555914]]]}}, {"type": "Feature", "properties": {"type": "way", "id": 465945538, "building": "yes"}, "geometry": {"type": "Polygon", "coordinates": [[[-49.230491, -25.4556132], [-49.2304427, -25.4555212], [-49.230396, -25.4555411], [-49.2304443, -25.4556331], [-49.230491, -25.4556132]]]}}, {"type": "Feature", "properties": {"type": "way", "id": 465945539, "building": "yes"}, "geometry": {"type": "Polygon", "coordinates": [[[-49.2305594, -25.455661], [-49.230542, -25.4556221], [-49.2304354, -25.4556609], [-49.2304527, -25.4556998], [-49.2305594, -25.455661]]]}}, {"type": "Feature", "properties": {"type": "way", "id": 465945540, "building": "yes"}, "geometry": {"type": "Polygon", "coordinates": [[[-49.2306432, -25.4558402], [-49.2305768, -25.4557161], [-49.2304929, -25.4557527], [-49.2305592, -25.4558768], [-49.2306432, -25.4558402]]]}}, {"type": "Feature", "properties": {"type": "way", "id": 465945541, "building": "yes"}, "geometry": {"type": "Polygon", "coordinates": [[[-49.2302616, -25.4553377], [-49.2302133, -25.4552487], [-49.2301706, -25.4552676], [-49.2302188, -25.4553566], [-49.2302616, -25.4553377]]]}}, {"type": "Feature", "properties": {"type": "way", "id": 465945542, "building": "yes"}, "geometry": {"type": "Polygon", "coordinates": [[[-49.2301349, -25.4550537], [-49.2300931, -25.4550694], [-49.2301206, -25.4551293], [-49.2301624, -25.4551137], [-49.2301349, -25.4550537]]]}}, {"type": "Feature", "properties": {"type": "way", "id": 465945543, "addr:housenumber": "306", "addr:street": "Rua Senador Batista de Oliveira", "building": "yes", "survey:date": "2014-02-17"}, "geometry": {"type": "Polygon", "coordinates": [[[-49.230216, -25.4550247], [-49.230147, -25.455051], [-49.2302188, -25.4552042], [-49.2302878, -25.4551779], [-49.230216, -25.4550247]]]}}, {"type": "Feature", "properties": {"type": "way", "id": 465945544, "building": "yes"}, "geometry": {"type": "Polygon", "coordinates": [[[-49.2299914, -25.4551815], [-49.2299593, -25.4551147], [-49.2298728, -25.4551486], [-49.2299049, -25.4552154], [-49.2299914, -25.4551815]]]}}, {"type": "Feature", "properties": {"type": "way", "id": 465945545, "building": "yes"}, "geometry": {"type": "Polygon", "coordinates": [[[-49.2301094, -25.4551391], [-49.2300757, -25.4550699], [-49.2299751, -25.4551098], [-49.2300088, -25.4551791], [-49.2301094, -25.4551391]]]}}, {"type": "Feature", "properties": {"type": "way", "id": 465945546, "addr:housenumber": "356", "addr:street": "Rua Rodolpho Senff", "building": "yes", "survey:date": "2014-12-30"}, "geometry": {"type": "Polygon", "coordinates": [[[-49.2301047, -25.4552681], [-49.2300677, -25.4551847], [-49.2299121, -25.455241], [-49.2299491, -25.4553244], [-49.2301047, -25.4552681]]]}}, {"type": "Feature", "properties": {"type": "way", "id": 465945547, "addr:housenumber": "380", "addr:street": "Rua Rodolpho Senff", "building": "yes", "survey:date": "2014-12-30"}, "geometry": {"type": "Polygon", "coordinates": [[[-49.2301436, -25.4553752], [-49.2301039, -25.455293], [-49.2299685, -25.4553462], [-49.2300082, -25.4554285], [-49.2301436, -25.4553752]]]}}, {"type": "Feature", "properties": {"type": "way", "id": 465945548, "addr:housenumber": "384", "addr:street": "Rua Rodolpho Senff", "building": "yes", "survey:date": "2014-12-30"}, "geometry": {"type": "Polygon", "coordinates": [[[-49.2302328, -25.4553656], [-49.2300705, -25.4554225], [-49.2301095, -25.4555131], [-49.2302718, -25.4554562], [-49.2302328, -25.4553656]]]}}, {"type": "Feature", "properties": {"type": "way", "id": 465945549, "addr:housenumber": "394", "addr:street": "Rua Rodolpho Senff", "building": "yes", "survey:date": "2014-12-30"}, "geometry": {"type": "Polygon", "coordinates": [[[-49.2301919, -25.4556077], [-49.2301438, -25.4555188], [-49.2300685, -25.455552], [-49.2301166, -25.4556409], [-49.2301919, -25.4556077]]]}}, {"type": "Feature", "properties": {"type": "way", "id": 465945550, "addr:housenumber": "410", "addr:street": "Rua Rodolpho Senff", "building": "yes", "survey:date": "2014-12-30"}, "geometry": {"type": "Polygon", "coordinates": [[[-49.2302992, -25.4555914], [-49.230214, -25.455629], [-49.2302078, -25.4556174], [-49.2301512, -25.4556423], [-49.2301575, -25.4556539], [-49.2301083, -25.4556756], [-49.2301476, -25.4557482], [-49.2302085, -25.4557213], [-49.2301996, -25.4557049], [-49.230233, -25.4556901], [-49.2302419, -25.4557066], [-49.2303385, -25.455664], [-49.2302992, -25.4555914]]]}}, {"type": "Feature", "properties": {"type": "way", "id": 465945551, "addr:housenumber": "422", "addr:street": "Rua Rodolpho Senff", "building": "yes", "survey:date": "2014-12-30"}, "geometry": {"type": "Polygon", "coordinates": [[[-49.2302898, -25.4557058], [-49.230151, -25.4557671], [-49.2302053, -25.4558675], [-49.2302748, -25.4558368], [-49.230265, -25.4558188], [-49.2303344, -25.4557882], [-49.2302898, -25.4557058]]]}}, {"type": "Feature", "properties": {"type": "way", "id": 465945552, "building": "yes"}, "geometry": {"type": "Polygon", "coordinates": [[[-49.2303823, -25.4558687], [-49.2303625, -25.4558321], [-49.2302914, -25.4558635], [-49.2302837, -25.4558492], [-49.230208, -25.4558826], [-49.2302355, -25.4559335], [-49.2303823, -25.4558687]]]}}, {"type": "Feature", "properties": {"type": "way", "id": 465945553, "building": "yes"}, "geometry": {"type": "Polygon", "coordinates": [[[-49.2303964, -25.4559076], [-49.2303821, -25.4558806], [-49.2302372, -25.4559434], [-49.2302576, -25.4559817], [-49.2303265, -25.4559518], [-49.2303205, -25.4559406], [-49.2303964, -25.4559076]]]}}, {"type": "Feature", "properties": {"type": "way", "id": 465945554, "building": "yes"}, "geometry": {"type": "Polygon", "coordinates": [[[-49.2305801, -25.4559698], [-49.2305445, -25.4558959], [-49.2302722, -25.4560031], [-49.2303079, -25.456077], [-49.2305801, -25.4559698]]]}}, {"type": "Feature", "properties": {"type": "way", "id": 465945555, "addr:housenumber": "803", "addr:street": "Avenida Coronel Francisco h dos Santos", "building": "yes", "survey:date": "2014-02-17"}, "geometry": {"type": "Polygon", "coordinates": [[[-49.2308172, -25.4554842], [-49.2307686, -25.4553868], [-49.2305822, -25.4554624], [-49.2306238, -25.4555459], [-49.2307539, -25.4554931], [-49.2307608, -25.4555071], [-49.2308172, -25.4554842]]]}}, {"type": "Feature", "properties": {"type": "way", "id": 465945556, "addr:housenumber": "815", "addr:street": "Avenida Coronel Francisco h dos Santos", "amenity": "dentist", "building": "yes", "name": "Consult\u00f3rio Odontologia", "survey:date": "2014-02-17"}, "geometry": {"type": "Polygon", "coordinates": [[[-49.2308802, -25.4556126], [-49.2308252, -25.4555012], [-49.2307546, -25.4555296], [-49.2308096, -25.455641], [-49.2308802, -25.4556126]]]}}, {"type": "Feature", "properties": {"type": "way", "id": 465945557, "addr:housenumber": "833", "addr:street": "Avenida Coronel Francisco h dos Santos", "building": "yes", "survey:date": "2014-02-17"}, "geometry": {"type": "Polygon", "coordinates": [[[-49.2308634, -25.4556392], [-49.2307146, -25.4556937], [-49.2307474, -25.4557667], [-49.230833, -25.4557354], [-49.2308389, -25.4557485], [-49.2309021, -25.4557254], [-49.2308634, -25.4556392]]]}}, {"type": "Feature", "properties": {"type": "way", "id": 466140703, "addr:housenumber": "325", "addr:street": "Rua Herculano de Souza", "building": "yes"}, "geometry": {"type": "Polygon", "coordinates": [[[-49.2290197, -25.4539598], [-49.228993, -25.4539007], [-49.2287858, -25.4539769], [-49.2288125, -25.4540361], [-49.2290197, -25.4539598]]]}}, {"type": "Feature", "properties": {"type": "way", "id": 466140704, "addr:housenumber": "183", "addr:street": "Rua Rodolpho Senff", "building": "yes", "survey:date": "2014-02-14"}, "geometry": {"type": "Polygon", "coordinates": [[[-49.2289714, -25.4538811], [-49.2289356, -25.4538053], [-49.2288035, -25.4538562], [-49.2288393, -25.4539319], [-49.2289714, -25.4538811]]]}}, {"type": "Feature", "properties": {"type": "way", "id": 466140707, "addr:housenumber": "171", "addr:street": "Rua Rodolpho Senff", "building": "yes"}, "geometry": {"type": "Polygon", "coordinates": [[[-49.2289553, -25.4537709], [-49.228918, -25.4536911], [-49.2288464, -25.4537184], [-49.2288493, -25.4537246], [-49.2286922, -25.4537845], [-49.2287233, -25.4538511], [-49.2288932, -25.4537863], [-49.2288965, -25.4537933], [-49.2289553, -25.4537709]]]}}, {"type": "Feature", "properties": {"type": "way", "id": 466140708, "addr:housenumber": "159", "addr:street": "Rua Rodolpho Senff", "building": "yes", "survey:date": "2014-02-14"}, "geometry": {"type": "Polygon", "coordinates": [[[-49.2288808, -25.4536813], [-49.2288383, -25.4535926], [-49.2287691, -25.4536197], [-49.2287745, -25.453631], [-49.2285761, -25.4537086], [-49.2286133, -25.453786], [-49.2288808, -25.4536813]]]}}, {"type": "Feature", "properties": {"type": "way", "id": 466140710, "addr:housenumber": "147", "addr:street": "Rua Rodolpho Senff", "building": "yes", "survey:date": "2014-02-14"}, "geometry": {"type": "Polygon", "coordinates": [[[-49.2288406, -25.4535808], [-49.2287999, -25.4534916], [-49.2286584, -25.4535442], [-49.2286816, -25.4535951], [-49.2286954, -25.4535899], [-49.2287129, -25.4536283], [-49.2288406, -25.4535808]]]}}, {"type": "Feature", "properties": {"type": "way", "id": 466140734, "building": "yes"}, "geometry": {"type": "Polygon", "coordinates": [[[-49.2284571, -25.4535923], [-49.2283907, -25.4534905], [-49.2283448, -25.4535149], [-49.2284112, -25.4536167], [-49.2284571, -25.4535923]]]}}, {"type": "Feature", "properties": {"type": "way", "id": 466140741, "building": "yes"}, "geometry": {"type": "Polygon", "coordinates": [[[-49.228382, -25.4536013], [-49.2283174, -25.4535408], [-49.2282115, -25.4536328], [-49.228276, -25.4536934], [-49.228382, -25.4536013]]]}}, {"type": "Feature", "properties": {"type": "way", "id": 466140743, "building": "yes"}, "geometry": {"type": "Polygon", "coordinates": [[[-49.2277992, -25.4540222], [-49.2277242, -25.4539637], [-49.227623, -25.4540697], [-49.2276824, -25.454116], [-49.2277299, -25.4540663], [-49.2277455, -25.4540785], [-49.2277992, -25.4540222]]]}}, {"type": "Feature", "properties": {"type": "way", "id": 466140744, "building": "yes"}, "geometry": {"type": "Polygon", "coordinates": [[[-49.2281352, -25.4543316], [-49.2281087, -25.4542785], [-49.2280259, -25.4543122], [-49.2280524, -25.4543653], [-49.2281352, -25.4543316]]]}}, {"type": "Feature", "properties": {"type": "way", "id": 466140746, "building": "yes"}, "geometry": {"type": "Polygon", "coordinates": [[[-49.2280165, -25.4543915], [-49.2280499, -25.4543779], [-49.2279977, -25.4542734], [-49.2279644, -25.454287], [-49.2280165, -25.4543915]]]}}, {"type": "Feature", "properties": {"type": "way", "id": 466140747, "building": "yes"}, "geometry": {"type": "Polygon", "coordinates": [[[-49.2279769, -25.4544091], [-49.2280119, -25.4543949], [-49.2279588, -25.4542886], [-49.2279239, -25.4543028], [-49.2279769, -25.4544091]]]}}, {"type": "Feature", "properties": {"type": "way", "id": 466140749, "building": "yes"}, "geometry": {"type": "Polygon", "coordinates": [[[-49.2279622, -25.4544085], [-49.2279118, -25.4543074], [-49.2278046, -25.4543509], [-49.227855, -25.454452], [-49.2279622, -25.4544085]]]}}, {"type": "Feature", "properties": {"type": "way", "id": 466140751, "addr:housenumber": "443", "addr:street": "Rua Herculano de Souza", "building": "yes", "survey:date": "2014-02-14"}, "geometry": {"type": "Polygon", "coordinates": [[[-49.2278428, -25.4544545], [-49.2277697, -25.454308], [-49.2276928, -25.4543392], [-49.2277659, -25.4544857], [-49.2278428, -25.4544545]]]}}, {"type": "Feature", "properties": {"type": "way", "id": 466140753, "building": "yes"}, "geometry": {"type": "Polygon", "coordinates": [[[-49.2275317, -25.4545732], [-49.2275833, -25.4545519], [-49.2275484, -25.4544829], [-49.2274968, -25.4545042], [-49.2275317, -25.4545732]]]}}, {"type": "Feature", "properties": {"type": "way", "id": 466140754, "building": "yes"}, "geometry": {"type": "Polygon", "coordinates": [[[-49.2274965, -25.4545011], [-49.2275481, -25.4544799], [-49.2275132, -25.4544109], [-49.2274616, -25.4544321], [-49.2274965, -25.4545011]]]}}, {"type": "Feature", "properties": {"type": "way", "id": 466140756, "building": "yes"}, "geometry": {"type": "Polygon", "coordinates": [[[-49.2274636, -25.4544291], [-49.2275152, -25.4544078], [-49.2274804, -25.4543388], [-49.2274288, -25.4543601], [-49.2274636, -25.4544291]]]}}, {"type": "Feature", "properties": {"type": "way", "id": 466140757, "building": "yes"}, "geometry": {"type": "Polygon", "coordinates": [[[-49.2274278, -25.4543579], [-49.2274794, -25.4543367], [-49.2274445, -25.4542676], [-49.2273929, -25.4542889], [-49.2274278, -25.4543579]]]}}, {"type": "Feature", "properties": {"type": "way", "id": 466140759, "building": "yes"}, "geometry": {"type": "Polygon", "coordinates": [[[-49.2275554, -25.4543009], [-49.2276333, -25.4542708], [-49.2275978, -25.4541957], [-49.2275199, -25.4542258], [-49.2275554, -25.4543009]]]}}, {"type": "Feature", "properties": {"type": "way", "id": 466140760, "building": "yes"}, "geometry": {"type": "Polygon", "coordinates": [[[-49.2275977, -25.4543844], [-49.2276756, -25.4543544], [-49.22764, -25.4542793], [-49.2275622, -25.4543094], [-49.2275977, -25.4543844]]]}}, {"type": "Feature", "properties": {"type": "way", "id": 466140762, "building": "yes"}, "geometry": {"type": "Polygon", "coordinates": [[[-49.2276383, -25.4544663], [-49.2277162, -25.4544362], [-49.2276807, -25.4543611], [-49.2276028, -25.4543912], [-49.2276383, -25.4544663]]]}}, {"type": "Feature", "properties": {"type": "way", "id": 466140763, "addr:housenumber": "493", "addr:street": "Rua Senador Batista de Oliveira", "building": "yes", "survey:date": "2014-02-17"}, "geometry": {"type": "Polygon", "coordinates": [[[-49.2283834, -25.4554998], [-49.2284347, -25.4554808], [-49.2283974, -25.4553987], [-49.2283461, -25.4554177], [-49.2283834, -25.4554998]]]}}, {"type": "Feature", "properties": {"type": "way", "id": 466140765, "addr:housenumber": "501", "addr:street": "Rua Senador Batista de Oliveira", "building": "yes", "survey:date": "2014-02-17"}, "geometry": {"type": "Polygon", "coordinates": [[[-49.2283129, -25.4555331], [-49.2283708, -25.4555117], [-49.2283237, -25.4554078], [-49.2282658, -25.4554292], [-49.2283129, -25.4555331]]]}}, {"type": "Feature", "properties": {"type": "way", "id": 466140766, "addr:housenumber": "509", "addr:street": "Rua Senador Batista de Oliveira", "building": "yes", "survey:date": "2014-01-30"}, "geometry": {"type": "Polygon", "coordinates": [[[-49.2282479, -25.4555688], [-49.2283029, -25.4555485], [-49.2282446, -25.4554199], [-49.2281896, -25.4554402], [-49.2282479, -25.4555688]]]}}, {"type": "Feature", "properties": {"type": "way", "id": 466140768, "addr:housenumber": "515", "addr:street": "Rua Senador Batista de Oliveira", "building": "yes", "survey:date": "2014-01-30"}, "geometry": {"type": "Polygon", "coordinates": [[[-49.2281829, -25.4556227], [-49.2282133, -25.4556114], [-49.2282046, -25.4555921], [-49.2282314, -25.4555821], [-49.2281721, -25.4554514], [-49.2281148, -25.4554726], [-49.2281829, -25.4556227]]]}}, {"type": "Feature", "properties": {"type": "way", "id": 466140769, "building": "yes"}, "geometry": {"type": "Polygon", "coordinates": [[[-49.2280742, -25.4556415], [-49.2281582, -25.4556104], [-49.2281063, -25.4554959], [-49.2280223, -25.4555269], [-49.2280742, -25.4556415]]]}}, {"type": "Feature", "properties": {"type": "way", "id": 466140771, "addr:housenumber": "30", "addr:street": "Rua Benedicto Campos", "building": "yes", "survey:date": "2014-02-13"}, "geometry": {"type": "Polygon", "coordinates": [[[-49.2282814, -25.4552637], [-49.2283299, -25.4552443], [-49.2282719, -25.4551261], [-49.2282234, -25.4551455], [-49.2282814, -25.4552637]]]}}, {"type": "Feature", "properties": {"type": "way", "id": 466140772, "addr:housenumber": "36", "addr:street": "Rua Benedicto Campos", "building": "yes", "survey:date": "2014-02-13"}, "geometry": {"type": "Polygon", "coordinates": [[[-49.2282016, -25.4552976], [-49.2282574, -25.4552753], [-49.2281912, -25.4551404], [-49.2281354, -25.4551626], [-49.2282016, -25.4552976]]]}}, {"type": "Feature", "properties": {"type": "way", "id": 466140774, "addr:housenumber": "44", "addr:street": "Rua Benedicto Campos", "building": "yes", "survey:date": "2014-02-13"}, "geometry": {"type": "Polygon", "coordinates": [[[-49.2281808, -25.4552952], [-49.2281269, -25.4551851], [-49.2280736, -25.4552064], [-49.2281276, -25.4553165], [-49.2281808, -25.4552952]]]}}, {"type": "Feature", "properties": {"type": "way", "id": 466140775, "addr:housenumber": "50", "addr:street": "Rua Benedicto Campos", "building": "yes", "survey:date": "2014-02-13"}, "geometry": {"type": "Polygon", "coordinates": [[[-49.2280387, -25.4553], [-49.2280983, -25.4552762], [-49.2280622, -25.4552025], [-49.2280026, -25.4552264], [-49.2280387, -25.4553]]]}}, {"type": "Feature", "properties": {"type": "way", "id": 466140777, "building": "yes"}, "geometry": {"type": "Polygon", "coordinates": [[[-49.2279676, -25.4553042], [-49.2280116, -25.4552866], [-49.2279733, -25.4552084], [-49.2279292, -25.455226], [-49.2279676, -25.4553042]]]}}, {"type": "Feature", "properties": {"type": "way", "id": 466140779, "building": "yes"}, "geometry": {"type": "Polygon", "coordinates": [[[-49.2280528, -25.4553478], [-49.2280284, -25.4552974], [-49.2279582, -25.455325], [-49.2279826, -25.4553755], [-49.2280528, -25.4553478]]]}}, {"type": "Feature", "properties": {"type": "way", "id": 466140780, "building": "yes"}, "geometry": {"type": "Polygon", "coordinates": [[[-49.228087, -25.455409], [-49.2280598, -25.4553527], [-49.2280175, -25.4553693], [-49.2280264, -25.4553877], [-49.2279946, -25.4554003], [-49.2280129, -25.4554382], [-49.228087, -25.455409]]]}}, {"type": "Feature", "properties": {"type": "way", "id": 466140782, "addr:housenumber": "68", "addr:street": "Rua Heitor de Andrade", "building": "yes"}, "geometry": {"type": "Polygon", "coordinates": [[[-49.2279408, -25.4553157], [-49.2279122, -25.4552565], [-49.2278027, -25.4552996], [-49.2278194, -25.455334], [-49.2278274, -25.4553309], [-49.2278394, -25.4553557], [-49.2279408, -25.4553157]]]}}, {"type": "Feature", "properties": {"type": "way", "id": 466140783, "addr:housenumber": "78", "addr:street": "Rua Heitor de Andrade", "building": "yes", "survey:date": "2014-02-13"}, "geometry": {"type": "Polygon", "coordinates": [[[-49.2279515, -25.4553823], [-49.2279269, -25.4553314], [-49.2278355, -25.4553674], [-49.2278601, -25.4554184], [-49.2279515, -25.4553823]]]}}, {"type": "Feature", "properties": {"type": "way", "id": 466140785, "addr:housenumber": "86", "addr:street": "Rua Heitor de Andrade", "building": "yes", "survey:date": "2014-02-14"}, "geometry": {"type": "Polygon", "coordinates": [[[-49.2279897, -25.4554447], [-49.2279667, -25.4553965], [-49.2278695, -25.4554345], [-49.2278926, -25.4554827], [-49.2279897, -25.4554447]]]}}, {"type": "Feature", "properties": {"type": "way", "id": 466140786, "addr:housenumber": "94", "addr:street": "Rua Heitor de Andrade", "building": "yes", "survey:date": "2014-02-17"}, "geometry": {"type": "Polygon", "coordinates": [[[-49.228026, -25.4555046], [-49.2280018, -25.4554547], [-49.2278974, -25.4554958], [-49.2279215, -25.4555458], [-49.228026, -25.4555046]]]}}, {"type": "Feature", "properties": {"type": "way", "id": 466140788, "addr:housenumber": "102", "addr:street": "Rua Heitor de Andrade", "building": "yes", "survey:date": "2014-02-17"}, "geometry": {"type": "Polygon", "coordinates": [[[-49.2280327, -25.4555888], [-49.2280094, -25.4555406], [-49.2279353, -25.4555698], [-49.2279586, -25.455618], [-49.2280327, -25.4555888]]]}}, {"type": "Feature", "properties": {"type": "way", "id": 466140789, "addr:housenumber": "112", "addr:street": "Rua Heitor de Andrade", "building": "yes", "survey:date": "2014-01-30"}, "geometry": {"type": "Polygon", "coordinates": [[[-49.2280555, -25.4556391], [-49.2280355, -25.4555978], [-49.2279627, -25.4556265], [-49.2279827, -25.4556678], [-49.2280555, -25.4556391]]]}}, {"type": "Feature", "properties": {"type": "way", "id": 466140791, "building": "yes"}, "geometry": {"type": "Polygon", "coordinates": [[[-49.2271495, -25.4559642], [-49.227119, -25.4559023], [-49.227049, -25.4559305], [-49.2270795, -25.4559923], [-49.2271495, -25.4559642]]]}}, {"type": "Feature", "properties": {"type": "way", "id": 466140792, "building": "yes"}, "geometry": {"type": "Polygon", "coordinates": [[[-49.2276879, -25.456678], [-49.227672, -25.4566457], [-49.2276148, -25.4566687], [-49.2276307, -25.456701], [-49.2276879, -25.456678]]]}}, {"type": "Feature", "properties": {"type": "way", "id": 466140793, "addr:housenumber": "178", "addr:street": "Rua Pedro Demeterco", "building": "yes"}, "geometry": {"type": "Polygon", "coordinates": [[[-49.2274707, -25.4565727], [-49.2274369, -25.4565043], [-49.227325, -25.4565493], [-49.2273587, -25.4566177], [-49.2274707, -25.4565727]]]}}, {"type": "Feature", "properties": {"type": "way", "id": 466140795, "addr:housenumber": "168", "addr:street": "Rua Pedro Demeterco", "building": "yes"}, "geometry": {"type": "Polygon", "coordinates": [[[-49.227462, -25.4564585], [-49.2274204, -25.4563744], [-49.2273358, -25.4564084], [-49.227332, -25.4564006], [-49.2272799, -25.4564216], [-49.2273282, -25.4565195], [-49.2273761, -25.4565002], [-49.2273732, -25.4564942], [-49.227462, -25.4564585]]]}}, {"type": "Feature", "properties": {"type": "way", "id": 466140796, "addr:housenumber": "156", "addr:street": "Rua Pedro Demeterco", "building": "yes"}, "geometry": {"type": "Polygon", "coordinates": [[[-49.2274137, -25.4563523], [-49.2273732, -25.4562646], [-49.227323, -25.4562835], [-49.2273309, -25.4563005], [-49.2273023, -25.4563113], [-49.2272945, -25.4562943], [-49.2272337, -25.4563172], [-49.2272741, -25.4564049], [-49.2274137, -25.4563523]]]}}, {"type": "Feature", "properties": {"type": "way", "id": 471812849, "addr:housenumber": "93", "addr:street": "Rua Luiz Condessa", "building": "house"}, "geometry": {"type": "Polygon", "coordinates": [[[-49.2264906, -25.4543847], [-49.2264395, -25.454524], [-49.2263505, -25.4544974], [-49.2263832, -25.4544082], [-49.2263653, -25.4544029], [-49.2263837, -25.4543528], [-49.2264906, -25.4543847]]]}}, {"type": "Feature", "properties": {"type": "way", "id": 471812854, "addr:housenumber": "62", "addr:street": "Rua Luiz Condessa", "building": "yes"}, "geometry": {"type": "Polygon", "coordinates": [[[-49.2264158, -25.4540039], [-49.2263284, -25.4539778], [-49.2262761, -25.4541207], [-49.2263635, -25.4541468], [-49.2264158, -25.4540039]]]}}, {"type": "Feature", "properties": {"type": "way", "id": 471812855, "addr:housenumber": "74", "addr:street": "Rua Luiz Condessa", "building": "yes"}, "geometry": {"type": "Polygon", "coordinates": [[[-49.2265425, -25.4540269], [-49.2264501, -25.4539981], [-49.2263911, -25.4541525], [-49.2264617, -25.4541745], [-49.2264753, -25.4541389], [-49.2264971, -25.4541456], [-49.2265425, -25.4540269]]]}}, {"type": "Feature", "properties": {"type": "way", "id": 471812856, "addr:housenumber": "439", "addr:street": "Avenida Nossa Senhora de Lourdes", "amenity": "restaurant", "building": "yes", "name": "Restaurante Tomodatti"}, "geometry": {"type": "Polygon", "coordinates": [[[-49.226635, -25.4540808], [-49.2265534, -25.454056], [-49.2265217, -25.4541411], [-49.2265109, -25.4541379], [-49.226491, -25.4541914], [-49.2265834, -25.4542194], [-49.226635, -25.4540808]]]}}, {"type": "Feature", "properties": {"type": "way", "id": 471812859, "addr:housenumber": "71", "addr:street": "Rua Doutor Juarez de Oliveira", "building": "yes"}, "geometry": {"type": "Polygon", "coordinates": [[[-49.2264091, -25.4537514], [-49.2263317, -25.4537211], [-49.2262861, -25.4538162], [-49.2263635, -25.4538465], [-49.2264091, -25.4537514]]]}}, {"type": "Feature", "properties": {"type": "way", "id": 471812861, "addr:housenumber": "85", "addr:street": "Rua Doutor Juarez de Oliveira", "building": "yes"}, "geometry": {"type": "Polygon", "coordinates": [[[-49.2265331, -25.4538004], [-49.2264405, -25.4537681], [-49.2264016, -25.4538589], [-49.2264942, -25.4538913], [-49.2265331, -25.4538004]]]}}, {"type": "Feature", "properties": {"type": "way", "id": 471812862, "addr:housenumber": "95", "addr:street": "Rua Doutor Juarez de Oliveira", "building": "yes"}, "geometry": {"type": "Polygon", "coordinates": [[[-49.2266464, -25.4538446], [-49.226556, -25.4538102], [-49.226507, -25.4539149], [-49.2265975, -25.4539494], [-49.2266464, -25.4538446]]]}}, {"type": "Feature", "properties": {"type": "way", "id": 471812864, "addr:housenumber": "113", "addr:street": "Rua Doutor Juarez de Oliveira", "building": "yes"}, "geometry": {"type": "Polygon", "coordinates": [[[-49.2267691, -25.4538755], [-49.2266816, -25.4538442], [-49.2266253, -25.4539726], [-49.2267128, -25.4540039], [-49.2267691, -25.4538755]]]}}]}